{
"type": "FeatureCollection",
"name": "geo_13_特定施設入居者生活介護（軽費老人ホーム）",
"crs": { "type": "name", "properties": { "name": "urn:ogc:def:crs:OGC:1.3:CRS84" } },
"features": [
{ "type": "Feature", "properties": { "内容": "ＳＯＭＰＯケア　そんぽの家あいおい【特定施設入居者生活介護（軽費老人ホーム）】東京都中央区佃3-1-15相生の里", "url2": "https://www.kaigokensaku.mhlw.go.jp/13/index.php?action_kouhyou_detail_004_kani=true&JigyosyoCd=1370202820-00&ServiceCd=332&Type=search" }, "geometry": { "type": "Point", "coordinates": [ 139.787326299999989, 35.665872 ] } },
{ "type": "Feature", "properties": { "内容": "ケアハウス　ありすの杜きのこ南麻布【特定施設入居者生活介護（軽費老人ホーム）】東京都港区南麻布四丁目６番１号南棟　ありすの杜南麻布", "url2": "https://www.kaigokensaku.mhlw.go.jp/13/index.php?action_kouhyou_detail_004_kani=true&JigyosyoCd=1370303164-00&ServiceCd=332&Type=search" }, "geometry": { "type": "Point", "coordinates": [ 139.726873899999987, 35.6502183 ] } },
{ "type": "Feature", "properties": { "内容": "介護専用型ケアハウスあかね記念【特定施設入居者生活介護（軽費老人ホーム）】東京都江東区大島7-38-15", "url2": "https://www.kaigokensaku.mhlw.go.jp/13/index.php?action_kouhyou_detail_004_kani=true&JigyosyoCd=1370807222-00&ServiceCd=332&Type=search" }, "geometry": { "type": "Point", "coordinates": [ 139.84201, 35.6914808 ] } },
{ "type": "Feature", "properties": { "内容": "介護専用型ケアハウス故郷の家・東京【特定施設入居者生活介護（軽費老人ホーム）】東京都江東区塩浜1-4-48故郷の家・東京", "url2": "https://www.kaigokensaku.mhlw.go.jp/13/index.php?action_kouhyou_detail_004_kani=true&JigyosyoCd=1370805986-00&ServiceCd=332&Type=search" }, "geometry": { "type": "Point", "coordinates": [ 139.802149730198835, 35.663863375503965 ] } },
{ "type": "Feature", "properties": { "内容": "タムスケアハウス　亀戸【特定施設入居者生活介護（軽費老人ホーム）】東京都江東区亀戸9-6-27", "url2": "https://www.kaigokensaku.mhlw.go.jp/13/index.php?action_kouhyou_detail_004_kani=true&JigyosyoCd=1370807321-00&ServiceCd=332&Type=search" }, "geometry": { "type": "Point", "coordinates": [ 139.8422099, 35.6962624 ] } },
{ "type": "Feature", "properties": { "内容": "ケアホーム西五反田・さくらハイツ西五反田【特定施設入居者生活介護（軽費老人ホーム）】東京都品川区西五反田３丁目６番６号", "url2": "https://www.kaigokensaku.mhlw.go.jp/13/index.php?action_kouhyou_detail_004_kani=true&JigyosyoCd=1370902056-00&ServiceCd=332&Type=search" }, "geometry": { "type": "Point", "coordinates": [ 139.716964299999972, 35.6281179 ] } },
{ "type": "Feature", "properties": { "内容": "ケアハウス江古田の森【特定施設入居者生活介護（軽費老人ホーム）】東京都中野区江古田3-14-19", "url2": "https://www.kaigokensaku.mhlw.go.jp/13/index.php?action_kouhyou_detail_004_kani=true&JigyosyoCd=1371402825-00&ServiceCd=332&Type=search" }, "geometry": { "type": "Point", "coordinates": [ 139.665365, 35.729588 ] } },
{ "type": "Feature", "properties": { "内容": "ニチイケアハウス井草【特定施設入居者生活介護（軽費老人ホーム）】東京都杉並区井草3－13－18", "url2": "https://www.kaigokensaku.mhlw.go.jp/13/index.php?action_kouhyou_detail_004_kani=true&JigyosyoCd=1371504364-00&ServiceCd=332&Type=search" }, "geometry": { "type": "Point", "coordinates": [ 139.6155612, 35.7265846 ] } },
{ "type": "Feature", "properties": { "内容": "ケアハウス葛飾敬寿園【特定施設入居者生活介護（軽費老人ホーム）】東京都葛飾区新宿3-19-19", "url2": "https://www.kaigokensaku.mhlw.go.jp/13/index.php?action_kouhyou_detail_004_kani=true&JigyosyoCd=1372203834-00&ServiceCd=332&Type=search" }, "geometry": { "type": "Point", "coordinates": [ 139.863891100000046, 35.759881 ] } },
{ "type": "Feature", "properties": { "内容": "アゼリーアネックス【特定施設入居者生活介護（軽費老人ホーム）】東京都江戸川区大杉2-10-16アゼリーアネックス", "url2": "https://www.kaigokensaku.mhlw.go.jp/13/index.php?action_kouhyou_detail_004_kani=true&JigyosyoCd=1372304541-00&ServiceCd=332&Type=search" }, "geometry": { "type": "Point", "coordinates": [ 139.879142099999967, 35.7064936 ] } },
{ "type": "Feature", "properties": { "内容": "弘陽園【特定施設入居者生活介護（軽費老人ホーム）】東京都三鷹市下連雀５－２－５", "url2": "https://www.kaigokensaku.mhlw.go.jp/13/index.php?action_kouhyou_detail_004_kani=true&JigyosyoCd=1373601531-00&ServiceCd=332&Type=search" }, "geometry": { "type": "Point", "coordinates": [ 139.571335664418029, 35.685657486763738 ] } },
{ "type": "Feature", "properties": { "内容": "医療法人社団佐々木クリニック　ケアハウス・ローズマリー【特定施設入居者生活介護（軽費老人ホーム）】東京都日野市東平山3-1-1", "url2": "https://www.kaigokensaku.mhlw.go.jp/13/index.php?action_kouhyou_detail_004_kani=true&JigyosyoCd=1373501590-00&ServiceCd=332&Type=search" }, "geometry": { "type": "Point", "coordinates": [ 139.378192300000023, 35.6548697 ] } },
{ "type": "Feature", "properties": { "内容": "あじさい苑【特定施設入居者生活介護（軽費老人ホーム）】東京都国分寺市東恋ヶ窪3-23-8", "url2": "https://www.kaigokensaku.mhlw.go.jp/13/index.php?action_kouhyou_detail_004_kani=true&JigyosyoCd=1373100500-00&ServiceCd=332&Type=search" }, "geometry": { "type": "Point", "coordinates": [ 139.4705937, 35.7064854 ] } },
{ "type": "Feature", "properties": { "内容": "ケアハウス国立あおやぎ苑【特定施設入居者生活介護（軽費老人ホーム）】東京都国立市青柳3-2-19", "url2": "https://www.kaigokensaku.mhlw.go.jp/13/index.php?action_kouhyou_detail_004_kani=true&JigyosyoCd=1373401288-00&ServiceCd=332&Type=search" }, "geometry": { "type": "Point", "coordinates": [ 139.422012099999961, 35.6873201 ] } },
{ "type": "Feature", "properties": { "内容": "介護専用型ケアハウスVillaあい武蔵村山【特定施設入居者生活介護（軽費老人ホーム）】東京都武蔵村山市中原4-3-2", "url2": "https://www.kaigokensaku.mhlw.go.jp/13/index.php?action_kouhyou_detail_004_kani=true&JigyosyoCd=1374901203-00&ServiceCd=332&Type=search" }, "geometry": { "type": "Point", "coordinates": [ 139.363840399999958, 35.7527054 ] } },
{ "type": "Feature", "properties": { "内容": "ケアハウス　シャングリラとも【特定施設入居者生活介護（軽費老人ホーム）】東京都多摩市永山3-12-2高齢者総合ケアセンター　ケアプラザ多摩", "url2": "https://www.kaigokensaku.mhlw.go.jp/13/index.php?action_kouhyou_detail_004_kani=true&JigyosyoCd=1375001508-00&ServiceCd=332&Type=search" }, "geometry": { "type": "Point", "coordinates": [ 139.44412116256558, 35.620729220157749 ] } }
]
}
