{
"type": "FeatureCollection",
"name": "geo_13_地域密着型特定施設入居者生活介護（軽費老人ホーム）",
"crs": { "type": "name", "properties": { "name": "urn:ogc:def:crs:OGC:1.3:CRS84" } },
"features": [
{ "type": "Feature", "properties": { "内容": "さんいくハイツ立花【地域密着型特定施設入居者生活介護（軽費老人ホーム）】東京都墨田区立花1丁目25番12号", "url2": "https://www.kaigokensaku.mhlw.go.jp/13/index.php?action_kouhyou_detail_004_kani=true&JigyosyoCd=1390700233-00&ServiceCd=362&Type=search" }, "geometry": { "type": "Point", "coordinates": [ 139.8314666, 35.7049251 ] } },
{ "type": "Feature", "properties": { "内容": "ケアホーム東大井【地域密着型特定施設入居者生活介護（軽費老人ホーム）】東京都品川区東大井5-8-12", "url2": "https://www.kaigokensaku.mhlw.go.jp/13/index.php?action_kouhyou_detail_004_kani=true&JigyosyoCd=1390900155-00&ServiceCd=362&Type=search" }, "geometry": { "type": "Point", "coordinates": [ 139.737902399999939, 35.6076376 ] } },
{ "type": "Feature", "properties": { "内容": "特定施設入居者生活介護　ル・ソラリオン葛飾【地域密着型特定施設入居者生活介護（軽費老人ホーム）】東京都葛飾区青戸４－１６－７", "url2": "https://www.kaigokensaku.mhlw.go.jp/13/index.php?action_kouhyou_detail_004_kani=true&JigyosyoCd=1392200026-00&ServiceCd=362&Type=search" }, "geometry": { "type": "Point", "coordinates": [ 139.850078899999971, 35.7509461 ] } }
]
}
