{
"type": "FeatureCollection",
"name": "geo_13_定期巡回・随時対応型訪問介護看護",
"crs": { "type": "name", "properties": { "name": "urn:ogc:def:crs:OGC:1.3:CRS84" } },
"features": [
{ "type": "Feature", "properties": { "内容": "かんだ連雀いつでもサポートサービス【定期巡回・随時対応型訪問介護看護】東京都千代田区神田淡路町２-８-１", "url2": "https://www.kaigokensaku.mhlw.go.jp/13/index.php?action_kouhyou_detail_004_kani=true&JigyosyoCd=1390100087-00&ServiceCd=760&Type=search" }, "geometry": { "type": "Point", "coordinates": [ 139.768444199999976, 35.6966556 ] } },
{ "type": "Feature", "properties": { "内容": "グッドライフケア２４【定期巡回・随時対応型訪問介護看護】東京都千代田区九段北2-3-7前川九段ビル2階", "url2": "https://www.kaigokensaku.mhlw.go.jp/13/index.php?action_kouhyou_detail_004_kani=true&JigyosyoCd=1390100079-00&ServiceCd=760&Type=search" }, "geometry": { "type": "Point", "coordinates": [ 139.745551852007623, 35.695188241908362 ] } },
{ "type": "Feature", "properties": { "内容": "SOMPOケアあいおい定期巡回【定期巡回・随時対応型訪問介護看護】東京都中央区佃3丁目１－１５", "url2": "https://www.kaigokensaku.mhlw.go.jp/13/index.php?action_kouhyou_detail_004_kani=true&JigyosyoCd=1390200101-00&ServiceCd=760&Type=search" }, "geometry": { "type": "Point", "coordinates": [ 139.787315323942607, 35.665873368522561 ] } },
{ "type": "Feature", "properties": { "内容": "グッドライフケア２４【定期巡回・随時対応型訪問介護看護】東京都港区東麻布１－７－３第二渡邊ビル２Ｆ", "url2": "https://www.kaigokensaku.mhlw.go.jp/13/index.php?action_kouhyou_detail_004_kani=true&JigyosyoCd=1390300216-00&ServiceCd=760&Type=search" }, "geometry": { "type": "Point", "coordinates": [ 139.743587899999966, 35.6576836 ] } },
{ "type": "Feature", "properties": { "内容": "ＳＯＭＰＯケア新宿　定期巡回【定期巡回・随時対応型訪問介護看護】東京都新宿区高田馬場2-5-23第1桂城ビル4階", "url2": "https://www.kaigokensaku.mhlw.go.jp/13/index.php?action_kouhyou_detail_004_kani=true&JigyosyoCd=1390400453-00&ServiceCd=760&Type=search" }, "geometry": { "type": "Point", "coordinates": [ 139.710883200000012, 35.7141321 ] } },
{ "type": "Feature", "properties": { "内容": "日本リック定期巡回市谷事業所【定期巡回・随時対応型訪問介護看護】東京都新宿区市谷台町4番地16号サンライズ市ヶ谷1階", "url2": "https://www.kaigokensaku.mhlw.go.jp/13/index.php?action_kouhyou_detail_004_kani=true&JigyosyoCd=1390400586-00&ServiceCd=760&Type=search" }, "geometry": { "type": "Point", "coordinates": [ 139.719705, 35.6930217 ] } },
{ "type": "Feature", "properties": { "内容": "エイプレイス新宿【定期巡回・随時対応型訪問介護看護】東京都新宿区高田馬場4-4-11内藤ビル1階", "url2": "https://www.kaigokensaku.mhlw.go.jp/13/index.php?action_kouhyou_detail_004_kani=true&JigyosyoCd=1390400230-00&ServiceCd=760&Type=search" }, "geometry": { "type": "Point", "coordinates": [ 139.701606893904113, 35.712476445125382 ] } },
{ "type": "Feature", "properties": { "内容": "せら定期巡回・随時訪問介護看護【定期巡回・随時対応型訪問介護看護】東京都文京区本郷3丁目15－2本郷二村ビル201", "url2": "https://www.kaigokensaku.mhlw.go.jp/13/index.php?action_kouhyou_detail_004_kani=true&JigyosyoCd=1390500351-00&ServiceCd=760&Type=search" }, "geometry": { "type": "Point", "coordinates": [ 139.761633433729571, 35.704742119520915 ] } },
{ "type": "Feature", "properties": { "内容": "グッドライフケア２４【定期巡回・随時対応型訪問介護看護】東京都文京区西片2-19-15", "url2": "https://www.kaigokensaku.mhlw.go.jp/13/index.php?action_kouhyou_detail_004_kani=true&JigyosyoCd=1390500153-00&ServiceCd=760&Type=search" }, "geometry": { "type": "Point", "coordinates": [ 139.756982561385598, 35.716400288894597 ] } },
{ "type": "Feature", "properties": { "内容": "SOMPOケア台東　定期巡回・随時対応型訪問介護看護【定期巡回・随時対応型訪問介護看護】東京都台東区寿1-5-9盛光伸光ビル8階", "url2": "https://www.kaigokensaku.mhlw.go.jp/13/index.php?action_kouhyou_detail_004_kani=true&JigyosyoCd=1390600367-00&ServiceCd=760&Type=search" }, "geometry": { "type": "Point", "coordinates": [ 139.7904714, 35.7068587 ] } },
{ "type": "Feature", "properties": { "内容": "ワンダフルサポート上野【定期巡回・随時対応型訪問介護看護】東京都台東区東上野2-10-4若林ビル101", "url2": "https://www.kaigokensaku.mhlw.go.jp/13/index.php?action_kouhyou_detail_004_kani=true&JigyosyoCd=1390600433-00&ServiceCd=760&Type=search" }, "geometry": { "type": "Point", "coordinates": [ 139.7787658, 35.7090846 ] } },
{ "type": "Feature", "properties": { "内容": "アウケアホーム墨田・定期巡回【定期巡回・随時対応型訪問介護看護】東京都墨田区押上3-24-18ハイツ伊藤201", "url2": "https://www.kaigokensaku.mhlw.go.jp/13/index.php?action_kouhyou_detail_004_kani=true&JigyosyoCd=1390700811-00&ServiceCd=760&Type=search" }, "geometry": { "type": "Point", "coordinates": [ 139.8168446, 35.7119676 ] } },
{ "type": "Feature", "properties": { "内容": "SOMPOケア東墨田　定期巡回【定期巡回・随時対応型訪問介護看護】東京都墨田区東墨田2-3-18そんぽの家Ｓ東墨田ヒカリ", "url2": "https://www.kaigokensaku.mhlw.go.jp/13/index.php?action_kouhyou_detail_004_kani=true&JigyosyoCd=1390700589-00&ServiceCd=760&Type=search" }, "geometry": { "type": "Point", "coordinates": [ 139.832661914094956, 35.718318277606862 ] } },
{ "type": "Feature", "properties": { "内容": "ＳＯＭＰＯケア　江東　定期巡回【定期巡回・随時対応型訪問介護看護】東京都江東区東陽5丁目30番13号東京原木会館７階", "url2": "https://www.kaigokensaku.mhlw.go.jp/13/index.php?action_kouhyou_detail_004_kani=true&JigyosyoCd=1390800397-00&ServiceCd=760&Type=search" }, "geometry": { "type": "Point", "coordinates": [ 139.815763417504826, 35.673660685323675 ] } },
{ "type": "Feature", "properties": { "内容": "アウケアホーム江東・定期巡回【定期巡回・随時対応型訪問介護看護】東京都江東区東陽町2-4-34東郷ビル(WEST)201", "url2": "https://www.kaigokensaku.mhlw.go.jp/13/index.php?action_kouhyou_detail_004_kani=true&JigyosyoCd=1390800611-00&ServiceCd=760&Type=search" }, "geometry": { "type": "Point", "coordinates": [ 139.817147299999988, 35.6690288 ] } },
{ "type": "Feature", "properties": { "内容": "グッドライフケア24【定期巡回・随時対応型訪問介護看護】東京都江東区豊洲4-2-2豊南堂ビル4階", "url2": "https://www.kaigokensaku.mhlw.go.jp/13/index.php?action_kouhyou_detail_004_kani=true&JigyosyoCd=1390800207-00&ServiceCd=760&Type=search" }, "geometry": { "type": "Point", "coordinates": [ 139.797717660713261, 35.655069542817955 ] } },
{ "type": "Feature", "properties": { "内容": "そよ風定期巡回　すなまち【定期巡回・随時対応型訪問介護看護】東京都江東区北砂4-26-6ママダビル1F", "url2": "https://www.kaigokensaku.mhlw.go.jp/13/index.php?action_kouhyou_detail_004_kani=true&JigyosyoCd=1390800470-00&ServiceCd=760&Type=search" }, "geometry": { "type": "Point", "coordinates": [ 139.833405500000026, 35.6798219 ] } },
{ "type": "Feature", "properties": { "内容": "アウケアホーム江東大島・定期巡回【定期巡回・随時対応型訪問介護看護】東京都江東区大島1－33－14秋山ビル302", "url2": "https://www.kaigokensaku.mhlw.go.jp/13/index.php?action_kouhyou_detail_004_kani=true&JigyosyoCd=1390800751-00&ServiceCd=760&Type=search" }, "geometry": { "type": "Point", "coordinates": [ 139.826197900000011, 35.6886204 ] } },
{ "type": "Feature", "properties": { "内容": "ＳＯＭＰＯケア　品川　定期巡回【定期巡回・随時対応型訪問介護看護】東京都品川区北品川3-11-16品川第一地域センタービル１階", "url2": "https://www.kaigokensaku.mhlw.go.jp/13/index.php?action_kouhyou_detail_004_kani=true&JigyosyoCd=1390900460-00&ServiceCd=760&Type=search" }, "geometry": { "type": "Point", "coordinates": [ 139.740053273506561, 35.616727054915138 ] } },
{ "type": "Feature", "properties": { "内容": "ＳＯＭＰＯケア　目黒　定期巡回【定期巡回・随時対応型訪問介護看護】東京都目黒区自由が丘1－20－19光進自由が丘ビルB1階一号室", "url2": "https://www.kaigokensaku.mhlw.go.jp/13/index.php?action_kouhyou_detail_004_kani=true&JigyosyoCd=1391000435-00&ServiceCd=760&Type=search" }, "geometry": { "type": "Point", "coordinates": [ 139.672437800000012, 35.626269500000014 ] } },
{ "type": "Feature", "properties": { "内容": "すまいるなーしんぐ【定期巡回・随時対応型訪問介護看護】東京都目黒区八雲2-8-2ウエルス都立大102", "url2": "https://www.kaigokensaku.mhlw.go.jp/13/index.php?action_kouhyou_detail_004_kani=true&JigyosyoCd=1391000666-00&ServiceCd=760&Type=search" }, "geometry": { "type": "Point", "coordinates": [ 139.672181, 35.616546899999982 ] } },
{ "type": "Feature", "properties": { "内容": "やさしい手学芸大学定期巡回・随時対応型訪問介護看護事業所【定期巡回・随時対応型訪問介護看護】東京都目黒区碑文谷５－２０－１ドゥオールビル２階２０１号", "url2": "https://www.kaigokensaku.mhlw.go.jp/13/index.php?action_kouhyou_detail_004_kani=true&JigyosyoCd=1391000179-00&ServiceCd=760&Type=search" }, "geometry": { "type": "Point", "coordinates": [ 139.6822565, 35.624531100000034 ] } },
{ "type": "Feature", "properties": { "内容": "そよ風定期巡回　かまた【定期巡回・随時対応型訪問介護看護】東京都大田区南蒲田2-8-10", "url2": "https://www.kaigokensaku.mhlw.go.jp/13/index.php?action_kouhyou_detail_004_kani=true&JigyosyoCd=1391101415-00&ServiceCd=760&Type=search" }, "geometry": { "type": "Point", "coordinates": [ 139.7258564, 35.5555997 ] } },
{ "type": "Feature", "properties": { "内容": "定期巡回池上長寿園24【定期巡回・随時対応型訪問介護看護】東京都大田区仲池上2-24-8特別養護老人ホーム池上　1階", "url2": "https://www.kaigokensaku.mhlw.go.jp/13/index.php?action_kouhyou_detail_004_kani=true&JigyosyoCd=1391100839-00&ServiceCd=760&Type=search" }, "geometry": { "type": "Point", "coordinates": [ 139.697843299999931, 35.5847507 ] } },
{ "type": "Feature", "properties": { "内容": "SOMPOケア在宅老人ホーム大田　定期巡回【定期巡回・随時対応型訪問介護看護】東京都大田区西蒲田6-36-11西蒲田NSビル　５階", "url2": "https://www.kaigokensaku.mhlw.go.jp/13/index.php?action_kouhyou_detail_004_kani=true&JigyosyoCd=1391101118-00&ServiceCd=760&Type=search" }, "geometry": { "type": "Point", "coordinates": [ 139.712880881158299, 35.564616257013434 ] } },
{ "type": "Feature", "properties": { "内容": "カラーズ２４【定期巡回・随時対応型訪問介護看護】東京都大田区大森西3-19-21", "url2": "https://www.kaigokensaku.mhlw.go.jp/13/index.php?action_kouhyou_detail_004_kani=true&JigyosyoCd=1391101522-00&ServiceCd=760&Type=search" }, "geometry": { "type": "Point", "coordinates": [ 139.7299213, 35.5725245 ] } },
{ "type": "Feature", "properties": { "内容": "やさしい手千歳烏山定期巡回・随時対応型訪問介護看護事業所【定期巡回・随時対応型訪問介護看護】東京都世田谷区南烏山6-10-9コーシャハイム千歳烏山9号棟１階", "url2": "https://www.kaigokensaku.mhlw.go.jp/13/index.php?action_kouhyou_detail_004_kani=true&JigyosyoCd=1391200639-00&ServiceCd=760&Type=search" }, "geometry": { "type": "Point", "coordinates": [ 139.597684100000038, 35.6689285 ] } },
{ "type": "Feature", "properties": { "内容": "ナーシング・ケアステーション梅ヶ丘【定期巡回・随時対応型訪問介護看護】東京都世田谷区松原六丁目37番1号", "url2": "https://www.kaigokensaku.mhlw.go.jp/13/index.php?action_kouhyou_detail_004_kani=true&JigyosyoCd=1391201231-00&ServiceCd=760&Type=search" }, "geometry": { "type": "Point", "coordinates": [ 139.650629400000071, 35.6576848 ] } },
{ "type": "Feature", "properties": { "内容": "24ケアステーション　ノテ東京【定期巡回・随時対応型訪問介護看護】東京都世田谷区深沢7-１7-20", "url2": "https://www.kaigokensaku.mhlw.go.jp/13/index.php?action_kouhyou_detail_004_kani=true&JigyosyoCd=1391200654-00&ServiceCd=760&Type=search" }, "geometry": { "type": "Point", "coordinates": [ 139.647769326185852, 35.621109713278763 ] } },
{ "type": "Feature", "properties": { "内容": "ＳＯＭＰＯケア世田谷【定期巡回・随時対応型訪問介護看護】東京都世田谷区三軒茶屋1-37-8ワコーレ三軒茶屋64　10F", "url2": "https://www.kaigokensaku.mhlw.go.jp/13/index.php?action_kouhyou_detail_004_kani=true&JigyosyoCd=1391201041-00&ServiceCd=760&Type=search" }, "geometry": { "type": "Point", "coordinates": [ 139.670867319911821, 35.642969770201326 ] } },
{ "type": "Feature", "properties": { "内容": "やさしい手　用賀定期巡回随時対応型訪問介護看護事業所【定期巡回・随時対応型訪問介護看護】東京都世田谷区用賀2-31-7イイダアネックスⅠ　2階A", "url2": "https://www.kaigokensaku.mhlw.go.jp/13/index.php?action_kouhyou_detail_004_kani=true&JigyosyoCd=1391200399-00&ServiceCd=760&Type=search" }, "geometry": { "type": "Point", "coordinates": [ 139.6353914, 35.6247138 ] } },
{ "type": "Feature", "properties": { "内容": "社会福祉法人青藍会　在宅医療支援センター　ハートハウス成城【定期巡回・随時対応型訪問介護看護】東京都世田谷区成城2-35-3101", "url2": "https://www.kaigokensaku.mhlw.go.jp/13/index.php?action_kouhyou_detail_004_kani=true&JigyosyoCd=1391201033-00&ServiceCd=760&Type=search" }, "geometry": { "type": "Point", "coordinates": [ 139.599993899999959, 35.63954720000001 ] } },
{ "type": "Feature", "properties": { "内容": "ＳＯＭＰＯケア成城定期巡回【定期巡回・随時対応型訪問介護看護】東京都世田谷区成城6-18-3小島ハウスA", "url2": "https://www.kaigokensaku.mhlw.go.jp/13/index.php?action_kouhyou_detail_004_kani=true&JigyosyoCd=1391201678-00&ServiceCd=760&Type=search" }, "geometry": { "type": "Point", "coordinates": [ 139.5980026, 35.642117 ] } },
{ "type": "Feature", "properties": { "内容": "SOMPOケア渋谷　定期巡回【定期巡回・随時対応型訪問介護看護】東京都渋谷区代々木三丁目28番6号いちご西参道ビルA棟2階A室", "url2": "https://www.kaigokensaku.mhlw.go.jp/13/index.php?action_kouhyou_detail_004_kani=true&JigyosyoCd=1391300330-00&ServiceCd=760&Type=search" }, "geometry": { "type": "Point", "coordinates": [ 139.692154499999987, 35.6835778 ] } },
{ "type": "Feature", "properties": { "内容": "エイプレイス渋谷【定期巡回・随時対応型訪問介護看護】東京都渋谷区神宮前2-35-9原宿リビン511号室", "url2": "https://www.kaigokensaku.mhlw.go.jp/13/index.php?action_kouhyou_detail_004_kani=true&JigyosyoCd=1391300371-00&ServiceCd=760&Type=search" }, "geometry": { "type": "Point", "coordinates": [ 139.7075209, 35.6745912 ] } },
{ "type": "Feature", "properties": { "内容": "エイプレイス中野【定期巡回・随時対応型訪問介護看護】東京都中野区中野5-24-18クロス・スクエアNAKANO901号", "url2": "https://www.kaigokensaku.mhlw.go.jp/13/index.php?action_kouhyou_detail_004_kani=true&JigyosyoCd=1391400825-00&ServiceCd=760&Type=search" }, "geometry": { "type": "Point", "coordinates": [ 139.6694048, 35.7096374 ] } },
{ "type": "Feature", "properties": { "内容": "SOMPOケア中野定期巡回【定期巡回・随時対応型訪問介護看護】東京都中野区中野三丁目33番18号フェルテ中野302号室", "url2": "https://www.kaigokensaku.mhlw.go.jp/13/index.php?action_kouhyou_detail_004_kani=true&JigyosyoCd=1391400742-00&ServiceCd=760&Type=search" }, "geometry": { "type": "Point", "coordinates": [ 139.6653383, 35.7029854 ] } },
{ "type": "Feature", "properties": { "内容": "やさしい手中野南口定期巡回・随時対応型訪問介護看護事業所【定期巡回・随時対応型訪問介護看護】東京都中野区中央3-50-9ワタナベセカンドビル2階", "url2": "https://www.kaigokensaku.mhlw.go.jp/13/index.php?action_kouhyou_detail_004_kani=true&JigyosyoCd=1391400585-00&ServiceCd=760&Type=search" }, "geometry": { "type": "Point", "coordinates": [ 139.673123199999964, 35.7022025 ] } },
{ "type": "Feature", "properties": { "内容": "ウォームハート杉並【定期巡回・随時対応型訪問介護看護】東京都杉並区上井草３－１７－２４", "url2": "https://www.kaigokensaku.mhlw.go.jp/13/index.php?action_kouhyou_detail_004_kani=true&JigyosyoCd=1391500616-00&ServiceCd=760&Type=search" }, "geometry": { "type": "Point", "coordinates": [ 139.605287299999986, 35.720801600000016 ] } },
{ "type": "Feature", "properties": { "内容": "笑生定時巡回・随時対応型訪問介護看護ステーション【定期巡回・随時対応型訪問介護看護】東京都杉並区西荻南３－７－２", "url2": "https://www.kaigokensaku.mhlw.go.jp/13/index.php?action_kouhyou_detail_004_kani=true&JigyosyoCd=1391500632-00&ServiceCd=760&Type=search" }, "geometry": { "type": "Point", "coordinates": [ 139.601085096958968, 35.702081618975079 ] } },
{ "type": "Feature", "properties": { "内容": "スギコー定期巡回【定期巡回・随時対応型訪問介護看護】東京都杉並区高井戸東3-18-7杉並第2ビル", "url2": "https://www.kaigokensaku.mhlw.go.jp/13/index.php?action_kouhyou_detail_004_kani=true&JigyosyoCd=1391501077-00&ServiceCd=760&Type=search" }, "geometry": { "type": "Point", "coordinates": [ 139.6215947, 35.6855913 ] } },
{ "type": "Feature", "properties": { "内容": "エフリオ訪問看護・定期巡回ステーション【定期巡回・随時対応型訪問介護看護】東京都杉並区阿佐谷北2-14-5大坂やビル1階", "url2": "https://www.kaigokensaku.mhlw.go.jp/13/index.php?action_kouhyou_detail_004_kani=true&JigyosyoCd=1391501176-00&ServiceCd=760&Type=search" }, "geometry": { "type": "Point", "coordinates": [ 139.636282200000011, 35.706043 ] } },
{ "type": "Feature", "properties": { "内容": "ＳＯＭＰＯケア杉並　定期巡回【定期巡回・随時対応型訪問介護看護】東京都杉並区阿佐谷南1-17-18阿佐谷下田ビル２階", "url2": "https://www.kaigokensaku.mhlw.go.jp/13/index.php?action_kouhyou_detail_004_kani=true&JigyosyoCd=1391500855-00&ServiceCd=760&Type=search" }, "geometry": { "type": "Point", "coordinates": [ 139.636992692065405, 35.700780245726371 ] } },
{ "type": "Feature", "properties": { "内容": "ユアーズ定期巡回【定期巡回・随時対応型訪問介護看護】東京都杉並区下井草3-34-5メーベルコート101", "url2": "https://www.kaigokensaku.mhlw.go.jp/13/index.php?action_kouhyou_detail_004_kani=true&JigyosyoCd=1391501358-00&ServiceCd=760&Type=search" }, "geometry": { "type": "Point", "coordinates": [ 139.6215166, 35.722422 ] } },
{ "type": "Feature", "properties": { "内容": "アート定期巡回・随時対応型訪問介護看護センター【定期巡回・随時対応型訪問介護看護】東京都杉並区梅里1-21-8高杉ハイツ１F", "url2": "https://www.kaigokensaku.mhlw.go.jp/13/index.php?action_kouhyou_detail_004_kani=true&JigyosyoCd=1391501259-00&ServiceCd=760&Type=search" }, "geometry": { "type": "Point", "coordinates": [ 139.652850644180319, 35.697702319806126 ] } },
{ "type": "Feature", "properties": { "内容": "アウケアホーム杉並・定期巡回【定期巡回・随時対応型訪問介護看護】東京都杉並区阿佐谷北5-1-5RICO102", "url2": "https://www.kaigokensaku.mhlw.go.jp/13/index.php?action_kouhyou_detail_004_kani=true&JigyosyoCd=1391501515-00&ServiceCd=760&Type=search" }, "geometry": { "type": "Point", "coordinates": [ 139.6414432, 35.7067458 ] } },
{ "type": "Feature", "properties": { "内容": "クリエイトケア定期巡回おぎくぼ【定期巡回・随時対応型訪問介護看護】東京都杉並区南荻窪4-29-10田丸ビル403号", "url2": "https://www.kaigokensaku.mhlw.go.jp/13/index.php?action_kouhyou_detail_004_kani=true&JigyosyoCd=1391501366-00&ServiceCd=760&Type=search" }, "geometry": { "type": "Point", "coordinates": [ 139.61630310000001, 35.7026332 ] } },
{ "type": "Feature", "properties": { "内容": "ほっとらいふ　定期巡回【定期巡回・随時対応型訪問介護看護】東京都杉並区和田1-14-3東京精機ビル4F", "url2": "https://www.kaigokensaku.mhlw.go.jp/13/index.php?action_kouhyou_detail_004_kani=true&JigyosyoCd=1391501333-00&ServiceCd=760&Type=search" }, "geometry": { "type": "Point", "coordinates": [ 139.663244633729562, 35.68984165854161 ] } },
{ "type": "Feature", "properties": { "内容": "セントケア巡回ステーション豊島【定期巡回・随時対応型訪問介護看護】東京都豊島区東池袋3-20-21広宣ビル2F", "url2": "https://www.kaigokensaku.mhlw.go.jp/13/index.php?action_kouhyou_detail_004_kani=true&JigyosyoCd=1391600176-00&ServiceCd=760&Type=search" }, "geometry": { "type": "Point", "coordinates": [ 139.720607200000018, 35.7302509 ] } },
{ "type": "Feature", "properties": { "内容": "SOMPOケア　豊島　定期巡回【定期巡回・随時対応型訪問介護看護】東京都豊島区東池袋5-44-15東信東池袋ビル４階", "url2": "https://www.kaigokensaku.mhlw.go.jp/13/index.php?action_kouhyou_detail_004_kani=true&JigyosyoCd=1391600267-00&ServiceCd=760&Type=search" }, "geometry": { "type": "Point", "coordinates": [ 139.726571093480374, 35.727800955994354 ] } },
{ "type": "Feature", "properties": { "内容": "アウケアホーム豊島・定期巡回【定期巡回・随時対応型訪問介護看護】東京都豊島区東池袋2-47-4吉田ビル301", "url2": "https://www.kaigokensaku.mhlw.go.jp/13/index.php?action_kouhyou_detail_004_kani=true&JigyosyoCd=1391600481-00&ServiceCd=760&Type=search" }, "geometry": { "type": "Point", "coordinates": [ 139.7205533, 35.7330392 ] } },
{ "type": "Feature", "properties": { "内容": "SOMPOケア　中十条　定期巡回【定期巡回・随時対応型訪問介護看護】東京都北区中十条1-4-7ｲﾝｸﾘｰｽﾋﾞﾙ301号室", "url2": "https://www.kaigokensaku.mhlw.go.jp/13/index.php?action_kouhyou_detail_004_kani=true&JigyosyoCd=1391700463-00&ServiceCd=760&Type=search" }, "geometry": { "type": "Point", "coordinates": [ 139.730158299999971, 35.7579341 ] } },
{ "type": "Feature", "properties": { "内容": "エイプレイス赤羽【定期巡回・随時対応型訪問介護看護】東京都北区志茂4-39-5サンセゾン・Ⅰ　B1F", "url2": "https://www.kaigokensaku.mhlw.go.jp/13/index.php?action_kouhyou_detail_004_kani=true&JigyosyoCd=1391700620-00&ServiceCd=760&Type=search" }, "geometry": { "type": "Point", "coordinates": [ 139.732690100000013, 35.7803282 ] } },
{ "type": "Feature", "properties": { "内容": "SOMPOケア　荒川　定期巡回【定期巡回・随時対応型訪問介護看護】東京都荒川区東尾久6-5-5富士産業ビル2階　203号室", "url2": "https://www.kaigokensaku.mhlw.go.jp/13/index.php?action_kouhyou_detail_004_kani=true&JigyosyoCd=1391800628-00&ServiceCd=760&Type=search" }, "geometry": { "type": "Point", "coordinates": [ 139.7749925, 35.7454578 ] } },
{ "type": "Feature", "properties": { "内容": "やさしい手日暮里定期巡回随時対応型訪問介護看護事業所【定期巡回・随時対応型訪問介護看護】東京都荒川区東日暮里5-52-2神谷ﾋﾞﾙ501", "url2": "https://www.kaigokensaku.mhlw.go.jp/13/index.php?action_kouhyou_detail_004_kani=true&JigyosyoCd=1391800354-00&ServiceCd=760&Type=search" }, "geometry": { "type": "Point", "coordinates": [ 139.771917600000052, 35.727830099999984 ] } },
{ "type": "Feature", "properties": { "内容": "ホームケア　ひより【定期巡回・随時対応型訪問介護看護】東京都板橋区幸町1-4", "url2": "https://www.kaigokensaku.mhlw.go.jp/13/index.php?action_kouhyou_detail_004_kani=true&JigyosyoCd=1391901244-00&ServiceCd=760&Type=search" }, "geometry": { "type": "Point", "coordinates": [ 139.701195899999988, 35.7449974 ] } },
{ "type": "Feature", "properties": { "内容": "セントケア巡回ステーション板橋【定期巡回・随時対応型訪問介護看護】東京都板橋区上板橋1-16-6町田ビル１階", "url2": "https://www.kaigokensaku.mhlw.go.jp/13/index.php?action_kouhyou_detail_004_kani=true&JigyosyoCd=1391900410-00&ServiceCd=760&Type=search" }, "geometry": { "type": "Point", "coordinates": [ 139.677638300000012, 35.7615721 ] } },
{ "type": "Feature", "properties": { "内容": "SOMPOケア　徳丸　定期巡回【定期巡回・随時対応型訪問介護看護】東京都板橋区徳丸2-17-9", "url2": "https://www.kaigokensaku.mhlw.go.jp/13/index.php?action_kouhyou_detail_004_kani=true&JigyosyoCd=1391900758-00&ServiceCd=760&Type=search" }, "geometry": { "type": "Point", "coordinates": [ 139.662725, 35.773858 ] } },
{ "type": "Feature", "properties": { "内容": "SOMPOケア若木　定期巡回【定期巡回・随時対応型訪問介護看護】東京都板橋区若木3-3-1そんぽの家S板橋若木", "url2": "https://www.kaigokensaku.mhlw.go.jp/13/index.php?action_kouhyou_detail_004_kani=true&JigyosyoCd=1391900881-00&ServiceCd=760&Type=search" }, "geometry": { "type": "Point", "coordinates": [ 139.6772952, 35.7736762 ] } },
{ "type": "Feature", "properties": { "内容": "アウケアホーム板橋・定期巡回【定期巡回・随時対応型訪問介護看護】東京都板橋区前野町2-4-5大商第一マンション201", "url2": "https://www.kaigokensaku.mhlw.go.jp/13/index.php?action_kouhyou_detail_004_kani=true&JigyosyoCd=1391901020-00&ServiceCd=760&Type=search" }, "geometry": { "type": "Point", "coordinates": [ 139.690208500000011, 35.7637529 ] } },
{ "type": "Feature", "properties": { "内容": "定期巡回サービス土屋板橋【定期巡回・随時対応型訪問介護看護】東京都板橋区小豆沢3-6-7小豆沢ローズハイム103", "url2": "https://www.kaigokensaku.mhlw.go.jp/13/index.php?action_kouhyou_detail_004_kani=true&JigyosyoCd=1391901087-00&ServiceCd=760&Type=search" }, "geometry": { "type": "Point", "coordinates": [ 139.6948866, 35.7767307 ] } },
{ "type": "Feature", "properties": { "内容": "定期巡回・随時対応型サービスたかしまだいら【定期巡回・随時対応型訪問介護看護】東京都板橋区高島平5‐31‐8", "url2": "https://www.kaigokensaku.mhlw.go.jp/13/index.php?action_kouhyou_detail_004_kani=true&JigyosyoCd=1391900493-00&ServiceCd=760&Type=search" }, "geometry": { "type": "Point", "coordinates": [ 139.646462, 35.7876 ] } },
{ "type": "Feature", "properties": { "内容": "Link板橋定期巡回【定期巡回・随時対応型訪問介護看護】東京都板橋区中板橋４－１５藤井ビル１０５", "url2": "https://www.kaigokensaku.mhlw.go.jp/13/index.php?action_kouhyou_detail_004_kani=true&JigyosyoCd=1391901194-00&ServiceCd=760&Type=search" }, "geometry": { "type": "Point", "coordinates": [ 139.7004909, 35.7562263 ] } },
{ "type": "Feature", "properties": { "内容": "アウケアホーム板橋北・定期巡回【定期巡回・随時対応型訪問介護看護】東京都板橋区高島平1-78-11エスタールビル302", "url2": "https://www.kaigokensaku.mhlw.go.jp/13/index.php?action_kouhyou_detail_004_kani=true&JigyosyoCd=1391901236-00&ServiceCd=760&Type=search" }, "geometry": { "type": "Point", "coordinates": [ 139.6728336, 35.785791 ] } },
{ "type": "Feature", "properties": { "内容": "アウケアホーム板橋大山・定期巡回【定期巡回・随時対応型訪問介護看護】東京都板橋区大山金井町48-7トリアノンMY202", "url2": "https://www.kaigokensaku.mhlw.go.jp/13/index.php?action_kouhyou_detail_004_kani=true&JigyosyoCd=1391901368-00&ServiceCd=760&Type=search" }, "geometry": { "type": "Point", "coordinates": [ 139.702789599999988, 35.7457118 ] } },
{ "type": "Feature", "properties": { "内容": "定期巡回めぐみの会【定期巡回・随時対応型訪問介護看護】東京都練馬区石神井町５丁目３番１２号⽯神井公園ハイム1階", "url2": "https://www.kaigokensaku.mhlw.go.jp/13/index.php?action_kouhyou_detail_004_kani=true&JigyosyoCd=1392000608-00&ServiceCd=760&Type=search" }, "geometry": { "type": "Point", "coordinates": [ 139.606110450262491, 35.738866100000159 ] } },
{ "type": "Feature", "properties": { "内容": "ＳＯＭＰＯケア練馬　定期巡回【定期巡回・随時対応型訪問介護看護】東京都練馬区豊玉北4-11-10東洋ライス東日本支店　1階", "url2": "https://www.kaigokensaku.mhlw.go.jp/13/index.php?action_kouhyou_detail_004_kani=true&JigyosyoCd=1392000863-00&ServiceCd=760&Type=search" }, "geometry": { "type": "Point", "coordinates": [ 139.65899033149995, 35.735310074805064 ] } },
{ "type": "Feature", "properties": { "内容": "SOMPOケア　大泉学園　定期巡回【定期巡回・随時対応型訪問介護看護】東京都練馬区東大泉5-4-5田﨑店舗1階", "url2": "https://www.kaigokensaku.mhlw.go.jp/13/index.php?action_kouhyou_detail_004_kani=true&JigyosyoCd=1392000855-00&ServiceCd=760&Type=search" }, "geometry": { "type": "Point", "coordinates": [ 139.590917635393964, 35.747254857588551 ] } },
{ "type": "Feature", "properties": { "内容": "SOMPOケア光が丘　定期巡回【定期巡回・随時対応型訪問介護看護】東京都練馬区田柄5-14-11グリーンシティ恵マンション2階", "url2": "https://www.kaigokensaku.mhlw.go.jp/13/index.php?action_kouhyou_detail_004_kani=true&JigyosyoCd=1392000889-00&ServiceCd=760&Type=search" }, "geometry": { "type": "Point", "coordinates": [ 139.635999399999946, 35.763414100000034 ] } },
{ "type": "Feature", "properties": { "内容": "ＳＯＭＰＯケア　上石神井　定期巡回【定期巡回・随時対応型訪問介護看護】東京都練馬区上石神井4-1-5成昇ビル1階", "url2": "https://www.kaigokensaku.mhlw.go.jp/13/index.php?action_kouhyou_detail_004_kani=true&JigyosyoCd=1392000897-00&ServiceCd=760&Type=search" }, "geometry": { "type": "Point", "coordinates": [ 139.590382702464126, 35.726802815089371 ] } },
{ "type": "Feature", "properties": { "内容": "定期巡回・随時対応サービスひのき大泉学園【定期巡回・随時対応型訪問介護看護】東京都練馬区大泉学園町5-29-10", "url2": "https://www.kaigokensaku.mhlw.go.jp/13/index.php?action_kouhyou_detail_004_kani=true&JigyosyoCd=1392001184-00&ServiceCd=760&Type=search" }, "geometry": { "type": "Point", "coordinates": [ 139.579433900000026, 35.7670686 ] } },
{ "type": "Feature", "properties": { "内容": "そよ風定期巡回　えごたの森【定期巡回・随時対応型訪問介護看護】東京都練馬区豊玉中１－４ー１７デュオセーヌ江古田の森公園１階", "url2": "https://www.kaigokensaku.mhlw.go.jp/13/index.php?action_kouhyou_detail_004_kani=true&JigyosyoCd=1392001218-00&ServiceCd=760&Type=search" }, "geometry": { "type": "Point", "coordinates": [ 139.661837600000013, 35.7293748 ] } },
{ "type": "Feature", "properties": { "内容": "定期巡回めぐみの会練馬【定期巡回・随時対応型訪問介護看護】東京都練馬区中村3-5-10第2メディカルビル　301", "url2": "https://www.kaigokensaku.mhlw.go.jp/13/index.php?action_kouhyou_detail_004_kani=true&JigyosyoCd=1392001325-00&ServiceCd=760&Type=search" }, "geometry": { "type": "Point", "coordinates": [ 139.6411942, 35.7318487 ] } },
{ "type": "Feature", "properties": { "内容": "らうんど千寿【定期巡回・随時対応型訪問介護看護】東京都足立区柳原2－33－6介護老人保健施設千寿の郷内", "url2": "https://www.kaigokensaku.mhlw.go.jp/13/index.php?action_kouhyou_detail_004_kani=true&JigyosyoCd=1392100960-00&ServiceCd=760&Type=search" }, "geometry": { "type": "Point", "coordinates": [ 139.814416, 35.7479349 ] } },
{ "type": "Feature", "properties": { "内容": "ヘルパ-ステ－ションかるがも【定期巡回・随時対応型訪問介護看護】東京都足立区梅島1-13-17", "url2": "https://www.kaigokensaku.mhlw.go.jp/13/index.php?action_kouhyou_detail_004_kani=true&JigyosyoCd=1392101091-00&ServiceCd=760&Type=search" }, "geometry": { "type": "Point", "coordinates": [ 139.798496199999988, 35.7728143 ] } },
{ "type": "Feature", "properties": { "内容": "ＳＯＭＰＯケア　足立　定期巡回【定期巡回・随時対応型訪問介護看護】東京都足立区千住中居町33-3大橋ビル4階", "url2": "https://www.kaigokensaku.mhlw.go.jp/13/index.php?action_kouhyou_detail_004_kani=true&JigyosyoCd=1392100903-00&ServiceCd=760&Type=search" }, "geometry": { "type": "Point", "coordinates": [ 139.799183500000026, 35.7510648 ] } },
{ "type": "Feature", "properties": { "内容": "くらしさ足立定期巡回型訪問介護看護【定期巡回・随時対応型訪問介護看護】東京都足立区入谷2-19-10", "url2": "https://www.kaigokensaku.mhlw.go.jp/13/index.php?action_kouhyou_detail_004_kani=true&JigyosyoCd=1392101307-00&ServiceCd=760&Type=search" }, "geometry": { "type": "Point", "coordinates": [ 139.7633711, 35.8091253 ] } },
{ "type": "Feature", "properties": { "内容": "ウェルフォース定期巡回・随時対応型訪問介護看護ステーション【定期巡回・随時対応型訪問介護看護】東京都葛飾区白鳥2-10-7", "url2": "https://www.kaigokensaku.mhlw.go.jp/13/index.php?action_kouhyou_detail_004_kani=true&JigyosyoCd=1392200943-00&ServiceCd=760&Type=search" }, "geometry": { "type": "Point", "coordinates": [ 139.8440493, 35.7485202 ] } },
{ "type": "Feature", "properties": { "内容": "ＳＯＭＰＯケア葛飾　定期巡回【定期巡回・随時対応型訪問介護看護】東京都葛飾区青戸3-33-14サンプラザビル601", "url2": "https://www.kaigokensaku.mhlw.go.jp/13/index.php?action_kouhyou_detail_004_kani=true&JigyosyoCd=1392200703-00&ServiceCd=760&Type=search" }, "geometry": { "type": "Point", "coordinates": [ 139.855857775463136, 35.746861892412952 ] } },
{ "type": "Feature", "properties": { "内容": "ミアヘルサ定期巡回サービス東新小岩【定期巡回・随時対応型訪問介護看護】東京都葛飾区東新小岩4-11-10ミアヘルサオアシス東新小岩", "url2": "https://www.kaigokensaku.mhlw.go.jp/13/index.php?action_kouhyou_detail_004_kani=true&JigyosyoCd=1392200745-00&ServiceCd=760&Type=search" }, "geometry": { "type": "Point", "coordinates": [ 139.861912500000017, 35.7260573 ] } },
{ "type": "Feature", "properties": { "内容": "定期巡回・随時対応型訪問介護看護泰山【定期巡回・随時対応型訪問介護看護】東京都江戸川区北小岩５－３４－１０", "url2": "https://www.kaigokensaku.mhlw.go.jp/13/index.php?action_kouhyou_detail_004_kani=true&JigyosyoCd=1392300396-00&ServiceCd=760&Type=search" }, "geometry": { "type": "Point", "coordinates": [ 139.891634299999964, 35.739703 ] } },
{ "type": "Feature", "properties": { "内容": "しろひげレンジャー24時（定期巡回・随時対応型訪問介護看護）【定期巡回・随時対応型訪問介護看護】東京都江戸川区船堀1-8-18ポエールビル201号", "url2": "https://www.kaigokensaku.mhlw.go.jp/13/index.php?action_kouhyou_detail_004_kani=true&JigyosyoCd=1392301097-00&ServiceCd=760&Type=search" }, "geometry": { "type": "Point", "coordinates": [ 139.8632383, 35.6839535 ] } },
{ "type": "Feature", "properties": { "内容": "偕楽園ホーム　定期巡回・随時対応型訪問介護看護事業所【定期巡回・随時対応型訪問介護看護】東京都八王子宮下町９８３番地偕楽園ホーム", "url2": "https://www.kaigokensaku.mhlw.go.jp/13/index.php?action_kouhyou_detail_004_kani=true&JigyosyoCd=1392900773-00&ServiceCd=760&Type=search" }, "geometry": { "type": "Point", "coordinates": [ 139.312349400000016, 35.7004824 ] } },
{ "type": "Feature", "properties": { "内容": "ジョイステージ八王子24時間訪問介護看護ステーション【定期巡回・随時対応型訪問介護看護】東京都八王子市横川町924番地2", "url2": "https://www.kaigokensaku.mhlw.go.jp/13/index.php?action_kouhyou_detail_004_kani=true&JigyosyoCd=1392900831-00&ServiceCd=760&Type=search" }, "geometry": { "type": "Point", "coordinates": [ 139.2950042, 35.66332 ] } },
{ "type": "Feature", "properties": { "内容": "定期巡回サービス土屋八王子【定期巡回・随時対応型訪問介護看護】東京都八王子市片倉町1221-20ハイツ川幡B棟2階", "url2": "https://www.kaigokensaku.mhlw.go.jp/13/index.php?action_kouhyou_detail_004_kani=true&JigyosyoCd=1392901193-00&ServiceCd=760&Type=search" }, "geometry": { "type": "Point", "coordinates": [ 139.347682600000013, 35.6318138 ] } },
{ "type": "Feature", "properties": { "内容": "城山介護24時間サービス【定期巡回・随時対応型訪問介護看護】東京都八王子市川町843-4ディーフェスタ高尾", "url2": "https://www.kaigokensaku.mhlw.go.jp/13/index.php?action_kouhyou_detail_004_kani=true&JigyosyoCd=1392900344-00&ServiceCd=760&Type=search" }, "geometry": { "type": "Point", "coordinates": [ 139.282666675671408, 35.672282171335446 ] } },
{ "type": "Feature", "properties": { "内容": "定期巡回随時対応型訪問介護看護アットプレオ石川町【定期巡回・随時対応型訪問介護看護】東京都八王子市石川町702‐1", "url2": "https://www.kaigokensaku.mhlw.go.jp/13/index.php?action_kouhyou_detail_004_kani=true&JigyosyoCd=1392901037-00&ServiceCd=760&Type=search" }, "geometry": { "type": "Point", "coordinates": [ 139.368349099999989, 35.6826063 ] } },
{ "type": "Feature", "properties": { "内容": "社会福祉法人三多摩福祉会　定期巡回・随時対応型訪問介護看護事業所コスモス立川【定期巡回・随時対応型訪問介護看護】東京都立川市錦町1-16-14齋藤ビル101", "url2": "https://www.kaigokensaku.mhlw.go.jp/13/index.php?action_kouhyou_detail_004_kani=true&JigyosyoCd=1393000151-00&ServiceCd=760&Type=search" }, "geometry": { "type": "Point", "coordinates": [ 139.422559, 35.6963387 ] } },
{ "type": "Feature", "properties": { "内容": "SOMPOケア　玉川上水　定期巡回【定期巡回・随時対応型訪問介護看護】東京都立川市柏町4丁目75番3号", "url2": "https://www.kaigokensaku.mhlw.go.jp/13/index.php?action_kouhyou_detail_004_kani=true&JigyosyoCd=1393000227-00&ServiceCd=760&Type=search" }, "geometry": { "type": "Point", "coordinates": [ 139.412185109002422, 35.729897631540901 ] } },
{ "type": "Feature", "properties": { "内容": "やさしい手　吉祥寺定期巡回随時対応型訪問介護看護事業所【定期巡回・随時対応型訪問介護看護】東京都武蔵野市吉祥寺東町1-10-21西郊ﾋﾞﾙ3階", "url2": "https://www.kaigokensaku.mhlw.go.jp/13/index.php?action_kouhyou_detail_004_kani=true&JigyosyoCd=1393300064-00&ServiceCd=760&Type=search" }, "geometry": { "type": "Point", "coordinates": [ 139.582437, 35.7060805 ] } },
{ "type": "Feature", "properties": { "内容": "SOMPOケア三鷹武蔵野　定期巡回【定期巡回・随時対応型訪問介護看護】東京都三鷹市上連雀4-3-3川口ビル1階", "url2": "https://www.kaigokensaku.mhlw.go.jp/13/index.php?action_kouhyou_detail_004_kani=true&JigyosyoCd=1393600208-00&ServiceCd=760&Type=search" }, "geometry": { "type": "Point", "coordinates": [ 139.558991119764471, 35.696375648588592 ] } },
{ "type": "Feature", "properties": { "内容": "カイゴいるてと【定期巡回・随時対応型訪問介護看護】東京都三鷹市野崎2-6-32", "url2": "https://www.kaigokensaku.mhlw.go.jp/13/index.php?action_kouhyou_detail_004_kani=true&JigyosyoCd=1393600315-00&ServiceCd=760&Type=search" }, "geometry": { "type": "Point", "coordinates": [ 139.547790099999986, 35.6831137 ] } },
{ "type": "Feature", "properties": { "内容": "ここひろヘルパー24【定期巡回・随時対応型訪問介護看護】東京都青梅市藤橋2-614‐18", "url2": "https://www.kaigokensaku.mhlw.go.jp/13/index.php?action_kouhyou_detail_004_kani=true&JigyosyoCd=1392800155-00&ServiceCd=760&Type=search" }, "geometry": { "type": "Point", "coordinates": [ 139.301238, 35.799762 ] } },
{ "type": "Feature", "properties": { "内容": "ＳＯＭＰＯケア　府中　定期巡回【定期巡回・随時対応型訪問介護看護】東京都府中市宮西町2-16-2府中第一生命ビル2階", "url2": "https://www.kaigokensaku.mhlw.go.jp/13/index.php?action_kouhyou_detail_004_kani=true&JigyosyoCd=1393800345-00&ServiceCd=760&Type=search" }, "geometry": { "type": "Point", "coordinates": [ 139.478105299999982, 35.669800100000018 ] } },
{ "type": "Feature", "properties": { "内容": "昭和郷訪問介護センター【定期巡回・随時対応型訪問介護看護】東京都昭島市中神町1260番地", "url2": "https://www.kaigokensaku.mhlw.go.jp/13/index.php?action_kouhyou_detail_004_kani=true&JigyosyoCd=1394000077-00&ServiceCd=760&Type=search" }, "geometry": { "type": "Point", "coordinates": [ 139.382215, 35.7093862 ] } },
{ "type": "Feature", "properties": { "内容": "そよ風定期巡回　あきしま【定期巡回・随時対応型訪問介護看護】東京都昭島市宮沢町2-23-17", "url2": "https://www.kaigokensaku.mhlw.go.jp/13/index.php?action_kouhyou_detail_004_kani=true&JigyosyoCd=1394000143-00&ServiceCd=760&Type=search" }, "geometry": { "type": "Point", "coordinates": [ 139.361635299999989, 35.7025509 ] } },
{ "type": "Feature", "properties": { "内容": "SOMPOケア　調布　定期巡回【定期巡回・随時対応型訪問介護看護】東京都調布市布田1-50-1フジヨシビル　501", "url2": "https://www.kaigokensaku.mhlw.go.jp/13/index.php?action_kouhyou_detail_004_kani=true&JigyosyoCd=1394200206-00&ServiceCd=760&Type=search" }, "geometry": { "type": "Point", "coordinates": [ 139.563810200000034, 35.6575497 ] } },
{ "type": "Feature", "properties": { "内容": "社会福祉法人賛育会　訪問巡回ステーション清風園【定期巡回・随時対応型訪問介護看護】東京都町田市金井7-17-20", "url2": "https://www.kaigokensaku.mhlw.go.jp/13/index.php?action_kouhyou_detail_004_kani=true&JigyosyoCd=1393200371-00&ServiceCd=760&Type=search" }, "geometry": { "type": "Point", "coordinates": [ 139.46228259999998, 35.5744124 ] } },
{ "type": "Feature", "properties": { "内容": "ＳＯＭＰＯケア　町田　定期巡回【定期巡回・随時対応型訪問介護看護】東京都町田市原町田2-2-1Ｍ＆Ｔビル2階", "url2": "https://www.kaigokensaku.mhlw.go.jp/13/index.php?action_kouhyou_detail_004_kani=true&JigyosyoCd=1393200835-00&ServiceCd=760&Type=search" }, "geometry": { "type": "Point", "coordinates": [ 139.451982500000014, 35.5390974 ] } },
{ "type": "Feature", "properties": { "内容": "定期巡回随時対応型訪問介護看護アットプレオ根岸【定期巡回・随時対応型訪問介護看護】東京都町田市根岸2-30-10", "url2": "https://www.kaigokensaku.mhlw.go.jp/13/index.php?action_kouhyou_detail_004_kani=true&JigyosyoCd=1393200678-00&ServiceCd=760&Type=search" }, "geometry": { "type": "Point", "coordinates": [ 139.4158142, 35.5750033 ] } },
{ "type": "Feature", "properties": { "内容": "スマイル本町田【定期巡回・随時対応型訪問介護看護】東京都町田市本町田1747-1スマイルClass本町田", "url2": "https://www.kaigokensaku.mhlw.go.jp/13/index.php?action_kouhyou_detail_004_kani=true&JigyosyoCd=1393200710-00&ServiceCd=760&Type=search" }, "geometry": { "type": "Point", "coordinates": [ 139.4372675, 35.559913200000011 ] } },
{ "type": "Feature", "properties": { "内容": "町田せりがやVILLAGE定期巡回センター【定期巡回・随時対応型訪問介護看護】東京都町田市原町田4-27-32町田せりがやvillage", "url2": "https://www.kaigokensaku.mhlw.go.jp/13/index.php?action_kouhyou_detail_004_kani=true&JigyosyoCd=1393200728-00&ServiceCd=760&Type=search" }, "geometry": { "type": "Point", "coordinates": [ 139.454497, 35.543588600000035 ] } },
{ "type": "Feature", "properties": { "内容": "そよ風定期巡回まちだ【定期巡回・随時対応型訪問介護看護】東京都町田市成瀬が丘2－3－3SKlani102", "url2": "https://www.kaigokensaku.mhlw.go.jp/13/index.php?action_kouhyou_detail_004_kani=true&JigyosyoCd=1393200629-00&ServiceCd=760&Type=search" }, "geometry": { "type": "Point", "coordinates": [ 139.473118199999988, 35.5336738 ] } },
{ "type": "Feature", "properties": { "内容": "定期巡回サービス土屋小金井【定期巡回・随時対応型訪問介護看護】東京都小金井市梶野町１－３－６", "url2": "https://www.kaigokensaku.mhlw.go.jp/13/index.php?action_kouhyou_detail_004_kani=true&JigyosyoCd=1394100265-00&ServiceCd=760&Type=search" }, "geometry": { "type": "Point", "coordinates": [ 139.5284844, 35.7026207 ] } },
{ "type": "Feature", "properties": { "内容": "定期巡回・随時対応型訪問介護看護小平グリーンてらす【定期巡回・随時対応型訪問介護看護】東京都小平市鈴木町1-99-6", "url2": "https://www.kaigokensaku.mhlw.go.jp/13/index.php?action_kouhyou_detail_004_kani=true&JigyosyoCd=1394300345-00&ServiceCd=760&Type=search" }, "geometry": { "type": "Point", "coordinates": [ 139.495643, 35.7241446 ] } },
{ "type": "Feature", "properties": { "内容": "かなでケアステーション・定期巡回【定期巡回・随時対応型訪問介護看護】東京都小平市仲町182-3", "url2": "https://www.kaigokensaku.mhlw.go.jp/13/index.php?action_kouhyou_detail_004_kani=true&JigyosyoCd=1394300410-00&ServiceCd=760&Type=search" }, "geometry": { "type": "Point", "coordinates": [ 139.486229400000013, 35.7308896 ] } },
{ "type": "Feature", "properties": { "内容": "やさしい手日野南平定期巡回・随時対応型訪問介護看護事業所【定期巡回・随時対応型訪問介護看護】東京都日野市南平4－40－5ディーフェスタ日野", "url2": "https://www.kaigokensaku.mhlw.go.jp/13/index.php?action_kouhyou_detail_004_kani=true&JigyosyoCd=1393500093-00&ServiceCd=760&Type=search" }, "geometry": { "type": "Point", "coordinates": [ 139.398079, 35.658250899999977 ] } },
{ "type": "Feature", "properties": { "内容": "ヘルパーステーション白光園【定期巡回・随時対応型訪問介護看護】東京都東村山市諏訪町２－２６－１", "url2": "https://www.kaigokensaku.mhlw.go.jp/13/index.php?action_kouhyou_detail_004_kani=true&JigyosyoCd=1392700090-00&ServiceCd=760&Type=search" }, "geometry": { "type": "Point", "coordinates": [ 139.463675299999977, 35.7718922 ] } },
{ "type": "Feature", "properties": { "内容": "テイジュンこもれび家族【定期巡回・随時対応型訪問介護看護】東京都国分寺市西町3-14-7", "url2": "https://www.kaigokensaku.mhlw.go.jp/13/index.php?action_kouhyou_detail_004_kani=true&JigyosyoCd=1393100241-00&ServiceCd=760&Type=search" }, "geometry": { "type": "Point", "coordinates": [ 139.4359173, 35.7097074 ] } },
{ "type": "Feature", "properties": { "内容": "ヘルパーステーションアルゴ【定期巡回・随時対応型訪問介護看護】東京都東久留米市本町1-4-45アーク東久留米1階", "url2": "https://www.kaigokensaku.mhlw.go.jp/13/index.php?action_kouhyou_detail_004_kani=true&JigyosyoCd=1394800161-00&ServiceCd=760&Type=search" }, "geometry": { "type": "Point", "coordinates": [ 139.531976, 35.7588779 ] } },
{ "type": "Feature", "properties": { "内容": "そよ風定期巡回たま【定期巡回・随時対応型訪問介護看護】東京都多摩市落合４－１６－１16号棟　１０２号棟", "url2": "https://www.kaigokensaku.mhlw.go.jp/13/index.php?action_kouhyou_detail_004_kani=true&JigyosyoCd=1395000290-00&ServiceCd=760&Type=search" }, "geometry": { "type": "Point", "coordinates": [ 139.4302787, 35.6156453 ] } },
{ "type": "Feature", "properties": { "内容": "いなぎ苑（定期巡回）【定期巡回・随時対応型訪問介護看護】東京都稲城市百村255番地", "url2": "https://www.kaigokensaku.mhlw.go.jp/13/index.php?action_kouhyou_detail_004_kani=true&JigyosyoCd=1395100173-00&ServiceCd=760&Type=search" }, "geometry": { "type": "Point", "coordinates": [ 139.4920038, 35.6353797 ] } },
{ "type": "Feature", "properties": { "内容": "ホームヘルパーステーション　やのくち正吉苑【定期巡回・随時対応型訪問介護看護】東京都稲城市矢野口1804番地３", "url2": "https://www.kaigokensaku.mhlw.go.jp/13/index.php?action_kouhyou_detail_004_kani=true&JigyosyoCd=1395100058-00&ServiceCd=760&Type=search" }, "geometry": { "type": "Point", "coordinates": [ 139.519138399999946, 35.6366527 ] } },
{ "type": "Feature", "properties": { "内容": "やさしい手平尾定期巡回・随時対応型訪問介護看護事業所【定期巡回・随時対応型訪問介護看護】東京都稲城市平尾３－７－４コーシャハイム平尾", "url2": "https://www.kaigokensaku.mhlw.go.jp/13/index.php?action_kouhyou_detail_004_kani=true&JigyosyoCd=1395100090-00&ServiceCd=760&Type=search" }, "geometry": { "type": "Point", "coordinates": [ 139.492618, 35.6108358 ] } },
{ "type": "Feature", "properties": { "内容": "ひかり指定定期巡回【定期巡回・随時対応型訪問介護看護】東京都羽村市小作台1-3-9宇津木ビル201号", "url2": "https://www.kaigokensaku.mhlw.go.jp/13/index.php?action_kouhyou_detail_004_kani=true&JigyosyoCd=1395300096-00&ServiceCd=760&Type=search" }, "geometry": { "type": "Point", "coordinates": [ 139.30210729999996, 35.7774268 ] } },
{ "type": "Feature", "properties": { "内容": "SOMPOケア　西東京　定期巡回【定期巡回・随時対応型訪問介護看護】東京都西東京市田無町4-2-11Aビル2階", "url2": "https://www.kaigokensaku.mhlw.go.jp/13/index.php?action_kouhyou_detail_004_kani=true&JigyosyoCd=1395400359-00&ServiceCd=760&Type=search" }, "geometry": { "type": "Point", "coordinates": [ 139.5391769, 35.727997 ] } }
]
}
