{
"type": "FeatureCollection",
"name": "geo_13_夜間対応型訪問介護",
"crs": { "type": "name", "properties": { "name": "urn:ogc:def:crs:OGC:1.3:CRS84" } },
"features": [
{ "type": "Feature", "properties": { "内容": "新川訪問介護ステーション【夜間対応型訪問介護】東京都中央区新川二丁目２７番３号", "url2": "https://www.kaigokensaku.mhlw.go.jp/13/index.php?action_kouhyou_detail_004_kani=true&JigyosyoCd=1390200036-00&ServiceCd=710&Type=search" }, "geometry": { "type": "Point", "coordinates": [ 139.783972602377389, 35.673041671866564 ] } },
{ "type": "Feature", "properties": { "内容": "グッドライフケア24【夜間対応型訪問介護】東京都中央区新川1-25-2新川STビル1階", "url2": "https://www.kaigokensaku.mhlw.go.jp/13/index.php?action_kouhyou_detail_004_kani=true&JigyosyoCd=1390200150-00&ServiceCd=710&Type=search" }, "geometry": { "type": "Point", "coordinates": [ 139.784149431178662, 35.676750782673558 ] } },
{ "type": "Feature", "properties": { "内容": "グッドライフケア２４【夜間対応型訪問介護】東京都港区東麻布1-7-3第二渡邊ビル2階", "url2": "https://www.kaigokensaku.mhlw.go.jp/13/index.php?action_kouhyou_detail_004_kani=true&JigyosyoCd=1390300240-00&ServiceCd=710&Type=search" }, "geometry": { "type": "Point", "coordinates": [ 139.743605128836037, 35.657699145334306 ] } },
{ "type": "Feature", "properties": { "内容": "ＳＯＭＰＯケア　在宅老人ホーム新宿　夜間訪問介護【夜間対応型訪問介護】東京都新宿区高田馬場2-5-23第1桂城ビル4階", "url2": "https://www.kaigokensaku.mhlw.go.jp/13/index.php?action_kouhyou_detail_004_kani=true&JigyosyoCd=1390400446-00&ServiceCd=710&Type=search" }, "geometry": { "type": "Point", "coordinates": [ 139.710904130112965, 35.713796068034775 ] } },
{ "type": "Feature", "properties": { "内容": "エイプレイス新宿【夜間対応型訪問介護】東京都新宿区高田馬場4－4－11内藤ビル1階", "url2": "https://www.kaigokensaku.mhlw.go.jp/13/index.php?action_kouhyou_detail_004_kani=true&JigyosyoCd=1390400230-00&ServiceCd=710&Type=search" }, "geometry": { "type": "Point", "coordinates": [ 139.701606893904113, 35.712489512146284 ] } },
{ "type": "Feature", "properties": { "内容": "SOMPOケア　白山　夜間訪問介護【夜間対応型訪問介護】東京都文京区白山5-17-19鳥居本ビル２F", "url2": "https://www.kaigokensaku.mhlw.go.jp/13/index.php?action_kouhyou_detail_004_kani=true&JigyosyoCd=1390500245-00&ServiceCd=710&Type=search" }, "geometry": { "type": "Point", "coordinates": [ 139.747367199999985, 35.7103006 ] } },
{ "type": "Feature", "properties": { "内容": "SOMPOケア台東夜間訪問介護【夜間対応型訪問介護】東京都台東区寿1-5-9盛光伸光ビル8階", "url2": "https://www.kaigokensaku.mhlw.go.jp/13/index.php?action_kouhyou_detail_004_kani=true&JigyosyoCd=1390600375-00&ServiceCd=710&Type=search" }, "geometry": { "type": "Point", "coordinates": [ 139.7904714, 35.7068587 ] } },
{ "type": "Feature", "properties": { "内容": "ＳＯＭＰＯケア江東　夜間訪問介護【夜間対応型訪問介護】東京都江東区東陽5-30-13東京原木会館7階", "url2": "https://www.kaigokensaku.mhlw.go.jp/13/index.php?action_kouhyou_detail_004_kani=true&JigyosyoCd=1390800405-00&ServiceCd=710&Type=search" }, "geometry": { "type": "Point", "coordinates": [ 139.815713150355322, 35.67367600498477 ] } },
{ "type": "Feature", "properties": { "内容": "アウケアホーム江東・夜間対応【夜間対応型訪問介護】東京都江東区東陽町2-4-34東郷ビル(WEST)201", "url2": "https://www.kaigokensaku.mhlw.go.jp/13/index.php?action_kouhyou_detail_004_kani=true&JigyosyoCd=1390800629-00&ServiceCd=710&Type=search" }, "geometry": { "type": "Point", "coordinates": [ 139.8174708, 35.6690385 ] } },
{ "type": "Feature", "properties": { "内容": "グッドライフケア２４【夜間対応型訪問介護】東京都江東区豊洲４－２－２豊南堂ビル4階", "url2": "https://www.kaigokensaku.mhlw.go.jp/13/index.php?action_kouhyou_detail_004_kani=true&JigyosyoCd=1390800264-00&ServiceCd=710&Type=search" }, "geometry": { "type": "Point", "coordinates": [ 139.797716555190618, 35.655088902981063 ] } },
{ "type": "Feature", "properties": { "内容": "ＳＯＭＰＯケア　品川　夜間訪問介護【夜間対応型訪問介護】東京都品川区北品川3-11-16品川第一地域センタービル内1階", "url2": "https://www.kaigokensaku.mhlw.go.jp/13/index.php?action_kouhyou_detail_004_kani=true&JigyosyoCd=1390900452-00&ServiceCd=710&Type=search" }, "geometry": { "type": "Point", "coordinates": [ 139.740056970675965, 35.616720054903709 ] } },
{ "type": "Feature", "properties": { "内容": "ＳＯＭＰＯケア　目黒　夜間訪問介護【夜間対応型訪問介護】東京都目黒区自由が丘1－20－19光進自由が丘ビル　B1階一号室", "url2": "https://www.kaigokensaku.mhlw.go.jp/13/index.php?action_kouhyou_detail_004_kani=true&JigyosyoCd=1391000443-00&ServiceCd=710&Type=search" }, "geometry": { "type": "Point", "coordinates": [ 139.668943938243103, 35.613700706257561 ] } },
{ "type": "Feature", "properties": { "内容": "カラーズ24【夜間対応型訪問介護】東京都大田区大森西3-19-21", "url2": "https://www.kaigokensaku.mhlw.go.jp/13/index.php?action_kouhyou_detail_004_kani=true&JigyosyoCd=1391101530-00&ServiceCd=710&Type=search" }, "geometry": { "type": "Point", "coordinates": [ 139.729840941458264, 35.572678679503326 ] } },
{ "type": "Feature", "properties": { "内容": "ＳＯＭＰＯケア大田　夜間訪問介護【夜間対応型訪問介護】東京都大田区西蒲田6-36-11西蒲田NSビル5階", "url2": "https://www.kaigokensaku.mhlw.go.jp/13/index.php?action_kouhyou_detail_004_kani=true&JigyosyoCd=1391101126-00&ServiceCd=710&Type=search" }, "geometry": { "type": "Point", "coordinates": [ 139.724503199999958, 35.5606542 ] } },
{ "type": "Feature", "properties": { "内容": "ＳＯＭＰＯケア世田谷【夜間対応型訪問介護】東京都世田谷区三軒茶屋1-37-8ワコーレ三軒茶屋64　10F", "url2": "https://www.kaigokensaku.mhlw.go.jp/13/index.php?action_kouhyou_detail_004_kani=true&JigyosyoCd=1391201058-00&ServiceCd=710&Type=search" }, "geometry": { "type": "Point", "coordinates": [ 139.670889173895091, 35.642941730037826 ] } },
{ "type": "Feature", "properties": { "内容": "青藍会在宅医療支援センターハートハウス成城【夜間対応型訪問介護】東京都世田谷区成城2-35-3101", "url2": "https://www.kaigokensaku.mhlw.go.jp/13/index.php?action_kouhyou_detail_004_kani=true&JigyosyoCd=1391201207-00&ServiceCd=710&Type=search" }, "geometry": { "type": "Point", "coordinates": [ 139.6001331, 35.6395896 ] } },
{ "type": "Feature", "properties": { "内容": "SOMPOケア　渋谷　夜間対応型訪問介護【夜間対応型訪問介護】東京都渋谷区代々木3-28-6いちご西参道ビルA棟2階A室", "url2": "https://www.kaigokensaku.mhlw.go.jp/13/index.php?action_kouhyou_detail_004_kani=true&JigyosyoCd=1391300330-00&ServiceCd=710&Type=search" }, "geometry": { "type": "Point", "coordinates": [ 139.692154499999987, 35.6835778 ] } },
{ "type": "Feature", "properties": { "内容": "エイプレイス中野【夜間対応型訪問介護】東京都中野区中野5-24-18クロス・スクエアNAKANO901", "url2": "https://www.kaigokensaku.mhlw.go.jp/13/index.php?action_kouhyou_detail_004_kani=true&JigyosyoCd=1391400825-00&ServiceCd=710&Type=search" }, "geometry": { "type": "Point", "coordinates": [ 139.6694048, 35.7096374 ] } },
{ "type": "Feature", "properties": { "内容": "SOMPOケア中野夜間訪問介護【夜間対応型訪問介護】東京都中野区中野三丁目33番18号フェルテ中野302号室", "url2": "https://www.kaigokensaku.mhlw.go.jp/13/index.php?action_kouhyou_detail_004_kani=true&JigyosyoCd=1391400759-00&ServiceCd=710&Type=search" }, "geometry": { "type": "Point", "coordinates": [ 139.6653383, 35.7029854 ] } },
{ "type": "Feature", "properties": { "内容": "ホームヘルパーステーションすぎなみ正吉苑【夜間対応型訪問介護】東京都杉並区清水２－１５－２４", "url2": "https://www.kaigokensaku.mhlw.go.jp/13/index.php?action_kouhyou_detail_004_kani=true&JigyosyoCd=1391500186-00&ServiceCd=710&Type=search" }, "geometry": { "type": "Point", "coordinates": [ 139.6177947, 35.7142778 ] } },
{ "type": "Feature", "properties": { "内容": "スギコー定期巡回【夜間対応型訪問介護】東京都杉並区高井戸東3-18-7杉並第2ビル", "url2": "https://www.kaigokensaku.mhlw.go.jp/13/index.php?action_kouhyou_detail_004_kani=true&JigyosyoCd=1391501077-00&ServiceCd=710&Type=search" }, "geometry": { "type": "Point", "coordinates": [ 139.621609452149613, 35.685646853548768 ] } },
{ "type": "Feature", "properties": { "内容": "ＳＯＭＰＯケア在宅老人ホーム杉並　夜間対応型訪問介護【夜間対応型訪問介護】東京都杉並区阿佐谷南1-17-18阿佐谷下田ビル２階", "url2": "https://www.kaigokensaku.mhlw.go.jp/13/index.php?action_kouhyou_detail_004_kani=true&JigyosyoCd=1391500863-00&ServiceCd=710&Type=search" }, "geometry": { "type": "Point", "coordinates": [ 139.637056459909786, 35.700917785525185 ] } },
{ "type": "Feature", "properties": { "内容": "アウケアホーム杉並・夜間対応【夜間対応型訪問介護】東京都杉並区阿佐ヶ谷北5-1-5RICO102", "url2": "https://www.kaigokensaku.mhlw.go.jp/13/index.php?action_kouhyou_detail_004_kani=true&JigyosyoCd=1391501515-00&ServiceCd=710&Type=search" }, "geometry": { "type": "Point", "coordinates": [ 139.6414484, 35.7067785 ] } },
{ "type": "Feature", "properties": { "内容": "SOMPOケア豊島　夜間訪問介護【夜間対応型訪問介護】東京都豊島区東池袋五丁目44番15号東信東池袋ビル4階", "url2": "https://www.kaigokensaku.mhlw.go.jp/13/index.php?action_kouhyou_detail_004_kani=true&JigyosyoCd=1391600259-00&ServiceCd=710&Type=search" }, "geometry": { "type": "Point", "coordinates": [ 139.726571280762954, 35.7278245156106 ] } },
{ "type": "Feature", "properties": { "内容": "SOMPOケア　中十条　夜間訪問介護【夜間対応型訪問介護】東京都北区中十条1-4-7ｲﾝｸﾘｰｽﾋﾞﾙ301号室", "url2": "https://www.kaigokensaku.mhlw.go.jp/13/index.php?action_kouhyou_detail_004_kani=true&JigyosyoCd=1391700455-00&ServiceCd=710&Type=search" }, "geometry": { "type": "Point", "coordinates": [ 139.730158299999971, 35.7579341 ] } },
{ "type": "Feature", "properties": { "内容": "SOMPOケア　荒川　夜間訪問介護【夜間対応型訪問介護】東京都荒川区東尾久6-5-5富士産業ビル2階　203号室", "url2": "https://www.kaigokensaku.mhlw.go.jp/13/index.php?action_kouhyou_detail_004_kani=true&JigyosyoCd=1391800636-00&ServiceCd=710&Type=search" }, "geometry": { "type": "Point", "coordinates": [ 139.7749925, 35.7454578 ] } },
{ "type": "Feature", "properties": { "内容": "SOMPOケア　徳丸　夜間訪問介護【夜間対応型訪問介護】東京都板橋区徳丸2-17-9", "url2": "https://www.kaigokensaku.mhlw.go.jp/13/index.php?action_kouhyou_detail_004_kani=true&JigyosyoCd=1391900899-00&ServiceCd=710&Type=search" }, "geometry": { "type": "Point", "coordinates": [ 139.661471399999982, 35.7726597 ] } },
{ "type": "Feature", "properties": { "内容": "ソンポケア　ワカギ　ヤカンホウモンカイゴ【夜間対応型訪問介護】東京都板橋区若木3-3-1", "url2": "https://www.kaigokensaku.mhlw.go.jp/13/index.php?action_kouhyou_detail_004_kani=true&JigyosyoCd=1391901228-00&ServiceCd=710&Type=search" }, "geometry": { "type": "Point", "coordinates": [ 139.677080100000012, 35.7738433 ] } },
{ "type": "Feature", "properties": { "内容": "アウケアホーム板橋・夜間対応【夜間対応型訪問介護】東京都板橋区前野町2-4-5大商第一マンション201", "url2": "https://www.kaigokensaku.mhlw.go.jp/13/index.php?action_kouhyou_detail_004_kani=true&JigyosyoCd=1391901038-00&ServiceCd=710&Type=search" }, "geometry": { "type": "Point", "coordinates": [ 139.690208500000011, 35.7637529 ] } },
{ "type": "Feature", "properties": { "内容": "ＳＯＭＰＯケア練馬　夜間訪問介護【夜間対応型訪問介護】東京都練馬区豊玉北4－11－10東洋ライス東日本支店　1階", "url2": "https://www.kaigokensaku.mhlw.go.jp/13/index.php?action_kouhyou_detail_004_kani=true&JigyosyoCd=1392000871-00&ServiceCd=710&Type=search" }, "geometry": { "type": "Point", "coordinates": [ 139.658984905527319, 35.735272599604478 ] } },
{ "type": "Feature", "properties": { "内容": "２４時間めぐみの会【夜間対応型訪問介護】東京都練馬区石神井町５丁目３番１２号石神井公園ハイツ　１階", "url2": "https://www.kaigokensaku.mhlw.go.jp/13/index.php?action_kouhyou_detail_004_kani=true&JigyosyoCd=1392000376-00&ServiceCd=710&Type=search" }, "geometry": { "type": "Point", "coordinates": [ 139.606389400000012, 35.73886610000001 ] } },
{ "type": "Feature", "properties": { "内容": "ＳＯＭＰＯケア　在宅老人ホーム足立　夜間訪問介護【夜間対応型訪問介護】東京都足立区千住中居町33-3大橋ビル4階", "url2": "https://www.kaigokensaku.mhlw.go.jp/13/index.php?action_kouhyou_detail_004_kani=true&JigyosyoCd=1392100895-00&ServiceCd=710&Type=search" }, "geometry": { "type": "Point", "coordinates": [ 139.799183500000026, 35.7510648 ] } },
{ "type": "Feature", "properties": { "内容": "ＳＯＭＰＯケア在宅老人ホーム葛飾　夜間訪問介護【夜間対応型訪問介護】東京都葛飾区青戸3-33-14サンプラザビル601", "url2": "https://www.kaigokensaku.mhlw.go.jp/13/index.php?action_kouhyou_detail_004_kani=true&JigyosyoCd=1392200711-00&ServiceCd=710&Type=search" }, "geometry": { "type": "Point", "coordinates": [ 139.855839, 35.7468706 ] } },
{ "type": "Feature", "properties": { "内容": "夜間訪問型訪問介護泰山【夜間対応型訪問介護】東京都江戸川区北小岩5-34-10", "url2": "https://www.kaigokensaku.mhlw.go.jp/13/index.php?action_kouhyou_detail_004_kani=true&JigyosyoCd=1392300974-00&ServiceCd=710&Type=search" }, "geometry": { "type": "Point", "coordinates": [ 139.891649699999988, 35.7397065 ] } },
{ "type": "Feature", "properties": { "内容": "しろひげレンジャー24時（夜間対応型訪問介護）【夜間対応型訪問介護】東京都江戸川区船堀1-8-18ポエールビル201号", "url2": "https://www.kaigokensaku.mhlw.go.jp/13/index.php?action_kouhyou_detail_004_kani=true&JigyosyoCd=1392301089-00&ServiceCd=710&Type=search" }, "geometry": { "type": "Point", "coordinates": [ 139.8632383, 35.6839535 ] } },
{ "type": "Feature", "properties": { "内容": "偕楽園ホーム夜間対応型訪問介護事業所【夜間対応型訪問介護】東京都八王子市宮下町９８３番地偕楽園ホーム", "url2": "https://www.kaigokensaku.mhlw.go.jp/13/index.php?action_kouhyou_detail_004_kani=true&JigyosyoCd=1392900807-00&ServiceCd=710&Type=search" }, "geometry": { "type": "Point", "coordinates": [ 139.312349400000016, 35.7004824 ] } },
{ "type": "Feature", "properties": { "内容": "ジョイステージ八王子夜間訪問介護ステーション【夜間対応型訪問介護】東京都八王子市横川町924-2", "url2": "https://www.kaigokensaku.mhlw.go.jp/13/index.php?action_kouhyou_detail_004_kani=true&JigyosyoCd=1392900831-00&ServiceCd=710&Type=search" }, "geometry": { "type": "Point", "coordinates": [ 139.2950042, 35.66332 ] } },
{ "type": "Feature", "properties": { "内容": "いつでも安心介護センター【夜間対応型訪問介護】東京都八王子市散田町3-18-15カネヒビル２階", "url2": "https://www.kaigokensaku.mhlw.go.jp/13/index.php?action_kouhyou_detail_004_kani=true&JigyosyoCd=1392900013-00&ServiceCd=710&Type=search" }, "geometry": { "type": "Point", "coordinates": [ 139.314103299999942, 35.655549 ] } },
{ "type": "Feature", "properties": { "内容": "カイゴいるてと【夜間対応型訪問介護】東京都三鷹市野崎2-6-32", "url2": "https://www.kaigokensaku.mhlw.go.jp/13/index.php?action_kouhyou_detail_004_kani=true&JigyosyoCd=1393600315-00&ServiceCd=710&Type=search" }, "geometry": { "type": "Point", "coordinates": [ 139.547790099999986, 35.6831137 ] } },
{ "type": "Feature", "properties": { "内容": "SOMPOケア三鷹夜間訪問介護【夜間対応型訪問介護】東京都三鷹市上連雀4-3-3川口ビル1階", "url2": "https://www.kaigokensaku.mhlw.go.jp/13/index.php?action_kouhyou_detail_004_kani=true&JigyosyoCd=1393600323-00&ServiceCd=710&Type=search" }, "geometry": { "type": "Point", "coordinates": [ 139.558991200000037, 35.6963542 ] } },
{ "type": "Feature", "properties": { "内容": "SOMPOケア　府中　夜間訪問介護【夜間対応型訪問介護】東京都府中市宮西町2-16-2府中第一生命ビル2階", "url2": "https://www.kaigokensaku.mhlw.go.jp/13/index.php?action_kouhyou_detail_004_kani=true&JigyosyoCd=1393800337-00&ServiceCd=710&Type=search" }, "geometry": { "type": "Point", "coordinates": [ 139.478105299999982, 35.669800100000018 ] } },
{ "type": "Feature", "properties": { "内容": "昭和郷訪問介護センター【夜間対応型訪問介護】東京都昭島市中神町1260", "url2": "https://www.kaigokensaku.mhlw.go.jp/13/index.php?action_kouhyou_detail_004_kani=true&JigyosyoCd=1394000077-00&ServiceCd=710&Type=search" }, "geometry": { "type": "Point", "coordinates": [ 139.3822334, 35.7093327 ] } },
{ "type": "Feature", "properties": { "内容": "SOMPOケア　在宅老人ホーム調布　夜間訪問介護【夜間対応型訪問介護】東京都調布市布田1丁目50-1フジヨシビル　501号室", "url2": "https://www.kaigokensaku.mhlw.go.jp/13/index.php?action_kouhyou_detail_004_kani=true&JigyosyoCd=1394200271-00&ServiceCd=710&Type=search" }, "geometry": { "type": "Point", "coordinates": [ 139.5464426, 35.6517484 ] } },
{ "type": "Feature", "properties": { "内容": "ＳＯＭＰＯケア　町田　夜間訪問介護【夜間対応型訪問介護】東京都町田市原町田2-2-1Ｍ＆Ｔビル2階", "url2": "https://www.kaigokensaku.mhlw.go.jp/13/index.php?action_kouhyou_detail_004_kani=true&JigyosyoCd=1393200827-00&ServiceCd=710&Type=search" }, "geometry": { "type": "Point", "coordinates": [ 139.451982500000014, 35.5390974 ] } },
{ "type": "Feature", "properties": { "内容": "夜間訪問介護テラス【夜間対応型訪問介護】東京都小平市学園東町1-7-1黒木ビル2F", "url2": "https://www.kaigokensaku.mhlw.go.jp/13/index.php?action_kouhyou_detail_004_kani=true&JigyosyoCd=1394300337-00&ServiceCd=710&Type=search" }, "geometry": { "type": "Point", "coordinates": [ 139.480122099999988, 35.7239195 ] } },
{ "type": "Feature", "properties": { "内容": "JNCC夜間介護【夜間対応型訪問介護】東京都国分寺市西町2-6-5", "url2": "https://www.kaigokensaku.mhlw.go.jp/13/index.php?action_kouhyou_detail_004_kani=true&JigyosyoCd=1393100092-00&ServiceCd=710&Type=search" }, "geometry": { "type": "Point", "coordinates": [ 139.4378036, 35.7050924 ] } },
{ "type": "Feature", "properties": { "内容": "ホームヘルパーステーションやのくち正吉苑【夜間対応型訪問介護】東京都稲城市矢野口1804-3", "url2": "https://www.kaigokensaku.mhlw.go.jp/13/index.php?action_kouhyou_detail_004_kani=true&JigyosyoCd=1395100058-00&ServiceCd=710&Type=search" }, "geometry": { "type": "Point", "coordinates": [ 139.519138399999946, 35.6366527 ] } },
{ "type": "Feature", "properties": { "内容": "SOMPOケア　西東京　夜間訪問介護【夜間対応型訪問介護】東京都西東京市田無町4-2-11Aビル２階", "url2": "https://www.kaigokensaku.mhlw.go.jp/13/index.php?action_kouhyou_detail_004_kani=true&JigyosyoCd=1395400383-00&ServiceCd=710&Type=search" }, "geometry": { "type": "Point", "coordinates": [ 139.5391769, 35.727997 ] } }
]
}
