{
"type": "FeatureCollection",
"name": "geo_13_小規模多機能型居宅介護",
"crs": { "type": "name", "properties": { "name": "urn:ogc:def:crs:OGC:1.3:CRS84" } },
"features": [
{ "type": "Feature", "properties": { "内容": "小規模多機能型居宅介護事業所　ジロール麹町【小規模多機能型居宅介護】東京都千代田区麹町2-14-3", "url2": "https://www.kaigokensaku.mhlw.go.jp/13/index.php?action_kouhyou_detail_004_kani=true&JigyosyoCd=1390100038-00&ServiceCd=730&Type=search" }, "geometry": { "type": "Point", "coordinates": [ 139.741254700000013, 35.6856034 ] } },
{ "type": "Feature", "properties": { "内容": "優っくり小規模多機能介護中央湊【小規模多機能型居宅介護】東京都中央区湊2－16－23パークシティ中央湊ザレジデンス", "url2": "https://www.kaigokensaku.mhlw.go.jp/13/index.php?action_kouhyou_detail_004_kani=true&JigyosyoCd=1390200168-00&ServiceCd=730&Type=search" }, "geometry": { "type": "Point", "coordinates": [ 139.78114359999995, 35.6712482 ] } },
{ "type": "Feature", "properties": { "内容": "小規模多機能型居宅介護十思【小規模多機能型居宅介護】東京都中央区日本橋小伝馬町5番19号十思スクエア別館3階", "url2": "https://www.kaigokensaku.mhlw.go.jp/13/index.php?action_kouhyou_detail_004_kani=true&JigyosyoCd=1390200127-00&ServiceCd=730&Type=search" }, "geometry": { "type": "Point", "coordinates": [ 139.777549300000032, 35.6911066 ] } },
{ "type": "Feature", "properties": { "内容": "ココファン勝どき【小規模多機能型居宅介護】東京都中央区勝どき5-3-2勝どきザ・タワー", "url2": "https://www.kaigokensaku.mhlw.go.jp/13/index.php?action_kouhyou_detail_004_kani=true&JigyosyoCd=1390200184-00&ServiceCd=730&Type=search" }, "geometry": { "type": "Point", "coordinates": [ 139.7727219, 35.656267 ] } },
{ "type": "Feature", "properties": { "内容": "小規模多機能型居宅介護　ありすの杜きのこ南麻布【小規模多機能型居宅介護】東京都港区南麻布四丁目６番１号南棟", "url2": "https://www.kaigokensaku.mhlw.go.jp/13/index.php?action_kouhyou_detail_004_kani=true&JigyosyoCd=1390300182-00&ServiceCd=730&Type=search" }, "geometry": { "type": "Point", "coordinates": [ 139.726873899999987, 35.650218299999985 ] } },
{ "type": "Feature", "properties": { "内容": "小規模多機能型居宅介護和奏【小規模多機能型居宅介護】東京都港区南青山二丁目6-3", "url2": "https://www.kaigokensaku.mhlw.go.jp/13/index.php?action_kouhyou_detail_004_kani=true&JigyosyoCd=1390300497-00&ServiceCd=730&Type=search" }, "geometry": { "type": "Point", "coordinates": [ 139.722530234390547, 35.671708778396315 ] } },
{ "type": "Feature", "properties": { "内容": "グッドライフケア芝浦高浜【小規模多機能型居宅介護】東京都港区芝浦4-3-28カナルサイド高浜　5階", "url2": "https://www.kaigokensaku.mhlw.go.jp/13/index.php?action_kouhyou_detail_004_kani=true&JigyosyoCd=1390300539-00&ServiceCd=730&Type=search" }, "geometry": { "type": "Point", "coordinates": [ 139.7438074, 35.6394569 ] } },
{ "type": "Feature", "properties": { "内容": "小規模多機能型居宅介護　こゆらり高輪【小規模多機能型居宅介護】東京都港区高輪1-5-38HUG高輪　3階", "url2": "https://www.kaigokensaku.mhlw.go.jp/13/index.php?action_kouhyou_detail_004_kani=true&JigyosyoCd=1390300257-00&ServiceCd=730&Type=search" }, "geometry": { "type": "Point", "coordinates": [ 139.736859399999958, 35.6417502 ] } },
{ "type": "Feature", "properties": { "内容": "優っくり小規模多機能介護乃木坂【小規模多機能型居宅介護】東京都港区赤坂9-4-2パークコート赤坂檜町ザタワー2階", "url2": "https://www.kaigokensaku.mhlw.go.jp/13/index.php?action_kouhyou_detail_004_kani=true&JigyosyoCd=1390300331-00&ServiceCd=730&Type=search" }, "geometry": { "type": "Point", "coordinates": [ 139.729675899999961, 35.6681745 ] } },
{ "type": "Feature", "properties": { "内容": "優っくり小規模多機能介護高輪台【小規模多機能型居宅介護】東京都港区高輪３丁目10番16号優っくり村高輪台", "url2": "https://www.kaigokensaku.mhlw.go.jp/13/index.php?action_kouhyou_detail_004_kani=true&JigyosyoCd=1390300406-00&ServiceCd=730&Type=search" }, "geometry": { "type": "Point", "coordinates": [ 139.7321475, 35.631050899999984 ] } },
{ "type": "Feature", "properties": { "内容": "小規模多機能ホーム　さくら【小規模多機能型居宅介護】東京都新宿区新宿7-3-31マザアス新宿4階", "url2": "https://www.kaigokensaku.mhlw.go.jp/13/index.php?action_kouhyou_detail_004_kani=true&JigyosyoCd=1390400115-00&ServiceCd=730&Type=search" }, "geometry": { "type": "Point", "coordinates": [ 139.71312290000003, 35.7010645 ] } },
{ "type": "Feature", "properties": { "内容": "小規模多機能型居宅介護事業所　みなみ新宿市ヶ谷【小規模多機能型居宅介護】東京都新宿区払方町35-1", "url2": "https://www.kaigokensaku.mhlw.go.jp/13/index.php?action_kouhyou_detail_004_kani=true&JigyosyoCd=1390400792-00&ServiceCd=730&Type=search" }, "geometry": { "type": "Point", "coordinates": [ 139.733458858860814, 35.696673848085254 ] } },
{ "type": "Feature", "properties": { "内容": "優っくり小規模多機能介護新宿西落合【小規模多機能型居宅介護】東京都新宿区西落合二丁目8-7", "url2": "https://www.kaigokensaku.mhlw.go.jp/13/index.php?action_kouhyou_detail_004_kani=true&JigyosyoCd=1390400297-00&ServiceCd=730&Type=search" }, "geometry": { "type": "Point", "coordinates": [ 139.6788243, 35.7185088 ] } },
{ "type": "Feature", "properties": { "内容": "デイハウス下落合【小規模多機能型居宅介護】東京都新宿区下落合1-9-10", "url2": "https://www.kaigokensaku.mhlw.go.jp/13/index.php?action_kouhyou_detail_004_kani=true&JigyosyoCd=1390400339-00&ServiceCd=730&Type=search" }, "geometry": { "type": "Point", "coordinates": [ 139.698579399999971, 35.716143 ] } },
{ "type": "Feature", "properties": { "内容": "コンフォメディケア小規模多機能ホーム【小規模多機能型居宅介護】東京都新宿区住吉町9-10", "url2": "https://www.kaigokensaku.mhlw.go.jp/13/index.php?action_kouhyou_detail_004_kani=true&JigyosyoCd=1390400081-00&ServiceCd=730&Type=search" }, "geometry": { "type": "Point", "coordinates": [ 139.720644600000014, 35.6948683 ] } },
{ "type": "Feature", "properties": { "内容": "戸山いつきの杜【小規模多機能型居宅介護】東京都新宿区戸山2丁目4番101", "url2": "https://www.kaigokensaku.mhlw.go.jp/13/index.php?action_kouhyou_detail_004_kani=true&JigyosyoCd=1390400370-00&ServiceCd=730&Type=search" }, "geometry": { "type": "Point", "coordinates": [ 139.714513899999986, 35.7040858 ] } },
{ "type": "Feature", "properties": { "内容": "小規模多機能ホーム静華庵【小規模多機能型居宅介護】東京都新宿区市谷山伏町2-2", "url2": "https://www.kaigokensaku.mhlw.go.jp/13/index.php?action_kouhyou_detail_004_kani=true&JigyosyoCd=1390400727-00&ServiceCd=730&Type=search" }, "geometry": { "type": "Point", "coordinates": [ 139.727934803110514, 35.699634062685554 ] } },
{ "type": "Feature", "properties": { "内容": "原町小規模多機能居宅介護センター【小規模多機能型居宅介護】東京都新宿区原町3-84原町高齢者複合施設２階", "url2": "https://www.kaigokensaku.mhlw.go.jp/13/index.php?action_kouhyou_detail_004_kani=true&JigyosyoCd=1390400206-00&ServiceCd=730&Type=search" }, "geometry": { "type": "Point", "coordinates": [ 139.721991766795327, 35.699243933178806 ] } },
{ "type": "Feature", "properties": { "内容": "小規模多機能型居宅介護いきいき礫川【小規模多機能型居宅介護】東京都文京区小石川２－１６－１", "url2": "https://www.kaigokensaku.mhlw.go.jp/13/index.php?action_kouhyou_detail_004_kani=true&JigyosyoCd=1390500047-00&ServiceCd=730&Type=search" }, "geometry": { "type": "Point", "coordinates": [ 139.747578299999986, 35.711145 ] } },
{ "type": "Feature", "properties": { "内容": "ユアハウス弥生【小規模多機能型居宅介護】東京都文京区弥生２－１６－３", "url2": "https://www.kaigokensaku.mhlw.go.jp/13/index.php?action_kouhyou_detail_004_kani=true&JigyosyoCd=1390500039-00&ServiceCd=730&Type=search" }, "geometry": { "type": "Point", "coordinates": [ 139.762957699999987, 35.7174392 ] } },
{ "type": "Feature", "properties": { "内容": "グッドライフケア向丘【小規模多機能型居宅介護】東京都文京区西片2-19-15", "url2": "https://www.kaigokensaku.mhlw.go.jp/13/index.php?action_kouhyou_detail_004_kani=true&JigyosyoCd=1390500229-00&ServiceCd=730&Type=search" }, "geometry": { "type": "Point", "coordinates": [ 139.756797, 35.7160169 ] } },
{ "type": "Feature", "properties": { "内容": "小規模多機能施設　ソラスト台東【小規模多機能型居宅介護】東京都台東区台東２－３－６ソラスト台東ビル４Ｆ", "url2": "https://www.kaigokensaku.mhlw.go.jp/13/index.php?action_kouhyou_detail_004_kani=true&JigyosyoCd=1390600151-00&ServiceCd=730&Type=search" }, "geometry": { "type": "Point", "coordinates": [ 139.77966, 35.7026691 ] } },
{ "type": "Feature", "properties": { "内容": "せらび　向島【小規模多機能型居宅介護】東京都墨田区東向島4-31-3", "url2": "https://www.kaigokensaku.mhlw.go.jp/13/index.php?action_kouhyou_detail_004_kani=true&JigyosyoCd=1390700142-00&ServiceCd=730&Type=search" }, "geometry": { "type": "Point", "coordinates": [ 139.818167200000062, 35.7239708 ] } },
{ "type": "Feature", "properties": { "内容": "ラックの空　厩橋【小規模多機能型居宅介護】東京都墨田区本所3-4-8", "url2": "https://www.kaigokensaku.mhlw.go.jp/13/index.php?action_kouhyou_detail_004_kani=true&JigyosyoCd=1390700167-00&ServiceCd=730&Type=search" }, "geometry": { "type": "Point", "coordinates": [ 139.803516400000035, 35.7023472 ] } },
{ "type": "Feature", "properties": { "内容": "小規模多機能型介護ともえ【小規模多機能型居宅介護】東京都墨田区八広３－１５－１４大石ビルeast", "url2": "https://www.kaigokensaku.mhlw.go.jp/13/index.php?action_kouhyou_detail_004_kani=true&JigyosyoCd=1390700613-00&ServiceCd=730&Type=search" }, "geometry": { "type": "Point", "coordinates": [ 139.8272373, 35.7185664 ] } },
{ "type": "Feature", "properties": { "内容": "ブライトの家【小規模多機能型居宅介護】東京都墨田区菊川３－１０－９", "url2": "https://www.kaigokensaku.mhlw.go.jp/13/index.php?action_kouhyou_detail_004_kani=true&JigyosyoCd=1390700225-00&ServiceCd=730&Type=search" }, "geometry": { "type": "Point", "coordinates": [ 139.808288400000038, 35.6881545 ] } },
{ "type": "Feature", "properties": { "内容": "ラックの空　東向島【小規模多機能型居宅介護】東京都墨田区東向島6－51－72F", "url2": "https://www.kaigokensaku.mhlw.go.jp/13/index.php?action_kouhyou_detail_004_kani=true&JigyosyoCd=1390700076-00&ServiceCd=730&Type=search" }, "geometry": { "type": "Point", "coordinates": [ 139.8228602, 35.725836700000023 ] } },
{ "type": "Feature", "properties": { "内容": "玉ノ井プラザあゆみの舎【小規模多機能型居宅介護】東京都墨田区墨田3-8-6", "url2": "https://www.kaigokensaku.mhlw.go.jp/13/index.php?action_kouhyou_detail_004_kani=true&JigyosyoCd=1390700258-00&ServiceCd=730&Type=search" }, "geometry": { "type": "Point", "coordinates": [ 139.821216198147596, 35.728791962690821 ] } },
{ "type": "Feature", "properties": { "内容": "花かんざし【小規模多機能型居宅介護】東京都墨田区堤通1-12-5", "url2": "https://www.kaigokensaku.mhlw.go.jp/13/index.php?action_kouhyou_detail_004_kani=true&JigyosyoCd=1390700357-00&ServiceCd=730&Type=search" }, "geometry": { "type": "Point", "coordinates": [ 139.8119259, 35.7255206 ] } },
{ "type": "Feature", "properties": { "内容": "小規模多機能型居宅介護事業所　あいり【小規模多機能型居宅介護】東京都江東区大島3-30-11", "url2": "https://www.kaigokensaku.mhlw.go.jp/13/index.php?action_kouhyou_detail_004_kani=true&JigyosyoCd=1390800140-00&ServiceCd=730&Type=search" }, "geometry": { "type": "Point", "coordinates": [ 139.83060839999996, 35.69056 ] } },
{ "type": "Feature", "properties": { "内容": "小規模多機能　天神あやめ【小規模多機能型居宅介護】東京都　江東区　亀戸　２－８－７", "url2": "https://www.kaigokensaku.mhlw.go.jp/13/index.php?action_kouhyou_detail_004_kani=true&JigyosyoCd=1390800280-00&ServiceCd=730&Type=search" }, "geometry": { "type": "Point", "coordinates": [ 139.8223006, 35.7013608 ] } },
{ "type": "Feature", "properties": { "内容": "小規模多機能ファンライフ江東【小規模多機能型居宅介護】東京都江東区海辺１４-５ファンライフ江東", "url2": "https://www.kaigokensaku.mhlw.go.jp/13/index.php?action_kouhyou_detail_004_kani=true&JigyosyoCd=1390800413-00&ServiceCd=730&Type=search" }, "geometry": { "type": "Point", "coordinates": [ 139.817418, 35.6815247 ] } },
{ "type": "Feature", "properties": { "内容": "多機能ホーム新砂【小規模多機能型居宅介護】東京都江東区新砂3丁目3-11江東区地域密着型介護施設　３階", "url2": "https://www.kaigokensaku.mhlw.go.jp/13/index.php?action_kouhyou_detail_004_kani=true&JigyosyoCd=1390800173-00&ServiceCd=730&Type=search" }, "geometry": { "type": "Point", "coordinates": [ 139.83300273439329, 35.666648029309776 ] } },
{ "type": "Feature", "properties": { "内容": "医療法人社団武蔵野会　小規模多機能ホーム　ｃａｒｎａ五反田【小規模多機能型居宅介護】東京都品川区西五反田3-10-9", "url2": "https://www.kaigokensaku.mhlw.go.jp/13/index.php?action_kouhyou_detail_004_kani=true&JigyosyoCd=1390900320-00&ServiceCd=730&Type=search" }, "geometry": { "type": "Point", "coordinates": [ 139.71380350000004, 35.6281567 ] } },
{ "type": "Feature", "properties": { "内容": "東大井倶楽部【小規模多機能型居宅介護】東京都品川区東大井5-8-12", "url2": "https://www.kaigokensaku.mhlw.go.jp/13/index.php?action_kouhyou_detail_004_kani=true&JigyosyoCd=1390900148-00&ServiceCd=730&Type=search" }, "geometry": { "type": "Point", "coordinates": [ 139.738063499999953, 35.6073765 ] } },
{ "type": "Feature", "properties": { "内容": "品川区立大井林町地域密着型多機能ホーム　大井林町倶楽部【小規模多機能型居宅介護】東京都品川区東大井4-9-1品川区立大井林町高齢者複合施設", "url2": "https://www.kaigokensaku.mhlw.go.jp/13/index.php?action_kouhyou_detail_004_kani=true&JigyosyoCd=1390900221-00&ServiceCd=730&Type=search" }, "geometry": { "type": "Point", "coordinates": [ 139.740266199999951, 35.6053435 ] } },
{ "type": "Feature", "properties": { "内容": "ぷらりす・湯～亀【小規模多機能型居宅介護】東京都品川区旗の台4-5-17ガーディアンプレイス・旗の台", "url2": "https://www.kaigokensaku.mhlw.go.jp/13/index.php?action_kouhyou_detail_004_kani=true&JigyosyoCd=1390900189-00&ServiceCd=730&Type=search" }, "geometry": { "type": "Point", "coordinates": [ 139.705777200000057, 35.6025623 ] } },
{ "type": "Feature", "properties": { "内容": "品川区立小山地域密着型多機能ホーム　小山倶楽部【小規模多機能型居宅介護】東京都品川区小山7-14-4", "url2": "https://www.kaigokensaku.mhlw.go.jp/13/index.php?action_kouhyou_detail_004_kani=true&JigyosyoCd=1390900064-00&ServiceCd=730&Type=search" }, "geometry": { "type": "Point", "coordinates": [ 139.696780600000011, 35.608914 ] } },
{ "type": "Feature", "properties": { "内容": "おもてなし【小規模多機能型居宅介護】東京都品川区北品川１－３０－４石田ビル１階・２階", "url2": "https://www.kaigokensaku.mhlw.go.jp/13/index.php?action_kouhyou_detail_004_kani=true&JigyosyoCd=1390900239-00&ServiceCd=730&Type=search" }, "geometry": { "type": "Point", "coordinates": [ 139.742147885896458, 35.620660999890994 ] } },
{ "type": "Feature", "properties": { "内容": "けめともの家・品川八潮【小規模多機能型居宅介護】東京都品川区八潮5-6-37品川八潮パークタウン　潮路南第一ハイツ109", "url2": "https://www.kaigokensaku.mhlw.go.jp/13/index.php?action_kouhyou_detail_004_kani=true&JigyosyoCd=1390900254-00&ServiceCd=730&Type=search" }, "geometry": { "type": "Point", "coordinates": [ 139.750454900000022, 35.5985557 ] } },
{ "type": "Feature", "properties": { "内容": "品川区立東五反田地域密着型多機能ホーム　東五反田倶楽部【小規模多機能型居宅介護】東京都品川区東五反田4-11-6", "url2": "https://www.kaigokensaku.mhlw.go.jp/13/index.php?action_kouhyou_detail_004_kani=true&JigyosyoCd=1390900395-00&ServiceCd=730&Type=search" }, "geometry": { "type": "Point", "coordinates": [ 139.725791299999969, 35.6303484 ] } },
{ "type": "Feature", "properties": { "内容": "ぷらりす・湯～亀SUN【小規模多機能型居宅介護】東京都品川区旗の台3-2-9ガーディアンプレイスFLAG３", "url2": "https://www.kaigokensaku.mhlw.go.jp/13/index.php?action_kouhyou_detail_004_kani=true&JigyosyoCd=1390900445-00&ServiceCd=730&Type=search" }, "geometry": { "type": "Point", "coordinates": [ 139.706904799999961, 35.6049537 ] } },
{ "type": "Feature", "properties": { "内容": "花織しながわ【小規模多機能型居宅介護】東京都品川区大井7-18-17", "url2": "https://www.kaigokensaku.mhlw.go.jp/13/index.php?action_kouhyou_detail_004_kani=true&JigyosyoCd=1390900544-00&ServiceCd=730&Type=search" }, "geometry": { "type": "Point", "coordinates": [ 139.7245469, 35.5948851 ] } },
{ "type": "Feature", "properties": { "内容": "小規模多機能鷹番あやめ【小規模多機能型居宅介護】東京都　目黒区　鷹番2-6-8小規模多機能鷹番あやめ", "url2": "https://www.kaigokensaku.mhlw.go.jp/13/index.php?action_kouhyou_detail_004_kani=true&JigyosyoCd=1391000286-00&ServiceCd=730&Type=search" }, "geometry": { "type": "Point", "coordinates": [ 139.688864100000046, 35.6271894 ] } },
{ "type": "Feature", "properties": { "内容": "東が丘多機能ホームあすなろ【小規模多機能型居宅介護】東京都目黒区東が丘1-6-4", "url2": "https://www.kaigokensaku.mhlw.go.jp/13/index.php?action_kouhyou_detail_004_kani=true&JigyosyoCd=1391000419-00&ServiceCd=730&Type=search" }, "geometry": { "type": "Point", "coordinates": [ 139.670513, 35.6263556 ] } },
{ "type": "Feature", "properties": { "内容": "優っくり小規模多機能介護目黒中央【小規模多機能型居宅介護】東京都目黒区中央町2-32-23中央の家", "url2": "https://www.kaigokensaku.mhlw.go.jp/13/index.php?action_kouhyou_detail_004_kani=true&JigyosyoCd=1391000518-00&ServiceCd=730&Type=search" }, "geometry": { "type": "Point", "coordinates": [ 139.6880823, 35.6315685 ] } },
{ "type": "Feature", "properties": { "内容": "東山多機能ホームけやき【小規模多機能型居宅介護】東京都目黒区東山3-24-6ひがしやまホーム", "url2": "https://www.kaigokensaku.mhlw.go.jp/13/index.php?action_kouhyou_detail_004_kani=true&JigyosyoCd=1391000344-00&ServiceCd=730&Type=search" }, "geometry": { "type": "Point", "coordinates": [ 139.685474200000044, 35.647390600000016 ] } },
{ "type": "Feature", "properties": { "内容": "田道小規模多機能型居宅介護事業所【小規模多機能型居宅介護】東京都目黒区目黒1-25-26田道ふれあい館1階", "url2": "https://www.kaigokensaku.mhlw.go.jp/13/index.php?action_kouhyou_detail_004_kani=true&JigyosyoCd=1391000534-00&ServiceCd=730&Type=search" }, "geometry": { "type": "Point", "coordinates": [ 139.7082575, 35.6367586 ] } },
{ "type": "Feature", "properties": { "内容": "ニチイケアセンター目黒本町【小規模多機能型居宅介護】東京都目黒区目黒本町２－１７－１目黒本町ビル２Ｆ", "url2": "https://www.kaigokensaku.mhlw.go.jp/13/index.php?action_kouhyou_detail_004_kani=true&JigyosyoCd=1391000062-00&ServiceCd=730&Type=search" }, "geometry": { "type": "Point", "coordinates": [ 139.691061200000036, 35.6262867 ] } },
{ "type": "Feature", "properties": { "内容": "ミモザ多摩川【小規模多機能型居宅介護】東京都大田区多摩川1－16－5ミモザ多摩川", "url2": "https://www.kaigokensaku.mhlw.go.jp/13/index.php?action_kouhyou_detail_004_kani=true&JigyosyoCd=1391101662-00&ServiceCd=730&Type=search" }, "geometry": { "type": "Point", "coordinates": [ 139.697040500000014, 35.5642824 ] } },
{ "type": "Feature", "properties": { "内容": "アクセス多機能センター【小規模多機能型居宅介護】東京都大田区本羽田2-16-23", "url2": "https://www.kaigokensaku.mhlw.go.jp/13/index.php?action_kouhyou_detail_004_kani=true&JigyosyoCd=1391100599-00&ServiceCd=730&Type=search" }, "geometry": { "type": "Point", "coordinates": [ 139.732781299999942, 35.5458678 ] } },
{ "type": "Feature", "properties": { "内容": "小規模多機能型居宅介護　西蒲田【小規模多機能型居宅介護】東京都大田区西蒲田6-10-7２階", "url2": "https://www.kaigokensaku.mhlw.go.jp/13/index.php?action_kouhyou_detail_004_kani=true&JigyosyoCd=1391101068-00&ServiceCd=730&Type=search" }, "geometry": { "type": "Point", "coordinates": [ 139.710362600000053, 35.5670865 ] } },
{ "type": "Feature", "properties": { "内容": "学研ココファン池上【小規模多機能型居宅介護】東京都大田区池上２－１２－７", "url2": "https://www.kaigokensaku.mhlw.go.jp/13/index.php?action_kouhyou_detail_004_kani=true&JigyosyoCd=1391100557-00&ServiceCd=730&Type=search" }, "geometry": { "type": "Point", "coordinates": [ 139.70318629999997, 35.578357 ] } },
{ "type": "Feature", "properties": { "内容": "みねまちの郷【小規模多機能型居宅介護】東京都大田区鵜の木2-20-13ＨＩビル2", "url2": "https://www.kaigokensaku.mhlw.go.jp/13/index.php?action_kouhyou_detail_004_kani=true&JigyosyoCd=1391100888-00&ServiceCd=730&Type=search" }, "geometry": { "type": "Point", "coordinates": [ 139.6784599, 35.57526020000001 ] } },
{ "type": "Feature", "properties": { "内容": "セントケア西糀谷【小規模多機能型居宅介護】東京都大田区西糀谷2-9-4ウィングピア美園", "url2": "https://www.kaigokensaku.mhlw.go.jp/13/index.php?action_kouhyou_detail_004_kani=true&JigyosyoCd=1391101050-00&ServiceCd=730&Type=search" }, "geometry": { "type": "Point", "coordinates": [ 139.737533300000024, 35.560669699999984 ] } },
{ "type": "Feature", "properties": { "内容": "小規模多機能型ホーム大森東【小規模多機能型居宅介護】東京都大田区大森東4-35-16", "url2": "https://www.kaigokensaku.mhlw.go.jp/13/index.php?action_kouhyou_detail_004_kani=true&JigyosyoCd=1391101084-00&ServiceCd=730&Type=search" }, "geometry": { "type": "Point", "coordinates": [ 139.7365757, 35.5666821 ] } },
{ "type": "Feature", "properties": { "内容": "小規模多機能型居宅介護　蓮沼【小規模多機能型居宅介護】東京都大田区東矢口1－18－2ステイブル蓮沼101", "url2": "https://www.kaigokensaku.mhlw.go.jp/13/index.php?action_kouhyou_detail_004_kani=true&JigyosyoCd=1391101548-00&ServiceCd=730&Type=search" }, "geometry": { "type": "Point", "coordinates": [ 139.7081411, 35.5646621 ] } },
{ "type": "Feature", "properties": { "内容": "世田谷希望丘コラボケアセンター【小規模多機能型居宅介護】東京都世田谷区船橋6-25-25", "url2": "https://www.kaigokensaku.mhlw.go.jp/13/index.php?action_kouhyou_detail_004_kani=true&JigyosyoCd=1391201090-00&ServiceCd=730&Type=search" }, "geometry": { "type": "Point", "coordinates": [ 139.621622078573637, 35.659363743173621 ] } },
{ "type": "Feature", "properties": { "内容": "小規模多機能型居宅介護事業所　ハートフル若林【小規模多機能型居宅介護】東京都世田谷区若林5-38-20", "url2": "https://www.kaigokensaku.mhlw.go.jp/13/index.php?action_kouhyou_detail_004_kani=true&JigyosyoCd=1391201595-00&ServiceCd=730&Type=search" }, "geometry": { "type": "Point", "coordinates": [ 139.659079600000013, 35.6506179 ] } },
{ "type": "Feature", "properties": { "内容": "小規模多機能つどい八幡山【小規模多機能型居宅介護】東京都世田谷区八幡山3-24-7小規模多機能つどい八幡山", "url2": "https://www.kaigokensaku.mhlw.go.jp/13/index.php?action_kouhyou_detail_004_kani=true&JigyosyoCd=1391200829-00&ServiceCd=730&Type=search" }, "geometry": { "type": "Point", "coordinates": [ 139.61673925242701, 35.666399667607102 ] } },
{ "type": "Feature", "properties": { "内容": "小規模多機能型居宅介護　深沢の杜【小規模多機能型居宅介護】東京都世田谷区深沢1-31-21特別養護老人ホーム　深沢共愛ホームズ", "url2": "https://www.kaigokensaku.mhlw.go.jp/13/index.php?action_kouhyou_detail_004_kani=true&JigyosyoCd=1391200985-00&ServiceCd=730&Type=search" }, "geometry": { "type": "Point", "coordinates": [ 139.6662681, 35.6186704 ] } },
{ "type": "Feature", "properties": { "内容": "優っくり小規模多機能介護下馬【小規模多機能型居宅介護】東京都世田谷区下馬2-25-8", "url2": "https://www.kaigokensaku.mhlw.go.jp/13/index.php?action_kouhyou_detail_004_kani=true&JigyosyoCd=1391201165-00&ServiceCd=730&Type=search" }, "geometry": { "type": "Point", "coordinates": [ 139.678284100000042, 35.641648400000015 ] } },
{ "type": "Feature", "properties": { "内容": "小規模多機能型居宅介護ノテ深沢【小規模多機能型居宅介護】東京都世田谷区深沢7-17-20", "url2": "https://www.kaigokensaku.mhlw.go.jp/13/index.php?action_kouhyou_detail_004_kani=true&JigyosyoCd=1391200662-00&ServiceCd=730&Type=search" }, "geometry": { "type": "Point", "coordinates": [ 139.647724747885121, 35.621057385322935 ] } },
{ "type": "Feature", "properties": { "内容": "小規模多機能ホーム三宿【小規模多機能型居宅介護】東京都世田谷区三宿1-8-19亀井クリニックビル3階", "url2": "https://www.kaigokensaku.mhlw.go.jp/13/index.php?action_kouhyou_detail_004_kani=true&JigyosyoCd=1391200761-00&ServiceCd=730&Type=search" }, "geometry": { "type": "Point", "coordinates": [ 139.676059, 35.6503695 ] } },
{ "type": "Feature", "properties": { "内容": "優っくり小規模多機能介護奥沢【小規模多機能型居宅介護】東京都世田谷区奥沢2－23－1", "url2": "https://www.kaigokensaku.mhlw.go.jp/13/index.php?action_kouhyou_detail_004_kani=true&JigyosyoCd=1391201496-00&ServiceCd=730&Type=search" }, "geometry": { "type": "Point", "coordinates": [ 139.6775302, 35.6056655 ] } },
{ "type": "Feature", "properties": { "内容": "優っくり小規模多機能介護池尻【小規模多機能型居宅介護】東京都世田谷区池尻2-3-45優っくり村池尻", "url2": "https://www.kaigokensaku.mhlw.go.jp/13/index.php?action_kouhyou_detail_004_kani=true&JigyosyoCd=1391200365-00&ServiceCd=730&Type=search" }, "geometry": { "type": "Point", "coordinates": [ 139.684052800000018, 35.6471757 ] } },
{ "type": "Feature", "properties": { "内容": "小規模多機能ホームみんなんち【小規模多機能型居宅介護】東京都世田谷区千歳台4-2-1", "url2": "https://www.kaigokensaku.mhlw.go.jp/13/index.php?action_kouhyou_detail_004_kani=true&JigyosyoCd=1391200456-00&ServiceCd=730&Type=search" }, "geometry": { "type": "Point", "coordinates": [ 139.614280600000029, 35.6545482 ] } },
{ "type": "Feature", "properties": { "内容": "小規模多機能きらら奥沢【小規模多機能型居宅介護】東京都世田谷区奥沢3-2-17", "url2": "https://www.kaigokensaku.mhlw.go.jp/13/index.php?action_kouhyou_detail_004_kani=true&JigyosyoCd=1391200597-00&ServiceCd=730&Type=search" }, "geometry": { "type": "Point", "coordinates": [ 139.675233, 35.6003173 ] } },
{ "type": "Feature", "properties": { "内容": "小規模多機能型居宅介護　ノテ梅丘【小規模多機能型居宅介護】東京都世田谷区梅丘１丁目2-18", "url2": "https://www.kaigokensaku.mhlw.go.jp/13/index.php?action_kouhyou_detail_004_kani=true&JigyosyoCd=1391201470-00&ServiceCd=730&Type=search" }, "geometry": { "type": "Point", "coordinates": [ 139.6530009, 35.6525995 ] } },
{ "type": "Feature", "properties": { "内容": "小規模多機能型居宅介護事業所砧愛の園【小規模多機能型居宅介護】東京都世田谷区砧3-9-19", "url2": "https://www.kaigokensaku.mhlw.go.jp/13/index.php?action_kouhyou_detail_004_kani=true&JigyosyoCd=1391201579-00&ServiceCd=730&Type=search" }, "geometry": { "type": "Point", "coordinates": [ 139.612556226844816, 35.636184173313765 ] } },
{ "type": "Feature", "properties": { "内容": "愛・小規模多機能等々力【小規模多機能型居宅介護】東京都世田谷区等々力2-8-5フェリーチェ等々力1階", "url2": "https://www.kaigokensaku.mhlw.go.jp/13/index.php?action_kouhyou_detail_004_kani=true&JigyosyoCd=1391200811-00&ServiceCd=730&Type=search" }, "geometry": { "type": "Point", "coordinates": [ 139.647524200000021, 35.60568 ] } },
{ "type": "Feature", "properties": { "内容": "ミモザ代々木【小規模多機能型居宅介護】東京都渋谷区代々木3-54-101階", "url2": "https://www.kaigokensaku.mhlw.go.jp/13/index.php?action_kouhyou_detail_004_kani=true&JigyosyoCd=1391300173-00&ServiceCd=730&Type=search" }, "geometry": { "type": "Point", "coordinates": [ 139.6972364, 35.681662700000011 ] } },
{ "type": "Feature", "properties": { "内容": "小規模多機能ホーム　しらさぎ桜苑【小規模多機能型居宅介護】東京都中野区白鷺1-14-8しらさぎ桜苑", "url2": "https://www.kaigokensaku.mhlw.go.jp/13/index.php?action_kouhyou_detail_004_kani=true&JigyosyoCd=1391400304-00&ServiceCd=730&Type=search" }, "geometry": { "type": "Point", "coordinates": [ 139.6395592, 35.7201608 ] } },
{ "type": "Feature", "properties": { "内容": "ふくろうの家【小規模多機能型居宅介護】東京都中野区沼袋４－２９－３", "url2": "https://www.kaigokensaku.mhlw.go.jp/13/index.php?action_kouhyou_detail_004_kani=true&JigyosyoCd=1391400049-00&ServiceCd=730&Type=search" }, "geometry": { "type": "Point", "coordinates": [ 139.662332200000037, 35.7222637 ] } },
{ "type": "Feature", "properties": { "内容": "小規模多機能ホーム　倶楽部千代田會館【小規模多機能型居宅介護】東京都中野区本町５－１０－４", "url2": "https://www.kaigokensaku.mhlw.go.jp/13/index.php?action_kouhyou_detail_004_kani=true&JigyosyoCd=1391400106-00&ServiceCd=730&Type=search" }, "geometry": { "type": "Point", "coordinates": [ 139.673157700000047, 35.6927699 ] } },
{ "type": "Feature", "properties": { "内容": "愛の家小規模多機能型居宅介護中野上高田【小規模多機能型居宅介護】東京都中野区上高田1丁目2番45号愛の家中野上高田", "url2": "https://www.kaigokensaku.mhlw.go.jp/13/index.php?action_kouhyou_detail_004_kani=true&JigyosyoCd=1391400197-00&ServiceCd=730&Type=search" }, "geometry": { "type": "Point", "coordinates": [ 139.6804411, 35.7098922 ] } },
{ "type": "Feature", "properties": { "内容": "東中野キングス・ガーデン【小規模多機能型居宅介護】東京都中野区東中野4-2-16東中野キングス・ガーデン", "url2": "https://www.kaigokensaku.mhlw.go.jp/13/index.php?action_kouhyou_detail_004_kani=true&JigyosyoCd=1391400338-00&ServiceCd=730&Type=search" }, "geometry": { "type": "Point", "coordinates": [ 139.685277590212962, 35.707053876121641 ] } },
{ "type": "Feature", "properties": { "内容": "小規模多機能ホームえごたの家【小規模多機能型居宅介護】東京都中野区江古田3-3-22", "url2": "https://www.kaigokensaku.mhlw.go.jp/13/index.php?action_kouhyou_detail_004_kani=true&JigyosyoCd=1391400577-00&ServiceCd=730&Type=search" }, "geometry": { "type": "Point", "coordinates": [ 139.669730704893482, 35.727059635371205 ] } },
{ "type": "Feature", "properties": { "内容": "ミモザ久我山【小規模多機能型居宅介護】東京都杉並区宮前4－30－3ミモザ久我山　１階", "url2": "https://www.kaigokensaku.mhlw.go.jp/13/index.php?action_kouhyou_detail_004_kani=true&JigyosyoCd=1391500574-00&ServiceCd=730&Type=search" }, "geometry": { "type": "Point", "coordinates": [ 139.605304651289259, 35.693573029370562 ] } },
{ "type": "Feature", "properties": { "内容": "社会福祉法人サンフレンズ　おあしす上井草小規模多機能ホーム【小規模多機能型居宅介護】東京都杉並区上井草3-33-10", "url2": "https://www.kaigokensaku.mhlw.go.jp/13/index.php?action_kouhyou_detail_004_kani=true&JigyosyoCd=1391501093-00&ServiceCd=730&Type=search" }, "geometry": { "type": "Point", "coordinates": [ 139.603173500000025, 35.7241379 ] } },
{ "type": "Feature", "properties": { "内容": "小規模多機能きらら西荻南【小規模多機能型居宅介護】東京都杉並区西荻南1-2-20小規模多機能きらら西荻南", "url2": "https://www.kaigokensaku.mhlw.go.jp/13/index.php?action_kouhyou_detail_004_kani=true&JigyosyoCd=1391501580-00&ServiceCd=730&Type=search" }, "geometry": { "type": "Point", "coordinates": [ 139.6029804, 35.6965279 ] } },
{ "type": "Feature", "properties": { "内容": "リバービレッジ杉並【小規模多機能型居宅介護】東京都杉並区清水3－3－13", "url2": "https://www.kaigokensaku.mhlw.go.jp/13/index.php?action_kouhyou_detail_004_kani=true&JigyosyoCd=1391501051-00&ServiceCd=730&Type=search" }, "geometry": { "type": "Point", "coordinates": [ 139.619388, 35.7164421 ] } },
{ "type": "Feature", "properties": { "内容": "小規模多機能型居宅介護事業所　ハートフル成田東【小規模多機能型居宅介護】東京都杉並区成田東3丁目26番地6号", "url2": "https://www.kaigokensaku.mhlw.go.jp/13/index.php?action_kouhyou_detail_004_kani=true&JigyosyoCd=1391501168-00&ServiceCd=730&Type=search" }, "geometry": { "type": "Point", "coordinates": [ 139.6368889, 35.6937974 ] } },
{ "type": "Feature", "properties": { "内容": "小規模多機能ホーム方南【小規模多機能型居宅介護】東京都杉並区方南２－６－２８", "url2": "https://www.kaigokensaku.mhlw.go.jp/13/index.php?action_kouhyou_detail_004_kani=true&JigyosyoCd=1391500038-00&ServiceCd=730&Type=search" }, "geometry": { "type": "Point", "coordinates": [ 139.659256599999907, 35.6807681 ] } },
{ "type": "Feature", "properties": { "内容": "せらび杉並【小規模多機能型居宅介護】東京都杉並区上井草2-42-12", "url2": "https://www.kaigokensaku.mhlw.go.jp/13/index.php?action_kouhyou_detail_004_kani=true&JigyosyoCd=1391500293-00&ServiceCd=730&Type=search" }, "geometry": { "type": "Point", "coordinates": [ 139.609489599999961, 35.7245596 ] } },
{ "type": "Feature", "properties": { "内容": "社会福祉法人正吉福祉会　　小規模多機能型居宅介護しもいぐさ正吉苑【小規模多機能型居宅介護】東京都杉並区下井草4-23-11しもいぐさ正吉苑", "url2": "https://www.kaigokensaku.mhlw.go.jp/13/index.php?action_kouhyou_detail_004_kani=true&JigyosyoCd=1391501341-00&ServiceCd=730&Type=search" }, "geometry": { "type": "Point", "coordinates": [ 139.6235333, 35.72157190000005 ] } },
{ "type": "Feature", "properties": { "内容": "上高井戸大地の郷みたけ【小規模多機能型居宅介護】東京都杉並区上高井戸2-12-1", "url2": "https://www.kaigokensaku.mhlw.go.jp/13/index.php?action_kouhyou_detail_004_kani=true&JigyosyoCd=1391500400-00&ServiceCd=730&Type=search" }, "geometry": { "type": "Point", "coordinates": [ 139.608759087835665, 35.677611310265362 ] } },
{ "type": "Feature", "properties": { "内容": "小規模多機能ふくろう宮前【小規模多機能型居宅介護】東京都杉並区宮前２丁目１１−１１", "url2": "https://www.kaigokensaku.mhlw.go.jp/13/index.php?action_kouhyou_detail_004_kani=true&JigyosyoCd=1391500731-00&ServiceCd=730&Type=search" }, "geometry": { "type": "Point", "coordinates": [ 139.610246, 35.6929159 ] } },
{ "type": "Feature", "properties": { "内容": "小規模多機能　こまごめ【小規模多機能型居宅介護】東京都豊島区駒込6-19-6", "url2": "https://www.kaigokensaku.mhlw.go.jp/13/index.php?action_kouhyou_detail_004_kani=true&JigyosyoCd=1391600218-00&ServiceCd=730&Type=search" }, "geometry": { "type": "Point", "coordinates": [ 139.7411169, 35.7399109 ] } },
{ "type": "Feature", "properties": { "内容": "小規模多機能　いけぶくろ【小規模多機能型居宅介護】東京都豊島区池袋3-59-4", "url2": "https://www.kaigokensaku.mhlw.go.jp/13/index.php?action_kouhyou_detail_004_kani=true&JigyosyoCd=1391600101-00&ServiceCd=730&Type=search" }, "geometry": { "type": "Point", "coordinates": [ 139.707844300000033, 35.7355414 ] } },
{ "type": "Feature", "properties": { "内容": "小規模多機能きらら要町【小規模多機能型居宅介護】東京都豊島区千早2-15-14", "url2": "https://www.kaigokensaku.mhlw.go.jp/13/index.php?action_kouhyou_detail_004_kani=true&JigyosyoCd=1391600457-00&ServiceCd=730&Type=search" }, "geometry": { "type": "Point", "coordinates": [ 139.6928126, 35.7324877 ] } },
{ "type": "Feature", "properties": { "内容": "せらび王子【小規模多機能型居宅介護】東京都北区堀船1-23-8", "url2": "https://www.kaigokensaku.mhlw.go.jp/13/index.php?action_kouhyou_detail_004_kani=true&JigyosyoCd=1391700281-00&ServiceCd=730&Type=search" }, "geometry": { "type": "Point", "coordinates": [ 139.743377, 35.7521822 ] } },
{ "type": "Feature", "properties": { "内容": "小規模多機能型居宅介護ここら【小規模多機能型居宅介護】東京都北区志茂３－４５－１７", "url2": "https://www.kaigokensaku.mhlw.go.jp/13/index.php?action_kouhyou_detail_004_kani=true&JigyosyoCd=1391700406-00&ServiceCd=730&Type=search" }, "geometry": { "type": "Point", "coordinates": [ 139.736943099999962, 35.7807536 ] } },
{ "type": "Feature", "properties": { "内容": "アースサポート小規模多機能　豊島五丁目【小規模多機能型居宅介護】東京都北区豊島5丁目4番1号101", "url2": "https://www.kaigokensaku.mhlw.go.jp/13/index.php?action_kouhyou_detail_004_kani=true&JigyosyoCd=1391700562-00&ServiceCd=730&Type=search" }, "geometry": { "type": "Point", "coordinates": [ 139.7513078, 35.7648394 ] } },
{ "type": "Feature", "properties": { "内容": "燦々ほーむ　あらかわ【小規模多機能型居宅介護】東京都荒川区荒川4-9-11", "url2": "https://www.kaigokensaku.mhlw.go.jp/13/index.php?action_kouhyou_detail_004_kani=true&JigyosyoCd=1391800313-00&ServiceCd=730&Type=search" }, "geometry": { "type": "Point", "coordinates": [ 139.777486100000033, 35.7375072 ] } },
{ "type": "Feature", "properties": { "内容": "東日暮里かどころの家【小規模多機能型居宅介護】東京都荒川区東日暮里６－１２－１サンハイツスギウラ１階", "url2": "https://www.kaigokensaku.mhlw.go.jp/13/index.php?action_kouhyou_detail_004_kani=true&JigyosyoCd=1391800099-00&ServiceCd=730&Type=search" }, "geometry": { "type": "Point", "coordinates": [ 139.778048, 35.7298871 ] } },
{ "type": "Feature", "properties": { "内容": "町屋かどころ【小規模多機能型居宅介護】東京都荒川区町屋１－１５－８内藤ビル１F", "url2": "https://www.kaigokensaku.mhlw.go.jp/13/index.php?action_kouhyou_detail_004_kani=true&JigyosyoCd=1391800206-00&ServiceCd=730&Type=search" }, "geometry": { "type": "Point", "coordinates": [ 139.782446299999947, 35.7450039 ] } },
{ "type": "Feature", "properties": { "内容": "ニチイケアセンターあらかわ【小規模多機能型居宅介護】東京都荒川区荒川1－4－14", "url2": "https://www.kaigokensaku.mhlw.go.jp/13/index.php?action_kouhyou_detail_004_kani=true&JigyosyoCd=1391800271-00&ServiceCd=730&Type=search" }, "geometry": { "type": "Point", "coordinates": [ 139.786207699999977, 35.735794 ] } },
{ "type": "Feature", "properties": { "内容": "医療法人財団竹栄会　けんち石浜ガーデン【小規模多機能型居宅介護】東京都荒川区南千住3-22-5けんち石浜ガーデン", "url2": "https://www.kaigokensaku.mhlw.go.jp/13/index.php?action_kouhyou_detail_004_kani=true&JigyosyoCd=1391800404-00&ServiceCd=730&Type=search" }, "geometry": { "type": "Point", "coordinates": [ 139.807096853442289, 35.732156023217726 ] } },
{ "type": "Feature", "properties": { "内容": "本家かどころ【小規模多機能型居宅介護】東京都荒川区東日暮里6-32-11メゾンSKM東日暮里１F", "url2": "https://www.kaigokensaku.mhlw.go.jp/13/index.php?action_kouhyou_detail_004_kani=true&JigyosyoCd=1391800453-00&ServiceCd=730&Type=search" }, "geometry": { "type": "Point", "coordinates": [ 139.775806, 35.7323243 ] } },
{ "type": "Feature", "properties": { "内容": "小規模多機能ホームオアシスケア荒川【小規模多機能型居宅介護】東京都荒川区荒川1丁目13-10", "url2": "https://www.kaigokensaku.mhlw.go.jp/13/index.php?action_kouhyou_detail_004_kani=true&JigyosyoCd=1391800503-00&ServiceCd=730&Type=search" }, "geometry": { "type": "Point", "coordinates": [ 139.786799665606708, 35.7376035258049 ] } },
{ "type": "Feature", "properties": { "内容": "小規模多機能ホーム尾久の原【小規模多機能型居宅介護】東京都荒川区町屋5-10-9", "url2": "https://www.kaigokensaku.mhlw.go.jp/13/index.php?action_kouhyou_detail_004_kani=true&JigyosyoCd=1391800545-00&ServiceCd=730&Type=search" }, "geometry": { "type": "Point", "coordinates": [ 139.778365400000013, 35.7514607 ] } },
{ "type": "Feature", "properties": { "内容": "イーライフ町屋【小規模多機能型居宅介護】東京都荒川区荒川6-65-1", "url2": "https://www.kaigokensaku.mhlw.go.jp/13/index.php?action_kouhyou_detail_004_kani=true&JigyosyoCd=1391800602-00&ServiceCd=730&Type=search" }, "geometry": { "type": "Point", "coordinates": [ 139.776210700000036, 35.7425946 ] } },
{ "type": "Feature", "properties": { "内容": "SOMPOケア徳丸　小規模多機能【小規模多機能型居宅介護】東京都板橋区徳丸2－17－9", "url2": "https://www.kaigokensaku.mhlw.go.jp/13/index.php?action_kouhyou_detail_004_kani=true&JigyosyoCd=1391900766-00&ServiceCd=730&Type=search" }, "geometry": { "type": "Point", "coordinates": [ 139.66148130000002, 35.77267270000003 ] } },
{ "type": "Feature", "properties": { "内容": "デイハウスむかいはら【小規模多機能型居宅介護】東京都板橋区向原3丁目7-7", "url2": "https://www.kaigokensaku.mhlw.go.jp/13/index.php?action_kouhyou_detail_004_kani=true&JigyosyoCd=1391900402-00&ServiceCd=730&Type=search" }, "geometry": { "type": "Point", "coordinates": [ 139.684336120095253, 35.746508898164599 ] } },
{ "type": "Feature", "properties": { "内容": "小規模多機能ホームゆりの花坂下【小規模多機能型居宅介護】東京都板橋区坂下２－２７－１１", "url2": "https://www.kaigokensaku.mhlw.go.jp/13/index.php?action_kouhyou_detail_004_kani=true&JigyosyoCd=1391900261-00&ServiceCd=730&Type=search" }, "geometry": { "type": "Point", "coordinates": [ 139.685753100000056, 35.784046 ] } },
{ "type": "Feature", "properties": { "内容": "愛の家小規模多機能型居宅介護　板橋高島平【小規模多機能型居宅介護】東京都板橋区高島平4-13-15", "url2": "https://www.kaigokensaku.mhlw.go.jp/13/index.php?action_kouhyou_detail_004_kani=true&JigyosyoCd=1391900386-00&ServiceCd=730&Type=search" }, "geometry": { "type": "Point", "coordinates": [ 139.65141004973745, 35.786710983927065 ] } },
{ "type": "Feature", "properties": { "内容": "小規模多機能ホームたかしまだいら【小規模多機能型居宅介護】東京都板橋区高島平5-31-8あたごの杜高島平", "url2": "https://www.kaigokensaku.mhlw.go.jp/13/index.php?action_kouhyou_detail_004_kani=true&JigyosyoCd=1391900501-00&ServiceCd=730&Type=search" }, "geometry": { "type": "Point", "coordinates": [ 139.646344097731003, 35.787402972512098 ] } },
{ "type": "Feature", "properties": { "内容": "小規模多機能居宅介護　宮乃や【小規模多機能型居宅介護】東京都板橋区宮本町48-11岡田ビル", "url2": "https://www.kaigokensaku.mhlw.go.jp/13/index.php?action_kouhyou_detail_004_kani=true&JigyosyoCd=1391900626-00&ServiceCd=730&Type=search" }, "geometry": { "type": "Point", "coordinates": [ 139.701196799999906, 35.7639409 ] } },
{ "type": "Feature", "properties": { "内容": "愛の家小規模多機能型居宅介護板橋小茂根【小規模多機能型居宅介護】東京都板橋区小茂根4-20-6", "url2": "https://www.kaigokensaku.mhlw.go.jp/13/index.php?action_kouhyou_detail_004_kani=true&JigyosyoCd=1391900675-00&ServiceCd=730&Type=search" }, "geometry": { "type": "Point", "coordinates": [ 139.6738703, 35.7481131 ] } },
{ "type": "Feature", "properties": { "内容": "マインドファミリアーレ四葉（小規模多機能型居宅介護）【小規模多機能型居宅介護】東京都板橋区四葉二丁目23番3号", "url2": "https://www.kaigokensaku.mhlw.go.jp/13/index.php?action_kouhyou_detail_004_kani=true&JigyosyoCd=1391900923-00&ServiceCd=730&Type=search" }, "geometry": { "type": "Point", "coordinates": [ 139.6514779, 35.7831539 ] } },
{ "type": "Feature", "properties": { "内容": "優っくり小規模多機能介護板橋栄町【小規模多機能型居宅介護】東京都板橋区栄町35番10号", "url2": "https://www.kaigokensaku.mhlw.go.jp/13/index.php?action_kouhyou_detail_004_kani=true&JigyosyoCd=1391901103-00&ServiceCd=730&Type=search" }, "geometry": { "type": "Point", "coordinates": [ 139.7018272, 35.7506565 ] } },
{ "type": "Feature", "properties": { "内容": "小規模多機能型居宅介護事業所スリール板橋志村【小規模多機能型居宅介護】東京都板橋区志村1-28-10", "url2": "https://www.kaigokensaku.mhlw.go.jp/13/index.php?action_kouhyou_detail_004_kani=true&JigyosyoCd=1391901129-00&ServiceCd=730&Type=search" }, "geometry": { "type": "Point", "coordinates": [ 139.688066600000013, 35.7743234 ] } },
{ "type": "Feature", "properties": { "内容": "愛・コミュニティホーム板橋ときわ台【小規模多機能型居宅介護】東京都板橋区南常盤台1-20-14", "url2": "https://www.kaigokensaku.mhlw.go.jp/13/index.php?action_kouhyou_detail_004_kani=true&JigyosyoCd=1391900352-00&ServiceCd=730&Type=search" }, "geometry": { "type": "Point", "coordinates": [ 139.689778228836076, 35.756730840239435 ] } },
{ "type": "Feature", "properties": { "内容": "医療法人社団平真会小規模多機能ホーム薬師堂　ふじみ【小規模多機能型居宅介護】東京都練馬区富士見台4-4-18薬師堂ビル１階", "url2": "https://www.kaigokensaku.mhlw.go.jp/13/index.php?action_kouhyou_detail_004_kani=true&JigyosyoCd=1392000301-00&ServiceCd=730&Type=search" }, "geometry": { "type": "Point", "coordinates": [ 139.625484700000015, 35.7423135 ] } },
{ "type": "Feature", "properties": { "内容": "小規模多機能しゃくじいの庭【小規模多機能型居宅介護】東京都練馬区上石神井2－20－13", "url2": "https://www.kaigokensaku.mhlw.go.jp/13/index.php?action_kouhyou_detail_004_kani=true&JigyosyoCd=1392000707-00&ServiceCd=730&Type=search" }, "geometry": { "type": "Point", "coordinates": [ 139.5944189, 35.7285533 ] } },
{ "type": "Feature", "properties": { "内容": "ニチイケアセンター練馬さくら台【小規模多機能型居宅介護】東京都練馬区桜台二丁目28番5号", "url2": "https://www.kaigokensaku.mhlw.go.jp/13/index.php?action_kouhyou_detail_004_kani=true&JigyosyoCd=1392000616-00&ServiceCd=730&Type=search" }, "geometry": { "type": "Point", "coordinates": [ 139.665115237745681, 35.74458879742609 ] } },
{ "type": "Feature", "properties": { "内容": "医療法人社団平真会　小規模多機能ホーム薬師堂【小規模多機能型居宅介護】東京都練馬区向山1-14-16１F", "url2": "https://www.kaigokensaku.mhlw.go.jp/13/index.php?action_kouhyou_detail_004_kani=true&JigyosyoCd=1392000137-00&ServiceCd=730&Type=search" }, "geometry": { "type": "Point", "coordinates": [ 139.639950125794996, 35.737394398651837 ] } },
{ "type": "Feature", "properties": { "内容": "大泉学園やまぼうし【小規模多機能型居宅介護】東京都練馬区大泉学園町7-19-7ケアヴィレッジ", "url2": "https://www.kaigokensaku.mhlw.go.jp/13/index.php?action_kouhyou_detail_004_kani=true&JigyosyoCd=1392000152-00&ServiceCd=730&Type=search" }, "geometry": { "type": "Point", "coordinates": [ 139.589382036106826, 35.774681070639993 ] } },
{ "type": "Feature", "properties": { "内容": "小規模多機能型居宅介護　たがらの家【小規模多機能型居宅介護】東京都練馬区田柄4-10-25", "url2": "https://www.kaigokensaku.mhlw.go.jp/13/index.php?action_kouhyou_detail_004_kani=true&JigyosyoCd=1392000210-00&ServiceCd=730&Type=search" }, "geometry": { "type": "Point", "coordinates": [ 139.638506799999988, 35.7628017 ] } },
{ "type": "Feature", "properties": { "内容": "せらび練馬【小規模多機能型居宅介護】東京都練馬区北町2-15-10せらび練馬", "url2": "https://www.kaigokensaku.mhlw.go.jp/13/index.php?action_kouhyou_detail_004_kani=true&JigyosyoCd=1392000285-00&ServiceCd=730&Type=search" }, "geometry": { "type": "Point", "coordinates": [ 139.66348450000001, 35.7661138 ] } },
{ "type": "Feature", "properties": { "内容": "小規模多機能型居宅介護　ルミエール光が丘【小規模多機能型居宅介護】東京都練馬区田柄５－２６－３", "url2": "https://www.kaigokensaku.mhlw.go.jp/13/index.php?action_kouhyou_detail_004_kani=true&JigyosyoCd=1392000350-00&ServiceCd=730&Type=search" }, "geometry": { "type": "Point", "coordinates": [ 139.633049799999981, 35.759445 ] } },
{ "type": "Feature", "properties": { "内容": "セントケア下石神井【小規模多機能型居宅介護】東京都練馬区下石神井2-8-13", "url2": "https://www.kaigokensaku.mhlw.go.jp/13/index.php?action_kouhyou_detail_004_kani=true&JigyosyoCd=1392000426-00&ServiceCd=730&Type=search" }, "geometry": { "type": "Point", "coordinates": [ 139.608828300000027, 35.7312116 ] } },
{ "type": "Feature", "properties": { "内容": "ニチイケアセンター大泉学園【小規模多機能型居宅介護】東京都練馬区大泉学園町5-35-1", "url2": "https://www.kaigokensaku.mhlw.go.jp/13/index.php?action_kouhyou_detail_004_kani=true&JigyosyoCd=1392000459-00&ServiceCd=730&Type=search" }, "geometry": { "type": "Point", "coordinates": [ 139.577732500000025, 35.7658204 ] } },
{ "type": "Feature", "properties": { "内容": "愛の家小規模多機能型居宅介護練馬西大泉【小規模多機能型居宅介護】東京都練馬区西大泉2-17-20", "url2": "https://www.kaigokensaku.mhlw.go.jp/13/index.php?action_kouhyou_detail_004_kani=true&JigyosyoCd=1392000491-00&ServiceCd=730&Type=search" }, "geometry": { "type": "Point", "coordinates": [ 139.573774599999979, 35.7595488 ] } },
{ "type": "Feature", "properties": { "内容": "優っくり小規模多機能介護石神井台沼辺【小規模多機能型居宅介護】東京都練馬区石神井台2-7-5", "url2": "https://www.kaigokensaku.mhlw.go.jp/13/index.php?action_kouhyou_detail_004_kani=true&JigyosyoCd=1392000509-00&ServiceCd=730&Type=search" }, "geometry": { "type": "Point", "coordinates": [ 139.591388100000017, 35.734619 ] } },
{ "type": "Feature", "properties": { "内容": "エスケアライフ練馬【小規模多機能型居宅介護】東京都練馬区大泉町二丁目４１番２号", "url2": "https://www.kaigokensaku.mhlw.go.jp/13/index.php?action_kouhyou_detail_004_kani=true&JigyosyoCd=1392000582-00&ServiceCd=730&Type=search" }, "geometry": { "type": "Point", "coordinates": [ 139.603635700000041, 35.7645907 ] } },
{ "type": "Feature", "properties": { "内容": "小規模多機能サービスよりみちの家【小規模多機能型居宅介護】東京都足立区柳原1-29-16", "url2": "https://www.kaigokensaku.mhlw.go.jp/13/index.php?action_kouhyou_detail_004_kani=true&JigyosyoCd=1392100119-00&ServiceCd=730&Type=search" }, "geometry": { "type": "Point", "coordinates": [ 139.812133099999983, 35.745288 ] } },
{ "type": "Feature", "properties": { "内容": "小規模多機能居宅介護ほほえみのいえ【小規模多機能型居宅介護】東京都足立区伊興１－６－２２", "url2": "https://www.kaigokensaku.mhlw.go.jp/13/index.php?action_kouhyou_detail_004_kani=true&JigyosyoCd=1392100192-00&ServiceCd=730&Type=search" }, "geometry": { "type": "Point", "coordinates": [ 139.783624700000018, 35.7896264 ] } },
{ "type": "Feature", "properties": { "内容": "小規模多機能型居宅介護ともの家【小規模多機能型居宅介護】東京都足立区花畑1-23-13第2けあともビル", "url2": "https://www.kaigokensaku.mhlw.go.jp/13/index.php?action_kouhyou_detail_004_kani=true&JigyosyoCd=1392100135-00&ServiceCd=730&Type=search" }, "geometry": { "type": "Point", "coordinates": [ 139.813980634820382, 35.800177749405215 ] } },
{ "type": "Feature", "properties": { "内容": "小規模多機能ホーム　スマイルぷらちな【小規模多機能型居宅介護】東京都足立区綾瀬7-4-5", "url2": "https://www.kaigokensaku.mhlw.go.jp/13/index.php?action_kouhyou_detail_004_kani=true&JigyosyoCd=1392100200-00&ServiceCd=730&Type=search" }, "geometry": { "type": "Point", "coordinates": [ 139.825857499999984, 35.7746424 ] } },
{ "type": "Feature", "properties": { "内容": "ミモザ千住桜木【小規模多機能型居宅介護】東京都足立区千住桜木2-14-10", "url2": "https://www.kaigokensaku.mhlw.go.jp/13/index.php?action_kouhyou_detail_004_kani=true&JigyosyoCd=1392100309-00&ServiceCd=730&Type=search" }, "geometry": { "type": "Point", "coordinates": [ 139.788350700000024, 35.7557585 ] } },
{ "type": "Feature", "properties": { "内容": "小規模多機能居宅介護　じゃすみん扇【小規模多機能型居宅介護】東京都足立区扇１－３１－３２じゃすみん扇", "url2": "https://www.kaigokensaku.mhlw.go.jp/13/index.php?action_kouhyou_detail_004_kani=true&JigyosyoCd=1392100366-00&ServiceCd=730&Type=search" }, "geometry": { "type": "Point", "coordinates": [ 139.774565400000029, 35.7640487 ] } },
{ "type": "Feature", "properties": { "内容": "小規模多機能型居宅介護　「あおいの家」【小規模多機能型居宅介護】東京都足立区青井2－16－8けあともビル1階", "url2": "https://www.kaigokensaku.mhlw.go.jp/13/index.php?action_kouhyou_detail_004_kani=true&JigyosyoCd=1392100382-00&ServiceCd=730&Type=search" }, "geometry": { "type": "Point", "coordinates": [ 139.812089300000025, 35.7720732 ] } },
{ "type": "Feature", "properties": { "内容": "小規模多機能型居宅介護　じゃすみん花畑【小規模多機能型居宅介護】東京都足立区花畑３－５－１７", "url2": "https://www.kaigokensaku.mhlw.go.jp/13/index.php?action_kouhyou_detail_004_kani=true&JigyosyoCd=1392100556-00&ServiceCd=730&Type=search" }, "geometry": { "type": "Point", "coordinates": [ 139.813196699999907, 35.8016057 ] } },
{ "type": "Feature", "properties": { "内容": "コンフォートエルバ綾瀬【小規模多機能型居宅介護】東京都足立区綾瀬2-14-14", "url2": "https://www.kaigokensaku.mhlw.go.jp/13/index.php?action_kouhyou_detail_004_kani=true&JigyosyoCd=1392100572-00&ServiceCd=730&Type=search" }, "geometry": { "type": "Point", "coordinates": [ 139.828860053589324, 35.75969317297848 ] } },
{ "type": "Feature", "properties": { "内容": "小規模多機能ホームしまなみ【小規模多機能型居宅介護】東京都足立区椿2-22-2", "url2": "https://www.kaigokensaku.mhlw.go.jp/13/index.php?action_kouhyou_detail_004_kani=true&JigyosyoCd=1392100580-00&ServiceCd=730&Type=search" }, "geometry": { "type": "Point", "coordinates": [ 139.761424199999965, 35.7795185 ] } },
{ "type": "Feature", "properties": { "内容": "ミモザ足立六木【小規模多機能型居宅介護】東京都足立区六木4-8-25", "url2": "https://www.kaigokensaku.mhlw.go.jp/13/index.php?action_kouhyou_detail_004_kani=true&JigyosyoCd=1392100861-00&ServiceCd=730&Type=search" }, "geometry": { "type": "Point", "coordinates": [ 139.838247700000011, 35.7977813 ] } },
{ "type": "Feature", "properties": { "内容": "じゃすみん鹿浜【小規模多機能型居宅介護】東京都足立区鹿浜３丁目１７－２３", "url2": "https://www.kaigokensaku.mhlw.go.jp/13/index.php?action_kouhyou_detail_004_kani=true&JigyosyoCd=1392100101-00&ServiceCd=730&Type=search" }, "geometry": { "type": "Point", "coordinates": [ 139.753641600000037, 35.7811568 ] } },
{ "type": "Feature", "properties": { "内容": "ピカソ【小規模多機能型居宅介護】東京都葛飾区奥戸7-16-15小規模多機能居宅介護", "url2": "https://www.kaigokensaku.mhlw.go.jp/13/index.php?action_kouhyou_detail_004_kani=true&JigyosyoCd=1392200364-00&ServiceCd=730&Type=search" }, "geometry": { "type": "Point", "coordinates": [ 139.8634528, 35.7374999 ] } },
{ "type": "Feature", "properties": { "内容": "紋どころ【小規模多機能型居宅介護】東京都葛飾区新宿1-23-12", "url2": "https://www.kaigokensaku.mhlw.go.jp/13/index.php?action_kouhyou_detail_004_kani=true&JigyosyoCd=1392200174-00&ServiceCd=730&Type=search" }, "geometry": { "type": "Point", "coordinates": [ 139.861066, 35.7607964 ] } },
{ "type": "Feature", "properties": { "内容": "人情柴又【小規模多機能型居宅介護】東京都葛飾区柴又５－３０－１０", "url2": "https://www.kaigokensaku.mhlw.go.jp/13/index.php?action_kouhyou_detail_004_kani=true&JigyosyoCd=1392200240-00&ServiceCd=730&Type=search" }, "geometry": { "type": "Point", "coordinates": [ 139.88244009999994, 35.7523623 ] } },
{ "type": "Feature", "properties": { "内容": "セントケアお花茶屋【小規模多機能型居宅介護】東京都葛飾区宝町二丁目11番18号", "url2": "https://www.kaigokensaku.mhlw.go.jp/13/index.php?action_kouhyou_detail_004_kani=true&JigyosyoCd=1392200299-00&ServiceCd=730&Type=search" }, "geometry": { "type": "Point", "coordinates": [ 139.8356281, 35.7454494 ] } },
{ "type": "Feature", "properties": { "内容": "コンフォートエルバ堀切【小規模多機能型居宅介護】東京都葛飾区堀切7-17-10", "url2": "https://www.kaigokensaku.mhlw.go.jp/13/index.php?action_kouhyou_detail_004_kani=true&JigyosyoCd=1392200687-00&ServiceCd=730&Type=search" }, "geometry": { "type": "Point", "coordinates": [ 139.834728282942251, 35.755767218946559 ] } },
{ "type": "Feature", "properties": { "内容": "コンフォートエルバ北小岩【小規模多機能型居宅介護】東京都江戸川区北小岩７－２８－２２", "url2": "https://www.kaigokensaku.mhlw.go.jp/13/index.php?action_kouhyou_detail_004_kani=true&JigyosyoCd=1392301311-00&ServiceCd=730&Type=search" }, "geometry": { "type": "Point", "coordinates": [ 139.891852300000011, 35.7443436 ] } },
{ "type": "Feature", "properties": { "内容": "せらび篠崎【小規模多機能型居宅介護】東京都江戸川区東篠崎　1-5-2", "url2": "https://www.kaigokensaku.mhlw.go.jp/13/index.php?action_kouhyou_detail_004_kani=true&JigyosyoCd=1392300354-00&ServiceCd=730&Type=search" }, "geometry": { "type": "Point", "coordinates": [ 139.91620080000007, 35.6962849 ] } },
{ "type": "Feature", "properties": { "内容": "フォービスライフ　小規模多機能型居宅介護　英【小規模多機能型居宅介護】東京都江戸川区松江2-29-18", "url2": "https://www.kaigokensaku.mhlw.go.jp/13/index.php?action_kouhyou_detail_004_kani=true&JigyosyoCd=1392300065-00&ServiceCd=730&Type=search" }, "geometry": { "type": "Point", "coordinates": [ 139.874090099999989, 35.7013523 ] } },
{ "type": "Feature", "properties": { "内容": "ケア・ヴィレッジ東京【小規模多機能型居宅介護】東京都江戸川区鹿骨3-18-8", "url2": "https://www.kaigokensaku.mhlw.go.jp/13/index.php?action_kouhyou_detail_004_kani=true&JigyosyoCd=1392300339-00&ServiceCd=730&Type=search" }, "geometry": { "type": "Point", "coordinates": [ 139.8919905, 35.7161093 ] } },
{ "type": "Feature", "properties": { "内容": "小規模多機能ホーム　あひるクラブ【小規模多機能型居宅介護】東京都江戸川区瑞江1-25-1", "url2": "https://www.kaigokensaku.mhlw.go.jp/13/index.php?action_kouhyou_detail_004_kani=true&JigyosyoCd=1392300115-00&ServiceCd=730&Type=search" }, "geometry": { "type": "Point", "coordinates": [ 139.896604700000012, 35.6996174 ] } },
{ "type": "Feature", "properties": { "内容": "小規模多機能きらら北小岩【小規模多機能型居宅介護】東京都江戸川区北小岩4-40-13", "url2": "https://www.kaigokensaku.mhlw.go.jp/13/index.php?action_kouhyou_detail_004_kani=true&JigyosyoCd=1392300149-00&ServiceCd=730&Type=search" }, "geometry": { "type": "Point", "coordinates": [ 139.895861700000069, 35.7425942 ] } },
{ "type": "Feature", "properties": { "内容": "小規模多機能サービス葛西みなみ【小規模多機能型居宅介護】東京都江戸川区南葛西2-12-1かさい保健医療福祉ビル３階", "url2": "https://www.kaigokensaku.mhlw.go.jp/13/index.php?action_kouhyou_detail_004_kani=true&JigyosyoCd=1392300370-00&ServiceCd=730&Type=search" }, "geometry": { "type": "Point", "coordinates": [ 139.874650200000019, 35.6521745 ] } },
{ "type": "Feature", "properties": { "内容": "小規模多機能　きらら船堀駅前【小規模多機能型居宅介護】東京都江戸川区船堀4丁目8番10号", "url2": "https://www.kaigokensaku.mhlw.go.jp/13/index.php?action_kouhyou_detail_004_kani=true&JigyosyoCd=1392300388-00&ServiceCd=730&Type=search" }, "geometry": { "type": "Point", "coordinates": [ 139.866846, 35.682919 ] } },
{ "type": "Feature", "properties": { "内容": "ラックの空平井【小規模多機能型居宅介護】東京都江戸川区平井6－76－11ラック平井", "url2": "https://www.kaigokensaku.mhlw.go.jp/13/index.php?action_kouhyou_detail_004_kani=true&JigyosyoCd=1392300420-00&ServiceCd=730&Type=search" }, "geometry": { "type": "Point", "coordinates": [ 139.842878123942569, 35.714575144421296 ] } },
{ "type": "Feature", "properties": { "内容": "小規模多機能型居宅介護　こなつ【小規模多機能型居宅介護】東京都江戸川区鹿骨1－11－7小規模多機能型居宅介護　こなつ", "url2": "https://www.kaigokensaku.mhlw.go.jp/13/index.php?action_kouhyou_detail_004_kani=true&JigyosyoCd=1392300453-00&ServiceCd=730&Type=search" }, "geometry": { "type": "Point", "coordinates": [ 139.8853107, 35.7082381 ] } },
{ "type": "Feature", "properties": { "内容": "あおぞらの家【小規模多機能型居宅介護】東京都江戸川区江戸川６－３１－９１", "url2": "https://www.kaigokensaku.mhlw.go.jp/13/index.php?action_kouhyou_detail_004_kani=true&JigyosyoCd=1392300495-00&ServiceCd=730&Type=search" }, "geometry": { "type": "Point", "coordinates": [ 139.873001858197057, 35.674959714138936 ] } },
{ "type": "Feature", "properties": { "内容": "小規模多機能きらら清新町【小規模多機能型居宅介護】東京都江戸川区清新町2-2-36", "url2": "https://www.kaigokensaku.mhlw.go.jp/13/index.php?action_kouhyou_detail_004_kani=true&JigyosyoCd=1392300750-00&ServiceCd=730&Type=search" }, "geometry": { "type": "Point", "coordinates": [ 139.85458, 35.6560465 ] } },
{ "type": "Feature", "properties": { "内容": "ヒューマンライフケア江戸川の宿【小規模多機能型居宅介護】東京都江戸川区江戸川5-23-83", "url2": "https://www.kaigokensaku.mhlw.go.jp/13/index.php?action_kouhyou_detail_004_kani=true&JigyosyoCd=1392301030-00&ServiceCd=730&Type=search" }, "geometry": { "type": "Point", "coordinates": [ 139.882629895106476, 35.674123273531634 ] } },
{ "type": "Feature", "properties": { "内容": "エクセレント江戸川【小規模多機能型居宅介護】東京都江戸川区大杉5ｰ32ｰ18エクセレント江戸川", "url2": "https://www.kaigokensaku.mhlw.go.jp/13/index.php?action_kouhyou_detail_004_kani=true&JigyosyoCd=1392301196-00&ServiceCd=730&Type=search" }, "geometry": { "type": "Point", "coordinates": [ 139.879027799999989, 35.7109936 ] } },
{ "type": "Feature", "properties": { "内容": "パレード八王子【小規模多機能型居宅介護】東京都八王子市大横5-9", "url2": "https://www.kaigokensaku.mhlw.go.jp/13/index.php?action_kouhyou_detail_004_kani=true&JigyosyoCd=1392900849-00&ServiceCd=730&Type=search" }, "geometry": { "type": "Point", "coordinates": [ 139.329962600000044, 35.664686 ] } },
{ "type": "Feature", "properties": { "内容": "幸せふくろう八王子左入町【小規模多機能型居宅介護】東京都八王子市左入町124番地1", "url2": "https://www.kaigokensaku.mhlw.go.jp/13/index.php?action_kouhyou_detail_004_kani=true&JigyosyoCd=1392901136-00&ServiceCd=730&Type=search" }, "geometry": { "type": "Point", "coordinates": [ 139.343383, 35.6810263 ] } },
{ "type": "Feature", "properties": { "内容": "小規模多機能型居宅介護　風のアルバム【小規模多機能型居宅介護】東京都八王子市西寺方町25番地2", "url2": "https://www.kaigokensaku.mhlw.go.jp/13/index.php?action_kouhyou_detail_004_kani=true&JigyosyoCd=1392900351-00&ServiceCd=730&Type=search" }, "geometry": { "type": "Point", "coordinates": [ 139.2623039, 35.6729933 ] } },
{ "type": "Feature", "properties": { "内容": "丘の上倶楽部【小規模多機能型居宅介護】東京都八王子市七国４丁目４－１７", "url2": "https://www.kaigokensaku.mhlw.go.jp/13/index.php?action_kouhyou_detail_004_kani=true&JigyosyoCd=1392900070-00&ServiceCd=730&Type=search" }, "geometry": { "type": "Point", "coordinates": [ 139.316562800000042, 35.6235177 ] } },
{ "type": "Feature", "properties": { "内容": "カーロガーデン桜【小規模多機能型居宅介護】東京都八王子市大塚415-3", "url2": "https://www.kaigokensaku.mhlw.go.jp/13/index.php?action_kouhyou_detail_004_kani=true&JigyosyoCd=1392900096-00&ServiceCd=730&Type=search" }, "geometry": { "type": "Point", "coordinates": [ 139.420203500000071, 35.6398308 ] } },
{ "type": "Feature", "properties": { "内容": "小規模多機能　快杜【小規模多機能型居宅介護】東京都八王子市元八王子町２－１１６２－１", "url2": "https://www.kaigokensaku.mhlw.go.jp/13/index.php?action_kouhyou_detail_004_kani=true&JigyosyoCd=1392900104-00&ServiceCd=730&Type=search" }, "geometry": { "type": "Point", "coordinates": [ 139.283036600000059, 35.6592535 ] } },
{ "type": "Feature", "properties": { "内容": "ケアセンター桜並木【小規模多機能型居宅介護】東京都八王子市元八王子町2-1299-1ケアセンター桜並木　１階", "url2": "https://www.kaigokensaku.mhlw.go.jp/13/index.php?action_kouhyou_detail_004_kani=true&JigyosyoCd=1392900443-00&ServiceCd=730&Type=search" }, "geometry": { "type": "Point", "coordinates": [ 139.2821338, 35.6626779 ] } },
{ "type": "Feature", "properties": { "内容": "丘の上倶楽部　片倉【小規模多機能型居宅介護】東京都八王子市片倉町1151番地2", "url2": "https://www.kaigokensaku.mhlw.go.jp/13/index.php?action_kouhyou_detail_004_kani=true&JigyosyoCd=1392900690-00&ServiceCd=730&Type=search" }, "geometry": { "type": "Point", "coordinates": [ 139.340882170669602, 35.638000902157998 ] } },
{ "type": "Feature", "properties": { "内容": "ニチイケアセンター八王子館町ニチイのやわらぎ【小規模多機能型居宅介護】東京都八王子市館町１０１", "url2": "https://www.kaigokensaku.mhlw.go.jp/13/index.php?action_kouhyou_detail_004_kani=true&JigyosyoCd=1392900229-00&ServiceCd=730&Type=search" }, "geometry": { "type": "Point", "coordinates": [ 139.302621700000032, 35.634088 ] } },
{ "type": "Feature", "properties": { "内容": "ヒューマンライフケア八王子の宿【小規模多機能型居宅介護】東京都八王子市山田町1606-11", "url2": "https://www.kaigokensaku.mhlw.go.jp/13/index.php?action_kouhyou_detail_004_kani=true&JigyosyoCd=1392900377-00&ServiceCd=730&Type=search" }, "geometry": { "type": "Point", "coordinates": [ 139.318536499999936, 35.6482917 ] } },
{ "type": "Feature", "properties": { "内容": "ニチイケアセンター八王子さんだ【小規模多機能型居宅介護】東京都八王子市東浅川町509-7", "url2": "https://www.kaigokensaku.mhlw.go.jp/13/index.php?action_kouhyou_detail_004_kani=true&JigyosyoCd=1392900393-00&ServiceCd=730&Type=search" }, "geometry": { "type": "Point", "coordinates": [ 139.298674687766265, 35.645336962448418 ] } },
{ "type": "Feature", "properties": { "内容": "ゆいま〜る館ヶ丘　小規模多機能ゆらリズム【小規模多機能型居宅介護】東京都八王子市館町1097館ヶ丘団地２−５−１０３、１０４", "url2": "https://www.kaigokensaku.mhlw.go.jp/13/index.php?action_kouhyou_detail_004_kani=true&JigyosyoCd=1392900468-00&ServiceCd=730&Type=search" }, "geometry": { "type": "Point", "coordinates": [ 139.28752350000002, 35.6270643 ] } },
{ "type": "Feature", "properties": { "内容": "サテライト　悠杜【小規模多機能型居宅介護】東京都八王子市楢原町854", "url2": "https://www.kaigokensaku.mhlw.go.jp/13/index.php?action_kouhyou_detail_004_kani=true&JigyosyoCd=1392900476-00&ServiceCd=730&Type=search" }, "geometry": { "type": "Point", "coordinates": [ 139.306783699999983, 35.6846813 ] } },
{ "type": "Feature", "properties": { "内容": "パナソニックエイジフリーケアセンター八王子元横山町・小規模多機能【小規模多機能型居宅介護】東京都八王子市元横山町2-21-6エイジフリーハウス八王子元横山町", "url2": "https://www.kaigokensaku.mhlw.go.jp/13/index.php?action_kouhyou_detail_004_kani=true&JigyosyoCd=1392900500-00&ServiceCd=730&Type=search" }, "geometry": { "type": "Point", "coordinates": [ 139.333707642327909, 35.66291899893595 ] } },
{ "type": "Feature", "properties": { "内容": "パナソニックエイジフリーケアセンター八王子並木町・小規模多機能【小規模多機能型居宅介護】東京都八王子市並木町23番22号", "url2": "https://www.kaigokensaku.mhlw.go.jp/13/index.php?action_kouhyou_detail_004_kani=true&JigyosyoCd=1392900518-00&ServiceCd=730&Type=search" }, "geometry": { "type": "Point", "coordinates": [ 139.300503, 35.6524412 ] } },
{ "type": "Feature", "properties": { "内容": "小規模多機能型居宅介護　まめ・まめ【小規模多機能型居宅介護】東京都八王子市犬目町１０３－２４小規模多機能型居宅介護　まめ・まめ", "url2": "https://www.kaigokensaku.mhlw.go.jp/13/index.php?action_kouhyou_detail_004_kani=true&JigyosyoCd=1392900708-00&ServiceCd=730&Type=search" }, "geometry": { "type": "Point", "coordinates": [ 139.309089099999937, 35.683226 ] } },
{ "type": "Feature", "properties": { "内容": "ミモザ下柚木【小規模多機能型居宅介護】東京都八王子市下柚木422-1", "url2": "https://www.kaigokensaku.mhlw.go.jp/13/index.php?action_kouhyou_detail_004_kani=true&JigyosyoCd=1392900997-00&ServiceCd=730&Type=search" }, "geometry": { "type": "Point", "coordinates": [ 139.379277699999989, 35.6296166 ] } },
{ "type": "Feature", "properties": { "内容": "小規模多機能施設さんのう【小規模多機能型居宅介護】東京都八王子市中野山王2丁目26-17", "url2": "https://www.kaigokensaku.mhlw.go.jp/13/index.php?action_kouhyou_detail_004_kani=true&JigyosyoCd=1392901102-00&ServiceCd=730&Type=search" }, "geometry": { "type": "Point", "coordinates": [ 139.325629600000013, 35.6758043 ] } },
{ "type": "Feature", "properties": { "内容": "花織たちかわ【小規模多機能型居宅介護】東京都立川市幸町3-7-10", "url2": "https://www.kaigokensaku.mhlw.go.jp/13/index.php?action_kouhyou_detail_004_kani=true&JigyosyoCd=1393000276-00&ServiceCd=730&Type=search" }, "geometry": { "type": "Point", "coordinates": [ 139.4291288, 35.7192717 ] } },
{ "type": "Feature", "properties": { "内容": "小規模多機能あけぼのさん家　サテライトえがお【小規模多機能型居宅介護】東京都立川市羽衣町1-7-10", "url2": "https://www.kaigokensaku.mhlw.go.jp/13/index.php?action_kouhyou_detail_004_kani=true&JigyosyoCd=1393000458-00&ServiceCd=730&Type=search" }, "geometry": { "type": "Point", "coordinates": [ 139.4255019, 35.696585 ] } },
{ "type": "Feature", "properties": { "内容": "小規模多機能　ウェルケアひだまり【小規模多機能型居宅介護】東京都立川市上砂町3-36-14高齢者介護施設　ウェルケアひだまり", "url2": "https://www.kaigokensaku.mhlw.go.jp/13/index.php?action_kouhyou_detail_004_kani=true&JigyosyoCd=1393000045-00&ServiceCd=730&Type=search" }, "geometry": { "type": "Point", "coordinates": [ 139.390561100000014, 35.7235958 ] } },
{ "type": "Feature", "properties": { "内容": "小規模多機能あけぼのさん家【小規模多機能型居宅介護】東京都立川市曙町3-5-18", "url2": "https://www.kaigokensaku.mhlw.go.jp/13/index.php?action_kouhyou_detail_004_kani=true&JigyosyoCd=1393000177-00&ServiceCd=730&Type=search" }, "geometry": { "type": "Point", "coordinates": [ 139.421585855819671, 35.699557819524998 ] } },
{ "type": "Feature", "properties": { "内容": "ヒューマンライフケア立川の宿【小規模多機能型居宅介護】東京都立川市錦町3-8-10", "url2": "https://www.kaigokensaku.mhlw.go.jp/13/index.php?action_kouhyou_detail_004_kani=true&JigyosyoCd=1393000219-00&ServiceCd=730&Type=search" }, "geometry": { "type": "Point", "coordinates": [ 139.418510815344234, 35.691569804589115 ] } },
{ "type": "Feature", "properties": { "内容": "有限会社ケアサービスこまつケアホームこまつ【小規模多機能型居宅介護】東京都三鷹市大沢１－２－４１", "url2": "https://www.kaigokensaku.mhlw.go.jp/13/index.php?action_kouhyou_detail_004_kani=true&JigyosyoCd=1393600026-00&ServiceCd=730&Type=search" }, "geometry": { "type": "Point", "coordinates": [ 139.541202699999985, 35.6761078 ] } },
{ "type": "Feature", "properties": { "内容": "セントケア三鷹新川【小規模多機能型居宅介護】東京都三鷹市新川6-4-30", "url2": "https://www.kaigokensaku.mhlw.go.jp/13/index.php?action_kouhyou_detail_004_kani=true&JigyosyoCd=1393600091-00&ServiceCd=730&Type=search" }, "geometry": { "type": "Point", "coordinates": [ 139.569608300000027, 35.682066 ] } },
{ "type": "Feature", "properties": { "内容": "小規模多機能型居宅介護　野ざきの家【小規模多機能型居宅介護】東京都三鷹市野崎2-6-41", "url2": "https://www.kaigokensaku.mhlw.go.jp/13/index.php?action_kouhyou_detail_004_kani=true&JigyosyoCd=1393600117-00&ServiceCd=730&Type=search" }, "geometry": { "type": "Point", "coordinates": [ 139.548599, 35.6835572 ] } },
{ "type": "Feature", "properties": { "内容": "地域ケアサポート館　福わ家・小規模多機能ホーム【小規模多機能型居宅介護】東京都青梅市藤橋　2-614-18", "url2": "https://www.kaigokensaku.mhlw.go.jp/13/index.php?action_kouhyou_detail_004_kani=true&JigyosyoCd=1392800015-00&ServiceCd=730&Type=search" }, "geometry": { "type": "Point", "coordinates": [ 139.301238, 35.7997618 ] } },
{ "type": "Feature", "properties": { "内容": "多機能ケアホームみんなんち【小規模多機能型居宅介護】東京都青梅市天ヶ瀬町952番地", "url2": "https://www.kaigokensaku.mhlw.go.jp/13/index.php?action_kouhyou_detail_004_kani=true&JigyosyoCd=1392800056-00&ServiceCd=730&Type=search" }, "geometry": { "type": "Point", "coordinates": [ 139.246138200000019, 35.7881341 ] } },
{ "type": "Feature", "properties": { "内容": "小規模多機能型居宅介護　なぎの木【小規模多機能型居宅介護】東京都府中市白糸台5-26-7", "url2": "https://www.kaigokensaku.mhlw.go.jp/13/index.php?action_kouhyou_detail_004_kani=true&JigyosyoCd=1393800469-00&ServiceCd=730&Type=search" }, "geometry": { "type": "Point", "coordinates": [ 139.5120468, 35.6618623 ] } },
{ "type": "Feature", "properties": { "内容": "小規模多機能型居宅介護よつや正吉苑【小規模多機能型居宅介護】東京都府中市四谷4-46-8", "url2": "https://www.kaigokensaku.mhlw.go.jp/13/index.php?action_kouhyou_detail_004_kani=true&JigyosyoCd=1393800089-00&ServiceCd=730&Type=search" }, "geometry": { "type": "Point", "coordinates": [ 139.440560857672125, 35.667965571602302 ] } },
{ "type": "Feature", "properties": { "内容": "ケアホームこまつ府中事業所【小規模多機能型居宅介護】東京都府中市西府町３－１２－１１", "url2": "https://www.kaigokensaku.mhlw.go.jp/13/index.php?action_kouhyou_detail_004_kani=true&JigyosyoCd=1393800105-00&ServiceCd=730&Type=search" }, "geometry": { "type": "Point", "coordinates": [ 139.457923899999969, 35.6770774 ] } },
{ "type": "Feature", "properties": { "内容": "パナソニックエイジフリーケアセンター府中栄町・小規模多機能【小規模多機能型居宅介護】東京都府中市栄町３－８－１", "url2": "https://www.kaigokensaku.mhlw.go.jp/13/index.php?action_kouhyou_detail_004_kani=true&JigyosyoCd=1393800311-00&ServiceCd=730&Type=search" }, "geometry": { "type": "Point", "coordinates": [ 139.471204826458717, 35.686081986177719 ] } },
{ "type": "Feature", "properties": { "内容": "セントケア府中新町【小規模多機能型居宅介護】東京都府中市新町1-48-1", "url2": "https://www.kaigokensaku.mhlw.go.jp/13/index.php?action_kouhyou_detail_004_kani=true&JigyosyoCd=1393800402-00&ServiceCd=730&Type=search" }, "geometry": { "type": "Point", "coordinates": [ 139.488492240510169, 35.686682394460767 ] } },
{ "type": "Feature", "properties": { "内容": "昭和郷小規模多機能居宅介護センター【小規模多機能型居宅介護】東京都昭島市中神町１２６０昭和郷高齢者複合施設・昭和郷小規模多機能居宅介護センター", "url2": "https://www.kaigokensaku.mhlw.go.jp/13/index.php?action_kouhyou_detail_004_kani=true&JigyosyoCd=1394000069-00&ServiceCd=730&Type=search" }, "geometry": { "type": "Point", "coordinates": [ 139.382215, 35.7093862 ] } },
{ "type": "Feature", "properties": { "内容": "小規模多機能ケアハウス絆【小規模多機能型居宅介護】東京都調布市若葉町２－２２－２コーポ鈴木２階", "url2": "https://www.kaigokensaku.mhlw.go.jp/13/index.php?action_kouhyou_detail_004_kani=true&JigyosyoCd=1394200040-00&ServiceCd=730&Type=search" }, "geometry": { "type": "Point", "coordinates": [ 139.58858107946773, 35.656086089439754 ] } },
{ "type": "Feature", "properties": { "内容": "小規模多機能型居宅介護　たすけあい小川【小規模多機能型居宅介護】東京都町田市小川３－２－３", "url2": "https://www.kaigokensaku.mhlw.go.jp/13/index.php?action_kouhyou_detail_004_kani=true&JigyosyoCd=1393200116-00&ServiceCd=730&Type=search" }, "geometry": { "type": "Point", "coordinates": [ 139.467739599999959, 35.5250772 ] } },
{ "type": "Feature", "properties": { "内容": "小規模多機能なかまち【小規模多機能型居宅介護】東京都町田市中町1-28-20", "url2": "https://www.kaigokensaku.mhlw.go.jp/13/index.php?action_kouhyou_detail_004_kani=true&JigyosyoCd=1393200157-00&ServiceCd=730&Type=search" }, "geometry": { "type": "Point", "coordinates": [ 139.44723440000007, 35.5497586 ] } },
{ "type": "Feature", "properties": { "内容": "小規模多機能ホーム光の園おおくら【小規模多機能型居宅介護】東京都町田市大蔵町２５７－１", "url2": "https://www.kaigokensaku.mhlw.go.jp/13/index.php?action_kouhyou_detail_004_kani=true&JigyosyoCd=1393200199-00&ServiceCd=730&Type=search" }, "geometry": { "type": "Point", "coordinates": [ 139.469701399999963, 35.5854452 ] } },
{ "type": "Feature", "properties": { "内容": "優っくり小規模多機能介護町田森野【小規模多機能型居宅介護】東京都町田市森野４－７－１３優っくり村　町田森野", "url2": "https://www.kaigokensaku.mhlw.go.jp/13/index.php?action_kouhyou_detail_004_kani=true&JigyosyoCd=1393200322-00&ServiceCd=730&Type=search" }, "geometry": { "type": "Point", "coordinates": [ 139.431946700000026, 35.5551578 ] } },
{ "type": "Feature", "properties": { "内容": "小規模多機能ホーム秋田高城【小規模多機能型居宅介護】東京都町田市根岸2丁目３２番地１６号", "url2": "https://www.kaigokensaku.mhlw.go.jp/13/index.php?action_kouhyou_detail_004_kani=true&JigyosyoCd=1393200561-00&ServiceCd=730&Type=search" }, "geometry": { "type": "Point", "coordinates": [ 139.416079299999979, 35.5739814 ] } },
{ "type": "Feature", "properties": { "内容": "多機能型事業所うてな【小規模多機能型居宅介護】東京都小金井市本町５－３７－８", "url2": "https://www.kaigokensaku.mhlw.go.jp/13/index.php?action_kouhyou_detail_004_kani=true&JigyosyoCd=1394100067-00&ServiceCd=730&Type=search" }, "geometry": { "type": "Point", "coordinates": [ 139.5043329, 35.7043394 ] } },
{ "type": "Feature", "properties": { "内容": "ミアヘルサ　小規模多機能ホーム小金井【小規模多機能型居宅介護】東京都小金井市東町1-45-17ミアヘルサ　きずなホーム小金井内1階", "url2": "https://www.kaigokensaku.mhlw.go.jp/13/index.php?action_kouhyou_detail_004_kani=true&JigyosyoCd=1394100083-00&ServiceCd=730&Type=search" }, "geometry": { "type": "Point", "coordinates": [ 139.53076139999996, 35.6945497 ] } },
{ "type": "Feature", "properties": { "内容": "小規模多機能型居宅介護　プラチナコミュニティ小平【小規模多機能型居宅介護】小平市小川町2-2025小規模多機能型居宅介護　プラチナコミュニティ小平", "url2": "https://www.kaigokensaku.mhlw.go.jp/13/index.php?action_kouhyou_detail_004_kani=true&JigyosyoCd=1394300329-00&ServiceCd=730&Type=search" }, "geometry": { "type": "Point", "coordinates": [ 139.4671979, 35.730418100000016 ] } },
{ "type": "Feature", "properties": { "内容": "健成苑はなこがねい【小規模多機能型居宅介護】東京都小平市花小金井6-20-1健成苑はなこがねい", "url2": "https://www.kaigokensaku.mhlw.go.jp/13/index.php?action_kouhyou_detail_004_kani=true&JigyosyoCd=1394300154-00&ServiceCd=730&Type=search" }, "geometry": { "type": "Point", "coordinates": [ 139.5104308, 35.7302754 ] } },
{ "type": "Feature", "properties": { "内容": "第２こだま小規模多機能サービスやまびこ【小規模多機能型居宅介護】東京都小平市津田町3-27-7", "url2": "https://www.kaigokensaku.mhlw.go.jp/13/index.php?action_kouhyou_detail_004_kani=true&JigyosyoCd=1394300097-00&ServiceCd=730&Type=search" }, "geometry": { "type": "Point", "coordinates": [ 139.468976399999974, 35.7245887 ] } },
{ "type": "Feature", "properties": { "内容": "ニチイケアセンター鷹の台やわらぎ【小規模多機能型居宅介護】東京都小平市小川町1-915-2", "url2": "https://www.kaigokensaku.mhlw.go.jp/13/index.php?action_kouhyou_detail_004_kani=true&JigyosyoCd=1394300113-00&ServiceCd=730&Type=search" }, "geometry": { "type": "Point", "coordinates": [ 139.455175672867199, 35.726704254492198 ] } },
{ "type": "Feature", "properties": { "内容": "愛の家小規模多機能型居宅介護小平上水南【小規模多機能型居宅介護】東京都小平市上水南町2－3－20", "url2": "https://www.kaigokensaku.mhlw.go.jp/13/index.php?action_kouhyou_detail_004_kani=true&JigyosyoCd=1394300170-00&ServiceCd=730&Type=search" }, "geometry": { "type": "Point", "coordinates": [ 139.48488969999994, 35.7125684 ] } },
{ "type": "Feature", "properties": { "内容": "小規模多機能学園通り【小規模多機能型居宅介護】東京都小平市学園東町3-4-13", "url2": "https://www.kaigokensaku.mhlw.go.jp/13/index.php?action_kouhyou_detail_004_kani=true&JigyosyoCd=1394300295-00&ServiceCd=730&Type=search" }, "geometry": { "type": "Point", "coordinates": [ 139.4883782, 35.7227532 ] } },
{ "type": "Feature", "properties": { "内容": "小規模多機能ホーム　みなみだいら【小規模多機能型居宅介護】東京都日野市南平3丁目10‐2", "url2": "https://www.kaigokensaku.mhlw.go.jp/13/index.php?action_kouhyou_detail_004_kani=true&JigyosyoCd=1393500036-00&ServiceCd=730&Type=search" }, "geometry": { "type": "Point", "coordinates": [ 139.403176300000013, 35.6594124 ] } },
{ "type": "Feature", "properties": { "内容": "小規模多機能ホーム日野【小規模多機能型居宅介護】東京都日野市日野１４５１－１シルバービレッジ日野クリニックビル３F", "url2": "https://www.kaigokensaku.mhlw.go.jp/13/index.php?action_kouhyou_detail_004_kani=true&JigyosyoCd=1393500044-00&ServiceCd=730&Type=search" }, "geometry": { "type": "Point", "coordinates": [ 139.408402499999966, 35.6778678 ] } },
{ "type": "Feature", "properties": { "内容": "小規模多機能ホームあすなろ【小規模多機能型居宅介護】東京都日野市百草1042-21", "url2": "https://www.kaigokensaku.mhlw.go.jp/13/index.php?action_kouhyou_detail_004_kani=true&JigyosyoCd=1393500267-00&ServiceCd=730&Type=search" }, "geometry": { "type": "Point", "coordinates": [ 139.424711, 35.647283 ] } },
{ "type": "Feature", "properties": { "内容": "小規模多機能ホーム　さかえまち【小規模多機能型居宅介護】東京都日野市栄町2－17－1都営栄町２丁目アパート２号棟１階", "url2": "https://www.kaigokensaku.mhlw.go.jp/13/index.php?action_kouhyou_detail_004_kani=true&JigyosyoCd=1393500069-00&ServiceCd=730&Type=search" }, "geometry": { "type": "Point", "coordinates": [ 139.39123440000003, 35.6837028 ] } },
{ "type": "Feature", "properties": { "内容": "小規模多機能ぐり～んはぁと【小規模多機能型居宅介護】東京都日野市多摩平3丁目1-6ゆいま～る多摩平の森壱番館1階", "url2": "https://www.kaigokensaku.mhlw.go.jp/13/index.php?action_kouhyou_detail_004_kani=true&JigyosyoCd=1393500085-00&ServiceCd=730&Type=search" }, "geometry": { "type": "Point", "coordinates": [ 139.3773338, 35.664473600000015 ] } },
{ "type": "Feature", "properties": { "内容": "小規模多機能ホーム　梨の園【小規模多機能型居宅介護】東京都東村山市恩多町1-39-1", "url2": "https://www.kaigokensaku.mhlw.go.jp/13/index.php?action_kouhyou_detail_004_kani=true&JigyosyoCd=1392700025-00&ServiceCd=730&Type=search" }, "geometry": { "type": "Point", "coordinates": [ 139.4866154, 35.7528225 ] } },
{ "type": "Feature", "properties": { "内容": "ニチイケアセンター美住【小規模多機能型居宅介護】東京都東村山市美住町2-9-2", "url2": "https://www.kaigokensaku.mhlw.go.jp/13/index.php?action_kouhyou_detail_004_kani=true&JigyosyoCd=1392700058-00&ServiceCd=730&Type=search" }, "geometry": { "type": "Point", "coordinates": [ 139.46510330000001, 35.7578936 ] } },
{ "type": "Feature", "properties": { "内容": "白十字あきつの里【小規模多機能型居宅介護】東京都東村山市秋津町3丁目４１番地６５号", "url2": "https://www.kaigokensaku.mhlw.go.jp/13/index.php?action_kouhyou_detail_004_kani=true&JigyosyoCd=1392700074-00&ServiceCd=730&Type=search" }, "geometry": { "type": "Point", "coordinates": [ 139.482174649737573, 35.775673239950486 ] } },
{ "type": "Feature", "properties": { "内容": "小規模多機能ホームにんじん・西恋ヶ窪【小規模多機能型居宅介護】東京都国分寺市西恋ヶ窪1-50-1", "url2": "https://www.kaigokensaku.mhlw.go.jp/13/index.php?action_kouhyou_detail_004_kani=true&JigyosyoCd=1393100266-00&ServiceCd=730&Type=search" }, "geometry": { "type": "Point", "coordinates": [ 139.467920099999986, 35.705752299999986 ] } },
{ "type": "Feature", "properties": { "内容": "至誠ホームミンナ【小規模多機能型居宅介護】東京都国分寺市並木町3-12-2", "url2": "https://www.kaigokensaku.mhlw.go.jp/13/index.php?action_kouhyou_detail_004_kani=true&JigyosyoCd=1393100068-00&ServiceCd=730&Type=search" }, "geometry": { "type": "Point", "coordinates": [ 139.447142399999962, 35.7144145 ] } },
{ "type": "Feature", "properties": { "内容": "小規模多機能むさし【小規模多機能型居宅介護】東京都国分寺市戸倉4－41－1", "url2": "https://www.kaigokensaku.mhlw.go.jp/13/index.php?action_kouhyou_detail_004_kani=true&JigyosyoCd=1393100159-00&ServiceCd=730&Type=search" }, "geometry": { "type": "Point", "coordinates": [ 139.4569881, 35.7119327 ] } },
{ "type": "Feature", "properties": { "内容": "小規模多機能ホーム国分寺北町【小規模多機能型居宅介護】東京都国分寺市北町一丁目21-1", "url2": "https://www.kaigokensaku.mhlw.go.jp/13/index.php?action_kouhyou_detail_004_kani=true&JigyosyoCd=1393100209-00&ServiceCd=730&Type=search" }, "geometry": { "type": "Point", "coordinates": [ 139.457866299999978, 35.72065 ] } },
{ "type": "Feature", "properties": { "内容": "花織こくぶんじ【小規模多機能型居宅介護】東京都国分寺市新町3-15-6", "url2": "https://www.kaigokensaku.mhlw.go.jp/13/index.php?action_kouhyou_detail_004_kani=true&JigyosyoCd=1393100290-00&ServiceCd=730&Type=search" }, "geometry": { "type": "Point", "coordinates": [ 139.447030899999987, 35.7139003 ] } },
{ "type": "Feature", "properties": { "内容": "小規模多機能施設　ウェルケア国立【小規模多機能型居宅介護】東京都国立市中2-13-57", "url2": "https://www.kaigokensaku.mhlw.go.jp/13/index.php?action_kouhyou_detail_004_kani=true&JigyosyoCd=1393400021-00&ServiceCd=730&Type=search" }, "geometry": { "type": "Point", "coordinates": [ 139.439538, 35.692384 ] } },
{ "type": "Feature", "properties": { "内容": "多機能ケアステーション風の樹【小規模多機能型居宅介護】東京都東大和市中央１－１３－８", "url2": "https://www.kaigokensaku.mhlw.go.jp/13/index.php?action_kouhyou_detail_004_kani=true&JigyosyoCd=1394600058-00&ServiceCd=730&Type=search" }, "geometry": { "type": "Point", "coordinates": [ 139.434434300000021, 35.7441194 ] } },
{ "type": "Feature", "properties": { "内容": "せらび東久留米【小規模多機能型居宅介護】東京都東久留米市上の原1-3-44", "url2": "https://www.kaigokensaku.mhlw.go.jp/13/index.php?action_kouhyou_detail_004_kani=true&JigyosyoCd=1394800047-00&ServiceCd=730&Type=search" }, "geometry": { "type": "Point", "coordinates": [ 139.541977793254091, 35.769819488092125 ] } },
{ "type": "Feature", "properties": { "内容": "小規模多機能型居宅介護事業所ゆいまぁるはちまん【小規模多機能型居宅介護】東京都東久留米市八幡町２－１３－２アイオーラA１階", "url2": "https://www.kaigokensaku.mhlw.go.jp/13/index.php?action_kouhyou_detail_004_kani=true&JigyosyoCd=1394800021-00&ServiceCd=730&Type=search" }, "geometry": { "type": "Point", "coordinates": [ 139.5136407, 35.755006 ] } },
{ "type": "Feature", "properties": { "内容": "小規模多機能ホーム東久留米【小規模多機能型居宅介護】東京都東久留米市中央町3-15-22", "url2": "https://www.kaigokensaku.mhlw.go.jp/13/index.php?action_kouhyou_detail_004_kani=true&JigyosyoCd=1394800187-00&ServiceCd=730&Type=search" }, "geometry": { "type": "Point", "coordinates": [ 139.521154868508944, 35.752400511615754 ] } },
{ "type": "Feature", "properties": { "内容": "ヒューマン・ケア武蔵村山【小規模多機能型居宅介護】東京都武蔵村山市本町1-75-2ヒューマン・ケア武蔵村山", "url2": "https://www.kaigokensaku.mhlw.go.jp/13/index.php?action_kouhyou_detail_004_kani=true&JigyosyoCd=1394900011-00&ServiceCd=730&Type=search" }, "geometry": { "type": "Point", "coordinates": [ 139.387036346696505, 35.75218609114588 ] } },
{ "type": "Feature", "properties": { "内容": "あい小規模多機能施設かりん【小規模多機能型居宅介護】東京都多摩市聖ヶ丘２丁目20-6ゆいま～る聖ヶ丘Ｂ棟1階", "url2": "https://www.kaigokensaku.mhlw.go.jp/13/index.php?action_kouhyou_detail_004_kani=true&JigyosyoCd=1395000142-00&ServiceCd=730&Type=search" }, "geometry": { "type": "Point", "coordinates": [ 139.457345199999963, 35.6318903 ] } },
{ "type": "Feature", "properties": { "内容": "社会医療法人河北医療財団　あい小規模多機能施設こもれび【小規模多機能型居宅介護】東京都多摩市永山3-12-1西永山福祉施設", "url2": "https://www.kaigokensaku.mhlw.go.jp/13/index.php?action_kouhyou_detail_004_kani=true&JigyosyoCd=1395000233-00&ServiceCd=730&Type=search" }, "geometry": { "type": "Point", "coordinates": [ 139.4446332, 35.6210477 ] } },
{ "type": "Feature", "properties": { "内容": "まごころの家＊多摩【小規模多機能型居宅介護】東京都多摩市和田403", "url2": "https://www.kaigokensaku.mhlw.go.jp/13/index.php?action_kouhyou_detail_004_kani=true&JigyosyoCd=1395000316-00&ServiceCd=730&Type=search" }, "geometry": { "type": "Point", "coordinates": [ 139.4342321, 35.641667 ] } },
{ "type": "Feature", "properties": { "内容": "小規模多機能型居宅介護　たんぽぽの郷【小規模多機能型居宅介護】東京都稲城市若葉台1-13-5", "url2": "https://www.kaigokensaku.mhlw.go.jp/13/index.php?action_kouhyou_detail_004_kani=true&JigyosyoCd=1395100124-00&ServiceCd=730&Type=search" }, "geometry": { "type": "Point", "coordinates": [ 139.478374700000018, 35.624805 ] } },
{ "type": "Feature", "properties": { "内容": "小規模多機能型居宅介護みんなの家・稲城長沼【小規模多機能型居宅介護】東京都稲城市東長沼1713-8", "url2": "https://www.kaigokensaku.mhlw.go.jp/13/index.php?action_kouhyou_detail_004_kani=true&JigyosyoCd=1395100066-00&ServiceCd=730&Type=search" }, "geometry": { "type": "Point", "coordinates": [ 139.5085361718277, 35.639894879818655 ] } },
{ "type": "Feature", "properties": { "内容": "地域ケアサポート館福ら笑（ふらわー）・小規模多機能ホーム【小規模多機能型居宅介護】東京都羽村市川崎１－７－８", "url2": "https://www.kaigokensaku.mhlw.go.jp/13/index.php?action_kouhyou_detail_004_kani=true&JigyosyoCd=1395300047-00&ServiceCd=730&Type=search" }, "geometry": { "type": "Point", "coordinates": [ 139.317613, 35.7532318 ] } },
{ "type": "Feature", "properties": { "内容": "サンライズむつみ橋【小規模多機能型居宅介護】東京都あきる野市小川1050-1サンライズむつみ橋", "url2": "https://www.kaigokensaku.mhlw.go.jp/13/index.php?action_kouhyou_detail_004_kani=true&JigyosyoCd=1395200031-00&ServiceCd=730&Type=search" }, "geometry": { "type": "Point", "coordinates": [ 139.321877696295132, 35.720446052393584 ] } },
{ "type": "Feature", "properties": { "内容": "サンライズこやす【小規模多機能型居宅介護】東京都あきる野市小中野219-1", "url2": "https://www.kaigokensaku.mhlw.go.jp/13/index.php?action_kouhyou_detail_004_kani=true&JigyosyoCd=1395200106-00&ServiceCd=730&Type=search" }, "geometry": { "type": "Point", "coordinates": [ 139.2119453, 35.7282682 ] } },
{ "type": "Feature", "properties": { "内容": "小規模多機能型居宅介護　花【小規模多機能型居宅介護】東京都西東京市富士町５－２－２", "url2": "https://www.kaigokensaku.mhlw.go.jp/13/index.php?action_kouhyou_detail_004_kani=true&JigyosyoCd=1395400177-00&ServiceCd=730&Type=search" }, "geometry": { "type": "Point", "coordinates": [ 139.560651399999983, 35.7319239 ] } },
{ "type": "Feature", "properties": { "内容": "ミアヘルサ小規模多機能ホームひばりが丘【小規模多機能型居宅介護】東京都西東京市ひばりが丘３－３－１１ミアヘルサケアヴィレッジひばりが丘", "url2": "https://www.kaigokensaku.mhlw.go.jp/13/index.php?action_kouhyou_detail_004_kani=true&JigyosyoCd=1395400144-00&ServiceCd=730&Type=search" }, "geometry": { "type": "Point", "coordinates": [ 139.536086703819251, 35.743671470564109 ] } },
{ "type": "Feature", "properties": { "内容": "サンライズ鉄心坊【小規模多機能型居宅介護】東京都西多摩郡日の出町大久野8478", "url2": "https://www.kaigokensaku.mhlw.go.jp/13/index.php?action_kouhyou_detail_004_kani=true&JigyosyoCd=1392400030-00&ServiceCd=730&Type=search" }, "geometry": { "type": "Point", "coordinates": [ 139.251149599999962, 35.7492389 ] } },
{ "type": "Feature", "properties": { "内容": "サンライズ鉄心坊サテライトひのでだんち【小規模多機能型居宅介護】東京都西多摩郡日の出町平井2196-438", "url2": "https://www.kaigokensaku.mhlw.go.jp/13/index.php?action_kouhyou_detail_004_kani=true&JigyosyoCd=1392400055-00&ServiceCd=730&Type=search" }, "geometry": { "type": "Point", "coordinates": [ 139.248826310975687, 35.739033168787515 ] } }
]
}
