{
"type": "FeatureCollection",
"name": "geo_13_訪問入浴介護",
"crs": { "type": "name", "properties": { "name": "urn:ogc:def:crs:OGC:1.3:CRS84" } },
"features": [
{ "type": "Feature", "properties": { "内容": "セントケア浜松町【訪問入浴介護】東京都港区浜松町2-2-15浜松町ダイヤハイツ203号", "url": "https://www.kaigokensaku.mhlw.go.jp/13/index.php?action_kouhyou_detail_004_kani=true&JigyosyoCd=1370302554-00&ServiceCd=120&Type=search", "url2": null }, "geometry": { "type": "Point", "coordinates": [ 139.780879700000014, 35.7439899 ] } },
{ "type": "Feature", "properties": { "内容": "アスケア訪問入浴　新宿【訪問入浴介護】東京都新宿区高田馬場３丁目２２番３号コーラルプリンス高田馬場　２０１号室", "url": "https://www.kaigokensaku.mhlw.go.jp/13/index.php?action_kouhyou_detail_004_kani=true&JigyosyoCd=1370403519-00&ServiceCd=120&Type=search", "url2": "https://www.as-care.co.jp/" }, "geometry": { "type": "Point", "coordinates": [ 139.699174163092948, 35.712273702123113 ] } },
{ "type": "Feature", "properties": { "内容": "訪問入浴　せらぴ　文京【訪問入浴介護】東京都文京区小日向3-1-6103", "url": "https://www.kaigokensaku.mhlw.go.jp/13/index.php?action_kouhyou_detail_004_kani=true&JigyosyoCd=1370503987-00&ServiceCd=120&Type=search", "url2": null }, "geometry": { "type": "Point", "coordinates": [ 139.7371052, 35.7148797 ] } },
{ "type": "Feature", "properties": { "内容": "アスケア訪問入浴　文京【訪問入浴介護】東京都文京区向丘二丁目36番9号日興パレス文京第2ビル　1階101号室", "url": "https://www.kaigokensaku.mhlw.go.jp/13/index.php?action_kouhyou_detail_004_kani=true&JigyosyoCd=1370501866-00&ServiceCd=120&Type=search", "url2": "https://www.as-care.co.jp/" }, "geometry": { "type": "Point", "coordinates": [ 139.754047599999979, 35.7238464 ] } },
{ "type": "Feature", "properties": { "内容": "アースサポート台東【訪問入浴介護】東京都台東区蔵前4丁目20番11号", "url": "https://www.kaigokensaku.mhlw.go.jp/13/index.php?action_kouhyou_detail_004_kani=true&JigyosyoCd=1370602730-00&ServiceCd=120&Type=search", "url2": "https://www.earthsupport.co.jp/" }, "geometry": { "type": "Point", "coordinates": [ 139.790062, 35.7042526 ] } },
{ "type": "Feature", "properties": { "内容": "アスケア訪問入浴　台東【訪問入浴介護】東京都台東区入谷２－２２－１０内田ビル　１階１０１号室", "url": "https://www.kaigokensaku.mhlw.go.jp/13/index.php?action_kouhyou_detail_004_kani=true&JigyosyoCd=1370602144-00&ServiceCd=120&Type=search", "url2": "https://www.as-care.co.jp/" }, "geometry": { "type": "Point", "coordinates": [ 139.788882715719495, 35.720968516173215 ] } },
{ "type": "Feature", "properties": { "内容": "アースサポート墨田【訪問入浴介護】東京都墨田区東向島3丁目36番8号", "url": "https://www.kaigokensaku.mhlw.go.jp/13/index.php?action_kouhyou_detail_004_kani=true&JigyosyoCd=1370701599-00&ServiceCd=120&Type=search", "url2": "https://www.earthsupport.co.jp" }, "geometry": { "type": "Point", "coordinates": [ 139.816195200000038, 35.7208154 ] } },
{ "type": "Feature", "properties": { "内容": "ウェル森永　墨田営業所【訪問入浴介護】東京都墨田区京島３丁目６８番５号第二まことビル1Ｆ", "url": "https://www.kaigokensaku.mhlw.go.jp/13/index.php?action_kouhyou_detail_004_kani=true&JigyosyoCd=1370701649-00&ServiceCd=120&Type=search", "url2": "http://www.wel-morinaga.co.jp/" }, "geometry": { "type": "Point", "coordinates": [ 139.826674910433411, 35.713577089301211 ] } },
{ "type": "Feature", "properties": { "内容": "ラックすみだ【訪問入浴介護】東京都墨田区京島1-47-172F", "url": "https://www.kaigokensaku.mhlw.go.jp/13/index.php?action_kouhyou_detail_004_kani=true&JigyosyoCd=1370702381-00&ServiceCd=120&Type=search", "url2": "http://www.lac-corp.jp" }, "geometry": { "type": "Point", "coordinates": [ 139.821589300000028, 35.7183351 ] } },
{ "type": "Feature", "properties": { "内容": "アスケア訪問入浴　墨田【訪問入浴介護】東京都墨田区石原一丁目３０番３号中林ビル　１階", "url": "https://www.kaigokensaku.mhlw.go.jp/13/index.php?action_kouhyou_detail_004_kani=true&JigyosyoCd=1370702175-00&ServiceCd=120&Type=search", "url2": "https://www.as-care.co.jp/" }, "geometry": { "type": "Point", "coordinates": [ 139.798656599999987, 35.700649100000014 ] } },
{ "type": "Feature", "properties": { "内容": "アースサポート江東【訪問入浴介護】東京都江東区東陽5丁目27番7号", "url": "https://www.kaigokensaku.mhlw.go.jp/13/index.php?action_kouhyou_detail_004_kani=true&JigyosyoCd=1370803031-00&ServiceCd=120&Type=search", "url2": "https://www.earthsupport.co.jp" }, "geometry": { "type": "Point", "coordinates": [ 139.814629500000024, 35.6714204 ] } },
{ "type": "Feature", "properties": { "内容": "ニチイケアセンター江東【訪問入浴介護】東京都江東区森下５－１３－２サンモールアサミ１０１", "url": "https://www.kaigokensaku.mhlw.go.jp/13/index.php?action_kouhyou_detail_004_kani=true&JigyosyoCd=1370804047-00&ServiceCd=120&Type=search", "url2": "http://www.nichiigakkan.co.jp" }, "geometry": { "type": "Point", "coordinates": [ 139.8092911, 35.6860895 ] } },
{ "type": "Feature", "properties": { "内容": "株式会社ケアサービス　訪問入浴亀戸【訪問入浴介護】東京都江東区亀戸4-13-14", "url": "https://www.kaigokensaku.mhlw.go.jp/13/index.php?action_kouhyou_detail_004_kani=true&JigyosyoCd=1370806695-00&ServiceCd=120&Type=search", "url2": "https://www.care.co.jp/office/hn_kameido" }, "geometry": { "type": "Point", "coordinates": [ 139.828986783971516, 35.700955045961642 ] } },
{ "type": "Feature", "properties": { "内容": "セントケア江東【訪問入浴介護】東京都江東区東陽1-16-8MELDIA東陽町ビル　4階", "url": "https://www.kaigokensaku.mhlw.go.jp/13/index.php?action_kouhyou_detail_004_kani=true&JigyosyoCd=1370803437-00&ServiceCd=120&Type=search", "url2": "http://www.saint-care.com" }, "geometry": { "type": "Point", "coordinates": [ 139.810057564972567, 35.667588225896885 ] } },
{ "type": "Feature", "properties": { "内容": "いい湯だな　江東【訪問入浴介護】東京都江東区東陽1-16-9103", "url": "https://www.kaigokensaku.mhlw.go.jp/13/index.php?action_kouhyou_detail_004_kani=true&JigyosyoCd=1370806422-00&ServiceCd=120&Type=search", "url2": null }, "geometry": { "type": "Point", "coordinates": [ 139.8373272, 35.6807137 ] } },
{ "type": "Feature", "properties": { "内容": "アスケア訪問入浴　江東【訪問入浴介護】東京都江東区東陽１－２５－８山中ビル１階", "url": "https://www.kaigokensaku.mhlw.go.jp/13/index.php?action_kouhyou_detail_004_kani=true&JigyosyoCd=1370804377-00&ServiceCd=120&Type=search", "url2": "https://www.as-care.co.jp/" }, "geometry": { "type": "Point", "coordinates": [ 139.811521372753305, 35.667764883602857 ] } },
{ "type": "Feature", "properties": { "内容": "ニチイケアセンター大井町【訪問入浴介護】東京都品川区東大井5-7-10クレスト・ワン4F", "url": "https://www.kaigokensaku.mhlw.go.jp/13/index.php?action_kouhyou_detail_004_kani=true&JigyosyoCd=1370900555-00&ServiceCd=120&Type=search", "url2": "http://www.nichiigakkan.co.jp" }, "geometry": { "type": "Point", "coordinates": [ 139.738030200000026, 35.6072238 ] } },
{ "type": "Feature", "properties": { "内容": "いい湯だな　城南【訪問入浴介護】東京都品川区大井3-19-7OTパレス103", "url": "https://www.kaigokensaku.mhlw.go.jp/13/index.php?action_kouhyou_detail_004_kani=true&JigyosyoCd=1370905117-00&ServiceCd=120&Type=search", "url2": "https://www.bridges8.biz/" }, "geometry": { "type": "Point", "coordinates": [ 139.728681599999987, 35.601678200000016 ] } },
{ "type": "Feature", "properties": { "内容": "株式会社ケアサービス　訪問入浴　品川【訪問入浴介護】東京都品川区二葉3-30-3", "url": "https://www.kaigokensaku.mhlw.go.jp/13/index.php?action_kouhyou_detail_004_kani=true&JigyosyoCd=1371100189-00&ServiceCd=120&Type=search", "url2": "http://www.care.co.jp/" }, "geometry": { "type": "Point", "coordinates": [ 139.71912610000004, 35.602196 ] } },
{ "type": "Feature", "properties": { "内容": "アスケア訪問入浴　品川【訪問入浴介護】東京都品川区西中延２－１３－８クィーンライトビル１０１号室", "url": "https://www.kaigokensaku.mhlw.go.jp/13/index.php?action_kouhyou_detail_004_kani=true&JigyosyoCd=1370902981-00&ServiceCd=120&Type=search", "url2": "https://www.as-care.co.jp/" }, "geometry": { "type": "Point", "coordinates": [ 139.706479999388279, 35.609359257867936 ] } },
{ "type": "Feature", "properties": { "内容": "合同会社Re-PLACE【訪問入浴介護】東京都目黒区目黒本町5-31-9セレニティ目黒B-2", "url": "https://www.kaigokensaku.mhlw.go.jp/13/index.php?action_kouhyou_detail_004_kani=true&JigyosyoCd=1371005156-00&ServiceCd=120&Type=search", "url2": null }, "geometry": { "type": "Point", "coordinates": [ 139.6987806, 35.6214336 ] } },
{ "type": "Feature", "properties": { "内容": "アースサポート学芸大学【訪問入浴介護】東京都目黒区鷹番3丁目14番21号", "url": "https://www.kaigokensaku.mhlw.go.jp/13/index.php?action_kouhyou_detail_004_kani=true&JigyosyoCd=1371003243-00&ServiceCd=120&Type=search", "url2": "https://www.earthsupport.co.jp" }, "geometry": { "type": "Point", "coordinates": [ 139.68403950000004, 35.6298611 ] } },
{ "type": "Feature", "properties": { "内容": "アスケア訪問入浴　目黒【訪問入浴介護】東京都目黒区中根１－９－７都立大　川井ビル　101号室", "url": "https://www.kaigokensaku.mhlw.go.jp/13/index.php?action_kouhyou_detail_004_kani=true&JigyosyoCd=1371002955-00&ServiceCd=120&Type=search", "url2": "https://www.as-care.co.jp/" }, "geometry": { "type": "Point", "coordinates": [ 139.674266717839373, 35.615748623837739 ] } },
{ "type": "Feature", "properties": { "内容": "パナソニックエイジフリーケアセンター八雲・訪問入浴【訪問入浴介護】東京都目黒区八雲５丁目１７－２２都立大学フラワーマンション２Ｆ", "url": "https://www.kaigokensaku.mhlw.go.jp/13/index.php?action_kouhyou_detail_004_kani=true&JigyosyoCd=1371103753-00&ServiceCd=120&Type=search", "url2": "http://panasonic.co.jp/es/pesasv/" }, "geometry": { "type": "Point", "coordinates": [ 139.666252399999962, 35.6227975 ] } },
{ "type": "Feature", "properties": { "内容": "株式会社ケアサービス　訪問入浴　蒲田【訪問入浴介護】東京都大田区新蒲田3-15-7", "url": "https://www.kaigokensaku.mhlw.go.jp/13/index.php?action_kouhyou_detail_004_kani=true&JigyosyoCd=1371101385-00&ServiceCd=120&Type=search", "url2": "http://www.care.co.jp/" }, "geometry": { "type": "Point", "coordinates": [ 139.7077051, 35.5568825 ] } },
{ "type": "Feature", "properties": { "内容": "ニチイケアセンター南蒲田【訪問入浴介護】東京都大田区南蒲田2-16-2テクノポート大樹生命ビル　B1F", "url": "https://www.kaigokensaku.mhlw.go.jp/13/index.php?action_kouhyou_detail_004_kani=true&JigyosyoCd=1371107028-00&ServiceCd=120&Type=search", "url2": null }, "geometry": { "type": "Point", "coordinates": [ 139.7217842, 35.5558882 ] } },
{ "type": "Feature", "properties": { "内容": "株式会社ケアサービス　訪問入浴　千束【訪問入浴介護】東京都大田区北千束2-15-12", "url": "https://www.kaigokensaku.mhlw.go.jp/13/index.php?action_kouhyou_detail_004_kani=true&JigyosyoCd=1371103183-00&ServiceCd=120&Type=search", "url2": "http://www.care.co.jp/" }, "geometry": { "type": "Point", "coordinates": [ 139.6929338, 35.6058281 ] } },
{ "type": "Feature", "properties": { "内容": "アースサポート大田【訪問入浴介護】東京都大田区大森北4丁目14番28号", "url": "https://www.kaigokensaku.mhlw.go.jp/13/index.php?action_kouhyou_detail_004_kani=true&JigyosyoCd=1371104470-00&ServiceCd=120&Type=search", "url2": "http://www.earthsupport.co.jp" }, "geometry": { "type": "Point", "coordinates": [ 139.727868299999955, 35.5833152 ] } },
{ "type": "Feature", "properties": { "内容": "セントケア大森【訪問入浴介護】東京都大田区大森北2-4-11米山ビル2F", "url": "https://www.kaigokensaku.mhlw.go.jp/13/index.php?action_kouhyou_detail_004_kani=true&JigyosyoCd=1371105584-00&ServiceCd=120&Type=search", "url2": "https://www.saint-care.com/tokyo/" }, "geometry": { "type": "Point", "coordinates": [ 139.731797600000021, 35.584825799999976 ] } },
{ "type": "Feature", "properties": { "内容": "入浴サービス　イリス　平和島【訪問入浴介護】東京都大田区大森北2-15-8", "url": "https://www.kaigokensaku.mhlw.go.jp/13/index.php?action_kouhyou_detail_004_kani=true&JigyosyoCd=1371109057-00&ServiceCd=120&Type=search", "url2": "http://www.i-iris.co.jp" }, "geometry": { "type": "Point", "coordinates": [ 139.734600009786959, 35.586321219291264 ] } },
{ "type": "Feature", "properties": { "内容": "Care‐Story【訪問入浴介護】東京都大田区千鳥2ー20ー8三光ビル2F", "url": "https://www.kaigokensaku.mhlw.go.jp/13/index.php?action_kouhyou_detail_004_kani=true&JigyosyoCd=1371109172-00&ServiceCd=120&Type=search", "url2": "http://www.care-story.com/" }, "geometry": { "type": "Point", "coordinates": [ 139.69362480962684, 35.569583745651002 ] } },
{ "type": "Feature", "properties": { "内容": "アスケア訪問入浴　大田【訪問入浴介護】東京都大田区蒲田２－１９－８", "url": "https://www.kaigokensaku.mhlw.go.jp/13/index.php?action_kouhyou_detail_004_kani=true&JigyosyoCd=1371106749-00&ServiceCd=120&Type=search", "url2": "https://www.as-care.co.jp/" }, "geometry": { "type": "Point", "coordinates": [ 139.724238407392221, 35.565337598559594 ] } },
{ "type": "Feature", "properties": { "内容": "ツクイ世田谷経堂【訪問入浴介護】東京都世田谷区宮坂2-11-13レオーダ経堂", "url": "https://www.kaigokensaku.mhlw.go.jp/13/index.php?action_kouhyou_detail_004_kani=true&JigyosyoCd=1371000900-00&ServiceCd=120&Type=search", "url2": "http://www.tsukui.net./" }, "geometry": { "type": "Point", "coordinates": [ 139.642347669778474, 35.652292702166299 ] } },
{ "type": "Feature", "properties": { "内容": "株式会社ケアサービス　訪問入浴　世田谷【訪問入浴介護】東京都世田谷区弦巻1-47-12", "url": "https://www.kaigokensaku.mhlw.go.jp/13/index.php?action_kouhyou_detail_004_kani=true&JigyosyoCd=1371201912-00&ServiceCd=120&Type=search", "url2": "http://www.care.co.jp/" }, "geometry": { "type": "Point", "coordinates": [ 139.646435831027247, 35.639796901099288 ] } },
{ "type": "Feature", "properties": { "内容": "アースサポート世田谷【訪問入浴介護】東京都世田谷区上用賀5丁目5番1号", "url": "https://www.kaigokensaku.mhlw.go.jp/13/index.php?action_kouhyou_detail_004_kani=true&JigyosyoCd=1371204460-00&ServiceCd=120&Type=search", "url2": "https://www.earthsupport.co.jp" }, "geometry": { "type": "Point", "coordinates": [ 139.627261712386172, 35.627537379420616 ] } },
{ "type": "Feature", "properties": { "内容": "セントケア世田谷【訪問入浴介護】東京都世田谷区三軒茶屋2-14-8ファッションビル第2　2F", "url": "https://www.kaigokensaku.mhlw.go.jp/13/index.php?action_kouhyou_detail_004_kani=true&JigyosyoCd=1371206762-00&ServiceCd=120&Type=search", "url2": "https://www.saint-care.com" }, "geometry": { "type": "Point", "coordinates": [ 139.6690958, 35.6430931 ] } },
{ "type": "Feature", "properties": { "内容": "アスケア訪問入浴　三軒茶屋【訪問入浴介護】東京都世田谷区三軒茶屋２－４９－６フドウ三軒茶屋ハイツ１０１号室", "url": "https://www.kaigokensaku.mhlw.go.jp/13/index.php?action_kouhyou_detail_004_kani=true&JigyosyoCd=1371205400-00&ServiceCd=120&Type=search", "url2": "https://www.as-care.co.jp/" }, "geometry": { "type": "Point", "coordinates": [ 139.661205672064085, 35.641688013798323 ] } },
{ "type": "Feature", "properties": { "内容": "アスケア訪問入浴　祖師谷【訪問入浴介護】東京都世田谷区祖師谷２－４－９けやきロード祖師谷　１階６号室", "url": "https://www.kaigokensaku.mhlw.go.jp/13/index.php?action_kouhyou_detail_004_kani=true&JigyosyoCd=1371213396-00&ServiceCd=120&Type=search", "url2": "https://www.as-care.co.jp/" }, "geometry": { "type": "Point", "coordinates": [ 139.608954066882092, 35.647992962713055 ] } },
{ "type": "Feature", "properties": { "内容": "アースサポート渋谷【訪問入浴介護】東京都渋谷区本町1丁目4番3号", "url": "https://www.kaigokensaku.mhlw.go.jp/13/index.php?action_kouhyou_detail_004_kani=true&JigyosyoCd=1371300219-00&ServiceCd=120&Type=search", "url2": "https://www.earthsupport.co.jp" }, "geometry": { "type": "Point", "coordinates": [ 139.68498022387314, 35.681646337092552 ] } },
{ "type": "Feature", "properties": { "内容": "うちんく訪問入浴　渋谷【訪問入浴介護】東京都渋谷区恵比寿4-12-14", "url": "https://www.kaigokensaku.mhlw.go.jp/13/index.php?action_kouhyou_detail_004_kani=true&JigyosyoCd=1371304047-00&ServiceCd=120&Type=search", "url2": "https://www.wakashi.co.jp" }, "geometry": { "type": "Point", "coordinates": [ 139.7132387, 35.6451203 ] } },
{ "type": "Feature", "properties": { "内容": "アスケア訪問入浴　渋谷【訪問入浴介護】東京都渋谷区代々木１－５１－３シェモア代々木１０１号室", "url": "https://www.kaigokensaku.mhlw.go.jp/13/index.php?action_kouhyou_detail_004_kani=true&JigyosyoCd=1371301944-00&ServiceCd=120&Type=search", "url2": "https://www.as-care.co.jp/" }, "geometry": { "type": "Point", "coordinates": [ 139.699133132661387, 35.683468684522325 ] } },
{ "type": "Feature", "properties": { "内容": "クローバーケアセンター【訪問入浴介護】東京都渋谷区恵比寿南２－２３－７エビスパークヒルズ３０３", "url": "https://www.kaigokensaku.mhlw.go.jp/13/index.php?action_kouhyou_detail_004_kani=true&JigyosyoCd=1371302314-00&ServiceCd=120&Type=search", "url2": "http://www.026968.com" }, "geometry": { "type": "Point", "coordinates": [ 139.709625700000061, 35.6419882 ] } },
{ "type": "Feature", "properties": { "内容": "ミアヘルサ訪問入浴サービス東京【訪問入浴介護】東京都中野区東中野４－２４－３", "url": "https://www.kaigokensaku.mhlw.go.jp/13/index.php?action_kouhyou_detail_004_kani=true&JigyosyoCd=1370400648-00&ServiceCd=120&Type=search", "url2": "http://www.jlsri.co.jp" }, "geometry": { "type": "Point", "coordinates": [ 139.68698930000005, 35.7100238 ] } },
{ "type": "Feature", "properties": { "内容": "アスケア訪問入浴　野方【訪問入浴介護】東京都中野区野方６－５３－８", "url": "https://www.kaigokensaku.mhlw.go.jp/13/index.php?action_kouhyou_detail_004_kani=true&JigyosyoCd=1371406099-00&ServiceCd=120&Type=search", "url2": "https://www.as-care.co.jp/" }, "geometry": { "type": "Point", "coordinates": [ 139.649377453756813, 35.723663004436723 ] } },
{ "type": "Feature", "properties": { "内容": "アースサポート高円寺【訪問入浴介護】東京都杉並区高円寺北2丁目14番26号", "url": "https://www.kaigokensaku.mhlw.go.jp/13/index.php?action_kouhyou_detail_004_kani=true&JigyosyoCd=1371500867-00&ServiceCd=120&Type=search", "url2": "https://www.earthsupport.co.jp/" }, "geometry": { "type": "Point", "coordinates": [ 139.654166600000053, 35.7065678 ] } },
{ "type": "Feature", "properties": { "内容": "株式会社ケアサービス　訪問入浴和泉【訪問入浴介護】東京都杉並区和泉1-52-102F", "url": "https://www.kaigokensaku.mhlw.go.jp/13/index.php?action_kouhyou_detail_004_kani=true&JigyosyoCd=1371505924-00&ServiceCd=120&Type=search", "url2": "http://www.care.co.jp/" }, "geometry": { "type": "Point", "coordinates": [ 139.654316299999977, 35.676209299999989 ] } },
{ "type": "Feature", "properties": { "内容": "株式会社ケアサービス　訪問入浴上井草【訪問入浴介護】東京都杉並区井草5-19-7フォルスワタベビル2階", "url": "https://www.kaigokensaku.mhlw.go.jp/13/index.php?action_kouhyou_detail_004_kani=true&JigyosyoCd=1371507821-00&ServiceCd=120&Type=search", "url2": "http://www.care.co.jp" }, "geometry": { "type": "Point", "coordinates": [ 139.6037076, 35.726113200000015 ] } },
{ "type": "Feature", "properties": { "内容": "アスケア訪問入浴　杉並【訪問入浴介護】東京都杉並区梅里２－４０－１８第３志村ビル３０１号", "url": "https://www.kaigokensaku.mhlw.go.jp/13/index.php?action_kouhyou_detail_004_kani=true&JigyosyoCd=1371504885-00&ServiceCd=120&Type=search", "url2": "https://www.as-care.co.jp/" }, "geometry": { "type": "Point", "coordinates": [ 139.639816500000023, 35.697897231011403 ] } },
{ "type": "Feature", "properties": { "内容": "アースサポート豊島【訪問入浴介護】東京都豊島区上池袋1丁目7番7号", "url": "https://www.kaigokensaku.mhlw.go.jp/13/index.php?action_kouhyou_detail_004_kani=true&JigyosyoCd=1371700392-00&ServiceCd=120&Type=search", "url2": "https://www.earthsupport.co.jp" }, "geometry": { "type": "Point", "coordinates": [ 139.719198799999958, 35.7343033 ] } },
{ "type": "Feature", "properties": { "内容": "株式会社ケアサービス　訪問入浴　豊島【訪問入浴介護】東京都豊島区高田３－６－７ニュー野村マンション１０２", "url": "https://www.kaigokensaku.mhlw.go.jp/13/index.php?action_kouhyou_detail_004_kani=true&JigyosyoCd=1371601145-00&ServiceCd=120&Type=search", "url2": "http://www.care.co.jp/" }, "geometry": { "type": "Point", "coordinates": [ 139.707809599999962, 35.7141414 ] } },
{ "type": "Feature", "properties": { "内容": "セントケア豊島【訪問入浴介護】東京都豊島区東池袋3-20-21広宣ビル２階", "url": "https://www.kaigokensaku.mhlw.go.jp/13/index.php?action_kouhyou_detail_004_kani=true&JigyosyoCd=1371604024-00&ServiceCd=120&Type=search", "url2": null }, "geometry": { "type": "Point", "coordinates": [ 139.720606, 35.7301834 ] } },
{ "type": "Feature", "properties": { "内容": "アスケア訪問入浴　豊島【訪問入浴介護】東京都豊島区上池袋四丁目29番13号小林ビル", "url": "https://www.kaigokensaku.mhlw.go.jp/13/index.php?action_kouhyou_detail_004_kani=true&JigyosyoCd=1371603596-00&ServiceCd=120&Type=search", "url2": "https://www.as-care.co.jp/" }, "geometry": { "type": "Point", "coordinates": [ 139.718472699999978, 35.7414455 ] } },
{ "type": "Feature", "properties": { "内容": "いい湯だな　埼京【訪問入浴介護】東京都北区西が丘1-10-14みよしハイツ101", "url": "https://www.kaigokensaku.mhlw.go.jp/13/index.php?action_kouhyou_detail_004_kani=true&JigyosyoCd=1371707777-00&ServiceCd=120&Type=search", "url2": "https://www.bridges8.biz/" }, "geometry": { "type": "Point", "coordinates": [ 139.71484190000001, 35.769927 ] } },
{ "type": "Feature", "properties": { "内容": "セントケア赤羽【訪問入浴介護】東京都北区志茂2-50-2グランドメゾン赤羽102", "url": "https://www.kaigokensaku.mhlw.go.jp/13/index.php?action_kouhyou_detail_004_kani=true&JigyosyoCd=1371703800-00&ServiceCd=120&Type=search", "url2": "http://saintcare-tokyo.com/" }, "geometry": { "type": "Point", "coordinates": [ 139.7271551, 35.780059 ] } },
{ "type": "Feature", "properties": { "内容": "ウェル森永　田端営業所【訪問入浴介護】東京都北区田端新町3丁目15番11号原ビル1Ｆ", "url": "https://www.kaigokensaku.mhlw.go.jp/13/index.php?action_kouhyou_detail_004_kani=true&JigyosyoCd=1371703834-00&ServiceCd=120&Type=search", "url2": "https://www.wel-morinaga.co.jp/" }, "geometry": { "type": "Point", "coordinates": [ 139.761985495700827, 35.742837525684941 ] } },
{ "type": "Feature", "properties": { "内容": "アースサポート王子神谷【訪問入浴介護】東京都北区王子5丁目17番22号", "url": "https://www.kaigokensaku.mhlw.go.jp/13/index.php?action_kouhyou_detail_004_kani=true&JigyosyoCd=1371705011-00&ServiceCd=120&Type=search", "url2": "https://www.earthsupport.co.jp" }, "geometry": { "type": "Point", "coordinates": [ 139.737796300000014, 35.7661529 ] } },
{ "type": "Feature", "properties": { "内容": "アスケア訪問入浴　北【訪問入浴介護】東京都北区赤羽西１－２２－１５大亜コーポ１０１号室", "url": "https://www.kaigokensaku.mhlw.go.jp/13/index.php?action_kouhyou_detail_004_kani=true&JigyosyoCd=1371700194-00&ServiceCd=120&Type=search", "url2": "https://www.asahi-sun-clean.co.jp/" }, "geometry": { "type": "Point", "coordinates": [ 139.720037600000012, 35.775919199999983 ] } },
{ "type": "Feature", "properties": { "内容": "大起エンゼルヘルプ　荒川ケアセンター【訪問入浴介護】東京都荒川区町屋5-10-5", "url": "https://www.kaigokensaku.mhlw.go.jp/13/index.php?action_kouhyou_detail_004_kani=true&JigyosyoCd=1371800010-00&ServiceCd=120&Type=search", "url2": "http://www.enzeru.co.jp" }, "geometry": { "type": "Point", "coordinates": [ 139.778267418385326, 35.75092469125601 ] } },
{ "type": "Feature", "properties": { "内容": "ライフ訪問入浴センター【訪問入浴介護】東京都荒川区西日暮里5-23-3冠第二ビル2F", "url": "https://www.kaigokensaku.mhlw.go.jp/13/index.php?action_kouhyou_detail_004_kani=true&JigyosyoCd=1371803725-00&ServiceCd=120&Type=search", "url2": "https://life-links.co.jp" }, "geometry": { "type": "Point", "coordinates": [ 139.76782060000005, 35.7320517 ] } },
{ "type": "Feature", "properties": { "内容": "アースサポート日暮里【訪問入浴介護】東京都荒川区東日暮里5丁目24番5号", "url": "https://www.kaigokensaku.mhlw.go.jp/13/index.php?action_kouhyou_detail_004_kani=true&JigyosyoCd=1371804731-00&ServiceCd=120&Type=search", "url2": "https://www.earthsupport.co.jp" }, "geometry": { "type": "Point", "coordinates": [ 139.776356600000014, 35.7282711 ] } },
{ "type": "Feature", "properties": { "内容": "訪問入浴　ハイジーア【訪問入浴介護】東京都荒川区西日暮里3丁目11‐5日の出ハイツ201", "url": "https://www.kaigokensaku.mhlw.go.jp/13/index.php?action_kouhyou_detail_004_kani=true&JigyosyoCd=1371804871-00&ServiceCd=120&Type=search", "url2": null }, "geometry": { "type": "Point", "coordinates": [ 139.766693800000013, 35.728481 ] } },
{ "type": "Feature", "properties": { "内容": "アースサポート板橋【訪問入浴介護】東京都板橋区成増3丁目1番9号", "url": "https://www.kaigokensaku.mhlw.go.jp/13/index.php?action_kouhyou_detail_004_kani=true&JigyosyoCd=1371301191-00&ServiceCd=120&Type=search", "url2": "https://www.earthsupport.co.jp" }, "geometry": { "type": "Point", "coordinates": [ 139.634900188269057, 35.777207399276875 ] } },
{ "type": "Feature", "properties": { "内容": "ニチイケアセンター小茂根【訪問入浴介護】東京都板橋区小茂根5-4-41", "url": "https://www.kaigokensaku.mhlw.go.jp/13/index.php?action_kouhyou_detail_004_kani=true&JigyosyoCd=1371902568-00&ServiceCd=120&Type=search", "url2": "http://www.nichiigakkan.co.jp" }, "geometry": { "type": "Point", "coordinates": [ 139.675974499999938, 35.7501276 ] } },
{ "type": "Feature", "properties": { "内容": "株式会社ケアサービス訪問入浴志村【訪問入浴介護】東京都板橋区志村3-24-2-2F昭ビル2F", "url": "https://www.kaigokensaku.mhlw.go.jp/13/index.php?action_kouhyou_detail_004_kani=true&JigyosyoCd=1371706688-00&ServiceCd=120&Type=search", "url2": "http://www.care.co.jp" }, "geometry": { "type": "Point", "coordinates": [ 139.68565236258803, 35.777828948761801 ] } },
{ "type": "Feature", "properties": { "内容": "株式会社ケアサービス　訪問入浴　幸町【訪問入浴介護】東京都板橋区幸町48-5", "url": "https://www.kaigokensaku.mhlw.go.jp/13/index.php?action_kouhyou_detail_004_kani=true&JigyosyoCd=1371905819-00&ServiceCd=120&Type=search", "url2": "http://www.care.co.jp/" }, "geometry": { "type": "Point", "coordinates": [ 139.695728499999973, 35.7431066 ] } },
{ "type": "Feature", "properties": { "内容": "アスケア訪問入浴　板橋【訪問入浴介護】東京都板橋区蓮根３－２８－１３ピュアフォレスト西台１０２号", "url": "https://www.kaigokensaku.mhlw.go.jp/13/index.php?action_kouhyou_detail_004_kani=true&JigyosyoCd=1371906239-00&ServiceCd=120&Type=search", "url2": "https://www.as-care.co.jp/" }, "geometry": { "type": "Point", "coordinates": [ 139.6745855, 35.7895985 ] } },
{ "type": "Feature", "properties": { "内容": "訪問入浴ニューヨーク【訪問入浴介護】東京都練馬区田柄2丁目7-3", "url": "https://www.kaigokensaku.mhlw.go.jp/13/index.php?action_kouhyou_detail_004_kani=true&JigyosyoCd=1372014827-00&ServiceCd=120&Type=search", "url2": "https://point-newyork2409.com" }, "geometry": { "type": "Point", "coordinates": [ 139.643559910450762, 35.763531770178275 ] } },
{ "type": "Feature", "properties": { "内容": "株式会社ケアサービス　訪問入浴さくら【訪問入浴介護】東京都練馬区桜台1-4-2梅田マンション　1F", "url": "https://www.kaigokensaku.mhlw.go.jp/13/index.php?action_kouhyou_detail_004_kani=true&JigyosyoCd=1372007516-00&ServiceCd=120&Type=search", "url2": "http://www.care.co.jp/" }, "geometry": { "type": "Point", "coordinates": [ 139.662645500000053, 35.7384927 ] } },
{ "type": "Feature", "properties": { "内容": "セントケア練馬【訪問入浴介護】東京都練馬区南田中3-6-12大沢ビル1Ｆ", "url": "https://www.kaigokensaku.mhlw.go.jp/13/index.php?action_kouhyou_detail_004_kani=true&JigyosyoCd=1372011260-00&ServiceCd=120&Type=search", "url2": null }, "geometry": { "type": "Point", "coordinates": [ 139.620165899999961, 35.7382972 ] } },
{ "type": "Feature", "properties": { "内容": "大起エンゼルヘルプ　練馬ケアセンター【訪問入浴介護】東京都練馬区貫井2-24-2ニューパールマンション1階", "url": "https://www.kaigokensaku.mhlw.go.jp/13/index.php?action_kouhyou_detail_004_kani=true&JigyosyoCd=1372000628-00&ServiceCd=120&Type=search", "url2": "http://www.enzeru.co.jp" }, "geometry": { "type": "Point", "coordinates": [ 139.634275699999989, 35.7398085 ] } },
{ "type": "Feature", "properties": { "内容": "ケアファクトリー訪問入浴介護事業所【訪問入浴介護】東京都練馬区大泉学園町４－２９－２５ロイヤルハイツ２０１", "url": "https://www.kaigokensaku.mhlw.go.jp/13/index.php?action_kouhyou_detail_004_kani=true&JigyosyoCd=1372008647-00&ServiceCd=120&Type=search", "url2": null }, "geometry": { "type": "Point", "coordinates": [ 139.5908399, 35.7681372 ] } },
{ "type": "Feature", "properties": { "内容": "リハビリ訪問入浴nagomi練馬東店【訪問入浴介護】東京都練馬区豊玉中1-16-4", "url": "https://www.kaigokensaku.mhlw.go.jp/13/index.php?action_kouhyou_detail_004_kani=true&JigyosyoCd=1372012292-00&ServiceCd=120&Type=search", "url2": "https://ii-life.co.jp/service/rehabili/" }, "geometry": { "type": "Point", "coordinates": [ 139.663711297224097, 35.731542016278006 ] } },
{ "type": "Feature", "properties": { "内容": "アースサポート練馬【訪問入浴介護】東京都練馬区豊玉上2丁目22番13号", "url": "https://www.kaigokensaku.mhlw.go.jp/13/index.php?action_kouhyou_detail_004_kani=true&JigyosyoCd=1372002590-00&ServiceCd=120&Type=search", "url2": "https://www.earthsupport.co.jp" }, "geometry": { "type": "Point", "coordinates": [ 139.660643339633907, 35.737365875639483 ] } },
{ "type": "Feature", "properties": { "内容": "アスケア訪問入浴　石神井【訪問入浴介護】東京都練馬区石神井町３－１８－４ユービル１階", "url": "https://www.kaigokensaku.mhlw.go.jp/13/index.php?action_kouhyou_detail_004_kani=true&JigyosyoCd=1372013688-00&ServiceCd=120&Type=search", "url2": "https://www.as-care.co.jp/" }, "geometry": { "type": "Point", "coordinates": [ 139.605204790753419, 35.742163996980935 ] } },
{ "type": "Feature", "properties": { "内容": "アスケア訪問入浴　練馬【訪問入浴介護】東京都練馬区練馬２‐１‐１２サンタヴィセンテビルⅠ　１階", "url": "https://www.kaigokensaku.mhlw.go.jp/13/index.php?action_kouhyou_detail_004_kani=true&JigyosyoCd=1372005353-00&ServiceCd=120&Type=search", "url2": "https://www.as-care.co.jp/" }, "geometry": { "type": "Point", "coordinates": [ 139.656004437850413, 35.741586918661291 ] } },
{ "type": "Feature", "properties": { "内容": "訪問入浴ステーションあひる【訪問入浴介護】東京都足立区梅島1-13-17", "url": "https://www.kaigokensaku.mhlw.go.jp/13/index.php?action_kouhyou_detail_004_kani=true&JigyosyoCd=1372101665-00&ServiceCd=120&Type=search", "url2": "https://www.carefriend.co.jp" }, "geometry": { "type": "Point", "coordinates": [ 139.798517654175612, 35.772740241978966 ] } },
{ "type": "Feature", "properties": { "内容": "ウェル森永　足立営業所【訪問入浴介護】東京都足立区梅島2丁目38番11号鴨下マンション1Ｆ", "url": "https://www.kaigokensaku.mhlw.go.jp/13/index.php?action_kouhyou_detail_004_kani=true&JigyosyoCd=1372104479-00&ServiceCd=120&Type=search", "url2": "https://www.wel-morinaga.co.jp/" }, "geometry": { "type": "Point", "coordinates": [ 139.798090399999978, 35.7783696 ] } },
{ "type": "Feature", "properties": { "内容": "アースサポート西新井【訪問入浴介護】東京都足立区西新井栄町2丁目10番16号", "url": "https://www.kaigokensaku.mhlw.go.jp/13/index.php?action_kouhyou_detail_004_kani=true&JigyosyoCd=1372106995-00&ServiceCd=120&Type=search", "url2": "https://www.earthsupport.co.jp" }, "geometry": { "type": "Point", "coordinates": [ 139.787508112061886, 35.777165225353542 ] } },
{ "type": "Feature", "properties": { "内容": "ＯＨＩケアサービス【訪問入浴介護】東京都足立区保木間3-35-1サンステージ竹ノ塚202", "url": "https://www.kaigokensaku.mhlw.go.jp/13/index.php?action_kouhyou_detail_004_kani=true&JigyosyoCd=1372111706-00&ServiceCd=120&Type=search", "url2": "http://hp.kaipoke.biz/fte/" }, "geometry": { "type": "Point", "coordinates": [ 139.81026380000003, 35.795587 ] } },
{ "type": "Feature", "properties": { "内容": "いい湯だな　城北【訪問入浴介護】東京都足立区南花畑4-3-1マスカレードA101", "url": "https://www.kaigokensaku.mhlw.go.jp/13/index.php?action_kouhyou_detail_004_kani=true&JigyosyoCd=1372113769-00&ServiceCd=120&Type=search", "url2": null }, "geometry": { "type": "Point", "coordinates": [ 139.8197446, 35.7936296 ] } },
{ "type": "Feature", "properties": { "内容": "株式会社ケアサービス訪問入浴西保木間【訪問入浴介護】東京都足立区西保木間1-23-4", "url": "https://www.kaigokensaku.mhlw.go.jp/13/index.php?action_kouhyou_detail_004_kani=true&JigyosyoCd=1372108652-00&ServiceCd=120&Type=search", "url2": null }, "geometry": { "type": "Point", "coordinates": [ 139.7981843, 35.7971785 ] } },
{ "type": "Feature", "properties": { "内容": "アスケア訪問入浴　足立【訪問入浴介護】東京都足立区中央本町３－４－１東急ドエルアルス五反野１０６", "url": "https://www.kaigokensaku.mhlw.go.jp/13/index.php?action_kouhyou_detail_004_kani=true&JigyosyoCd=1372106359-00&ServiceCd=120&Type=search", "url2": "https://www.as-care.co.jp/" }, "geometry": { "type": "Point", "coordinates": [ 139.805643260364633, 35.772403099682656 ] } },
{ "type": "Feature", "properties": { "内容": "おうちdeお風呂【訪問入浴介護】東京都足立区千住東1-26-12ベル・ボナール201", "url": "https://www.kaigokensaku.mhlw.go.jp/13/index.php?action_kouhyou_detail_004_kani=true&JigyosyoCd=1372112050-00&ServiceCd=120&Type=search", "url2": "https://increaseinc2017.wixsite.com/website" }, "geometry": { "type": "Point", "coordinates": [ 139.806743500000039, 35.7441565 ] } },
{ "type": "Feature", "properties": { "内容": "アスケア訪問入浴　足立西【訪問入浴介護】東京都足立区竹の塚１－２５－１６大橋ビル２階", "url": "https://www.kaigokensaku.mhlw.go.jp/13/index.php?action_kouhyou_detail_004_kani=true&JigyosyoCd=1372113454-00&ServiceCd=120&Type=search", "url2": "https://www.as-care.co.jp/" }, "geometry": { "type": "Point", "coordinates": [ 139.791311167799648, 35.792221110243283 ] } },
{ "type": "Feature", "properties": { "内容": "アスケア訪問入浴　千住【訪問入浴介護】東京都足立区柳原１－６－３中村ビル２０２号室", "url": "https://www.kaigokensaku.mhlw.go.jp/13/index.php?action_kouhyou_detail_004_kani=true&JigyosyoCd=1372114882-00&ServiceCd=120&Type=search", "url2": "https://www.as-care.co.jp/" }, "geometry": { "type": "Point", "coordinates": [ 139.811828558339727, 35.746883202460531 ] } },
{ "type": "Feature", "properties": { "内容": "アースサポート葛飾【訪問入浴介護】東京都葛飾区宝町2丁目19番6号", "url": "https://www.kaigokensaku.mhlw.go.jp/13/index.php?action_kouhyou_detail_004_kani=true&JigyosyoCd=1372200038-00&ServiceCd=120&Type=search", "url2": "https://www.earthsupport.co.jp" }, "geometry": { "type": "Point", "coordinates": [ 139.8357863, 35.7464965 ] } },
{ "type": "Feature", "properties": { "内容": "株式会社　愛和　葛飾営業所【訪問入浴介護】東京都葛飾区細田4-29-2", "url": "https://www.kaigokensaku.mhlw.go.jp/13/index.php?action_kouhyou_detail_004_kani=true&JigyosyoCd=1372204469-00&ServiceCd=120&Type=search", "url2": "http://www.aiwa-fukushi.com" }, "geometry": { "type": "Point", "coordinates": [ 139.872648292396264, 35.743186975137753 ] } },
{ "type": "Feature", "properties": { "内容": "訪問入浴たんぽぽ【訪問入浴介護】東京都葛飾区東金町5−35−9Kグレイス102号室", "url": "https://www.kaigokensaku.mhlw.go.jp/13/index.php?action_kouhyou_detail_004_kani=true&JigyosyoCd=1372208973-00&ServiceCd=120&Type=search", "url2": "https://sites.google.com/view/newwings026/%E3%83%9B%E3%83%BC%E3%83%A0?authuser=0" }, "geometry": { "type": "Point", "coordinates": [ 139.8788523, 35.7767124 ] } },
{ "type": "Feature", "properties": { "内容": "セントケア立石【訪問入浴介護】東京都葛飾区立石6-13-2小山ビル1F", "url": "https://www.kaigokensaku.mhlw.go.jp/13/index.php?action_kouhyou_detail_004_kani=true&JigyosyoCd=1372106300-00&ServiceCd=120&Type=search", "url2": "http://www.saint-care.com/tokyo/" }, "geometry": { "type": "Point", "coordinates": [ 139.8496595, 35.7439393 ] } },
{ "type": "Feature", "properties": { "内容": "ラック金町【訪問入浴介護】東京都葛飾区東金町1-36-2102", "url": "https://www.kaigokensaku.mhlw.go.jp/13/index.php?action_kouhyou_detail_004_kani=true&JigyosyoCd=1372203958-00&ServiceCd=120&Type=search", "url2": "http://www.lac-corp.jp/" }, "geometry": { "type": "Point", "coordinates": [ 139.870659599999954, 35.7714987 ] } },
{ "type": "Feature", "properties": { "内容": "アスケア訪問入浴　葛飾【訪問入浴介護】東京都葛飾区東水元２－２－１ＢＰＭ金町１階", "url": "https://www.kaigokensaku.mhlw.go.jp/13/index.php?action_kouhyou_detail_004_kani=true&JigyosyoCd=1372204816-00&ServiceCd=120&Type=search", "url2": "https://www.as-care.co.jp/" }, "geometry": { "type": "Point", "coordinates": [ 139.871916124017503, 35.775947004195807 ] } },
{ "type": "Feature", "properties": { "内容": "訪問入浴　ぽかぽか【訪問入浴介護】東京都江戸川区西小松川町31-8　2階", "url": "https://www.kaigokensaku.mhlw.go.jp/13/index.php?action_kouhyou_detail_004_kani=true&JigyosyoCd=1370806026-00&ServiceCd=120&Type=search", "url2": "http://espoir-kaigo.jp" }, "geometry": { "type": "Point", "coordinates": [ 139.8643059, 35.7000154 ] } },
{ "type": "Feature", "properties": { "内容": "アースサポート江戸川【訪問入浴介護】東京都江戸川区船堀6丁目4番8号", "url": "https://www.kaigokensaku.mhlw.go.jp/13/index.php?action_kouhyou_detail_004_kani=true&JigyosyoCd=1372302438-00&ServiceCd=120&Type=search", "url2": "https://www.earthsupport.co.jp" }, "geometry": { "type": "Point", "coordinates": [ 139.866958100000033, 35.6799905 ] } },
{ "type": "Feature", "properties": { "内容": "ウェル森永　北小岩営業所【訪問入浴介護】東京都江戸川区北小岩6丁目39番地18号", "url": "https://www.kaigokensaku.mhlw.go.jp/13/index.php?action_kouhyou_detail_004_kani=true&JigyosyoCd=1372303139-00&ServiceCd=120&Type=search", "url2": "http://www.wel-morinaga.co.jp/" }, "geometry": { "type": "Point", "coordinates": [ 139.886766387119906, 35.743287626531291 ] } },
{ "type": "Feature", "properties": { "内容": "株式会社　愛和　江戸川営業所【訪問入浴介護】東京都江戸川区西小岩2-11-41Ｆ", "url": "https://www.kaigokensaku.mhlw.go.jp/13/index.php?action_kouhyou_detail_004_kani=true&JigyosyoCd=1372305159-00&ServiceCd=120&Type=search", "url2": "http://www.aiwa-fukushi.com" }, "geometry": { "type": "Point", "coordinates": [ 139.874543438176005, 35.734277067610805 ] } },
{ "type": "Feature", "properties": { "内容": "アースサポート篠崎【訪問入浴介護】東京都江戸川区篠崎町2丁目57番10号", "url": "https://www.kaigokensaku.mhlw.go.jp/13/index.php?action_kouhyou_detail_004_kani=true&JigyosyoCd=1372308419-00&ServiceCd=120&Type=search", "url2": "https://www.earthsupport.co.jp/" }, "geometry": { "type": "Point", "coordinates": [ 139.909856399999967, 35.7074722 ] } },
{ "type": "Feature", "properties": { "内容": "いい湯だな【訪問入浴介護】東京都江戸川区西一之江3-15-15", "url": "https://www.kaigokensaku.mhlw.go.jp/13/index.php?action_kouhyou_detail_004_kani=true&JigyosyoCd=1372308534-00&ServiceCd=120&Type=search", "url2": "http://eyudana.webnode.jp/" }, "geometry": { "type": "Point", "coordinates": [ 139.87803455625874, 35.694795459893321 ] } },
{ "type": "Feature", "properties": { "内容": "いい湯だわ【訪問入浴介護】東京都江戸川区西瑞江3丁目19-72101", "url": "https://www.kaigokensaku.mhlw.go.jp/13/index.php?action_kouhyou_detail_004_kani=true&JigyosyoCd=1372310811-00&ServiceCd=120&Type=search", "url2": null }, "geometry": { "type": "Point", "coordinates": [ 139.892418548337645, 35.687703629262458 ] } },
{ "type": "Feature", "properties": { "内容": "湯～ふる【訪問入浴介護】東京都江戸川区春江町2－30－2", "url": "https://www.kaigokensaku.mhlw.go.jp/13/index.php?action_kouhyou_detail_004_kani=true&JigyosyoCd=1372311157-00&ServiceCd=120&Type=search", "url2": "https://www.u-full-kaigo.com" }, "geometry": { "type": "Point", "coordinates": [ 139.8897014, 35.701551 ] } },
{ "type": "Feature", "properties": { "内容": "アースサポート小岩【訪問入浴介護】東京都江戸川区北小岩6丁目9番4号", "url": "https://www.kaigokensaku.mhlw.go.jp/13/index.php?action_kouhyou_detail_004_kani=true&JigyosyoCd=1372305969-00&ServiceCd=120&Type=search", "url2": "https://www.earthsupport.co.jp" }, "geometry": { "type": "Point", "coordinates": [ 139.883234799999968, 35.7435385 ] } },
{ "type": "Feature", "properties": { "内容": "ウェル森永　篠崎営業所【訪問入浴介護】東京都江戸川区篠崎町8丁目14番15号シャインスター1Ｆ", "url": "https://www.kaigokensaku.mhlw.go.jp/13/index.php?action_kouhyou_detail_004_kani=true&JigyosyoCd=1372306074-00&ServiceCd=120&Type=search", "url2": "http://www.wel-morinaga.co.jp/" }, "geometry": { "type": "Point", "coordinates": [ 139.898490255017123, 35.70599883444396 ] } },
{ "type": "Feature", "properties": { "内容": "アスケア訪問入浴　小岩【訪問入浴介護】東京都江戸川区西小岩４－１４－６メゾン司　１階　１F号室", "url": "https://www.kaigokensaku.mhlw.go.jp/13/index.php?action_kouhyou_detail_004_kani=true&JigyosyoCd=1372307056-00&ServiceCd=120&Type=search", "url2": "https://www.as-care.co.jp/" }, "geometry": { "type": "Point", "coordinates": [ 139.881196424828545, 35.736073357368234 ] } },
{ "type": "Feature", "properties": { "内容": "アスケア訪問入浴　葛西【訪問入浴介護】東京都江戸川区中葛西７－２５－３エスポアール葛西１０１号室", "url": "https://www.kaigokensaku.mhlw.go.jp/13/index.php?action_kouhyou_detail_004_kani=true&JigyosyoCd=1372303691-00&ServiceCd=120&Type=search", "url2": "https://www.as-care.co.jp/" }, "geometry": { "type": "Point", "coordinates": [ 139.867425119755694, 35.658371338001608 ] } },
{ "type": "Feature", "properties": { "内容": "アースサポート多摩【訪問入浴介護】東京都八王子市松木32番17号", "url": "https://www.kaigokensaku.mhlw.go.jp/13/index.php?action_kouhyou_detail_004_kani=true&JigyosyoCd=1372900017-00&ServiceCd=120&Type=search", "url2": "https://www.earthsupport.co.jp" }, "geometry": { "type": "Point", "coordinates": [ 139.394798, 35.6257623 ] } },
{ "type": "Feature", "properties": { "内容": "アイム訪問入浴サービス【訪問入浴介護】東京都八王子市南大沢１－２２－２１", "url": "https://www.kaigokensaku.mhlw.go.jp/13/index.php?action_kouhyou_detail_004_kani=true&JigyosyoCd=1372901890-00&ServiceCd=120&Type=search", "url2": "http://a-i-m-inc.co.jp/" }, "geometry": { "type": "Point", "coordinates": [ 139.384818499999938, 35.616779800000018 ] } },
{ "type": "Feature", "properties": { "内容": "うちんく訪問入浴　八王子西【訪問入浴介護】東京都八王子市元八王子町1-437-1グランシャリオラピタ２B", "url": "https://www.kaigokensaku.mhlw.go.jp/13/index.php?action_kouhyou_detail_004_kani=true&JigyosyoCd=1372909323-00&ServiceCd=120&Type=search", "url2": "https://www.wakashi.co.jp" }, "geometry": { "type": "Point", "coordinates": [ 139.288251045226303, 35.665703861794725 ] } },
{ "type": "Feature", "properties": { "内容": "うちんく訪問入浴　八王子東【訪問入浴介護】東京都八王子市小比企町1051-1-2号棟", "url": "https://www.kaigokensaku.mhlw.go.jp/13/index.php?action_kouhyou_detail_004_kani=true&JigyosyoCd=1372909554-00&ServiceCd=120&Type=search", "url2": "https://www.wakashi.co.jp" }, "geometry": { "type": "Point", "coordinates": [ 139.3284207, 35.6429581 ] } },
{ "type": "Feature", "properties": { "内容": "アスケア訪問入浴　高尾【訪問入浴介護】東京都八王子市初沢町１３４８エクセルコート谷合１階１０１号室", "url": "https://www.kaigokensaku.mhlw.go.jp/13/index.php?action_kouhyou_detail_004_kani=true&JigyosyoCd=1372902641-00&ServiceCd=120&Type=search", "url2": "https://www.as-care.co.jp/" }, "geometry": { "type": "Point", "coordinates": [ 139.2822117, 35.6413203 ] } },
{ "type": "Feature", "properties": { "内容": "アスケア訪問入浴　八王子【訪問入浴介護】八王子市打越町２００１－３シエルド２０１号室", "url": "https://www.kaigokensaku.mhlw.go.jp/13/index.php?action_kouhyou_detail_004_kani=true&JigyosyoCd=1372907152-00&ServiceCd=120&Type=search", "url2": "https://www.as-care.co.jp/" }, "geometry": { "type": "Point", "coordinates": [ 139.3530568, 35.6443928 ] } },
{ "type": "Feature", "properties": { "内容": "アースサポート立川【訪問入浴介護】東京都立川市柴崎町2丁目2番10号", "url": "https://www.kaigokensaku.mhlw.go.jp/13/index.php?action_kouhyou_detail_004_kani=true&JigyosyoCd=1373001567-00&ServiceCd=120&Type=search", "url2": "https://www.earthsupport.co.jp" }, "geometry": { "type": "Point", "coordinates": [ 139.425503199999952, 35.696036 ] } },
{ "type": "Feature", "properties": { "内容": "セントケア立川（訪問入浴）【訪問入浴介護】東京都立川市柴崎町2-7-6さかえビル3F　301号室", "url": "https://www.kaigokensaku.mhlw.go.jp/13/index.php?action_kouhyou_detail_004_kani=true&JigyosyoCd=1373001633-00&ServiceCd=120&Type=search", "url2": "http://www.saint-care.com/tokyo/" }, "geometry": { "type": "Point", "coordinates": [ 139.40836975748573, 35.697188776864522 ] } },
{ "type": "Feature", "properties": { "内容": "アスケア訪問入浴　立川【訪問入浴介護】東京都立川市富士見町１－２１－１８１０１号室", "url": "https://www.kaigokensaku.mhlw.go.jp/13/index.php?action_kouhyou_detail_004_kani=true&JigyosyoCd=1373000312-00&ServiceCd=120&Type=search", "url2": "https://www.as-care.co.jp/" }, "geometry": { "type": "Point", "coordinates": [ 139.396496500000012, 35.7010242 ] } },
{ "type": "Feature", "properties": { "内容": "ニチイケアセンター武蔵野【訪問入浴介護】東京都武蔵野市境南町2-28-10", "url": "https://www.kaigokensaku.mhlw.go.jp/13/index.php?action_kouhyou_detail_004_kani=true&JigyosyoCd=1373300662-00&ServiceCd=120&Type=search", "url2": "http://www.nichiigakkan.co.jp" }, "geometry": { "type": "Point", "coordinates": [ 139.5464349, 35.6971638 ] } },
{ "type": "Feature", "properties": { "内容": "稲垣薬局ケアセンター　コトニア吉祥寺【訪問入浴介護】東京都武蔵野市吉祥寺南町5-15-10", "url": "https://www.kaigokensaku.mhlw.go.jp/13/index.php?action_kouhyou_detail_004_kani=true&JigyosyoCd=1373300829-00&ServiceCd=120&Type=search", "url2": "http://www.inagaki-group.jp/" }, "geometry": { "type": "Point", "coordinates": [ 139.5806705, 35.705125 ] } },
{ "type": "Feature", "properties": { "内容": "アースサポート武蔵野【訪問入浴介護】東京都武蔵野市西久保2丁目28番3号", "url": "https://www.kaigokensaku.mhlw.go.jp/13/index.php?action_kouhyou_detail_004_kani=true&JigyosyoCd=1373301165-00&ServiceCd=120&Type=search", "url2": "https://www.earthsupport.co.jp" }, "geometry": { "type": "Point", "coordinates": [ 139.55561130000001, 35.7098625 ] } },
{ "type": "Feature", "properties": { "内容": "セントケア三鷹【訪問入浴介護】東京都三鷹市下連雀3-21-11サンハイム三鷹1F", "url": "https://www.kaigokensaku.mhlw.go.jp/13/index.php?action_kouhyou_detail_004_kani=true&JigyosyoCd=1373601366-00&ServiceCd=120&Type=search", "url2": null }, "geometry": { "type": "Point", "coordinates": [ 139.562202899999988, 35.6985474 ] } },
{ "type": "Feature", "properties": { "内容": "アスケア訪問入浴　三鷹【訪問入浴介護】東京都三鷹市井口１－２４－９", "url": "https://www.kaigokensaku.mhlw.go.jp/13/index.php?action_kouhyou_detail_004_kani=true&JigyosyoCd=1373601671-00&ServiceCd=120&Type=search", "url2": "https://www.as-care.co.jp/" }, "geometry": { "type": "Point", "coordinates": [ 139.5468353, 35.6956136 ] } },
{ "type": "Feature", "properties": { "内容": "アースサポート青梅【訪問入浴介護】東京都青梅市河辺町10丁目14番地3", "url": "https://www.kaigokensaku.mhlw.go.jp/13/index.php?action_kouhyou_detail_004_kani=true&JigyosyoCd=1372801702-00&ServiceCd=120&Type=search", "url2": "https://www.earthsupport.co.jp/" }, "geometry": { "type": "Point", "coordinates": [ 139.2876258, 35.7864296 ] } },
{ "type": "Feature", "properties": { "内容": "めぐみケアサービス【訪問入浴介護】東京都青梅市河辺町8-2-23マルダイビル201", "url": "https://www.kaigokensaku.mhlw.go.jp/13/index.php?action_kouhyou_detail_004_kani=true&JigyosyoCd=1372802072-00&ServiceCd=120&Type=search", "url2": "https://megumicare.com/" }, "geometry": { "type": "Point", "coordinates": [ 139.292907199999973, 35.7831818 ] } },
{ "type": "Feature", "properties": { "内容": "アスケア訪問入浴　青梅【訪問入浴介護】東京都青梅市河辺町10－10－9梅林ビル3階", "url": "https://www.kaigokensaku.mhlw.go.jp/13/index.php?action_kouhyou_detail_004_kani=true&JigyosyoCd=1372801306-00&ServiceCd=120&Type=search", "url2": "https://www.as-care.co.jp/" }, "geometry": { "type": "Point", "coordinates": [ 139.285584237431976, 35.786439723315389 ] } },
{ "type": "Feature", "properties": { "内容": "株式会社ウチヤマ訪問入浴サービス【訪問入浴介護】東京都府中市西府町３－２０－１ライオンズマンションヴィアーレ府中３０４", "url": "https://www.kaigokensaku.mhlw.go.jp/13/index.php?action_kouhyou_detail_004_kani=true&JigyosyoCd=1373801750-00&ServiceCd=120&Type=search", "url2": null }, "geometry": { "type": "Point", "coordinates": [ 139.458687387310789, 35.679441131214979 ] } },
{ "type": "Feature", "properties": { "内容": "アスケア訪問入浴　国分寺【訪問入浴介護】東京都府中市武蔵台２－２０－１６メゾンド樹庵１階", "url": "https://www.kaigokensaku.mhlw.go.jp/13/index.php?action_kouhyou_detail_004_kani=true&JigyosyoCd=1373801826-00&ServiceCd=120&Type=search", "url2": "https://www.as-care.co.jp/" }, "geometry": { "type": "Point", "coordinates": [ 139.464233309296787, 35.694817518938443 ] } },
{ "type": "Feature", "properties": { "内容": "アスケア訪問入浴　府中【訪問入浴介護】東京都府中市美好町１－３２－１１シーザーレジデンス美好町１０６号室", "url": "https://www.kaigokensaku.mhlw.go.jp/13/index.php?action_kouhyou_detail_004_kani=true&JigyosyoCd=1373804283-00&ServiceCd=120&Type=search", "url2": "https://www.as-care.co.jp/" }, "geometry": { "type": "Point", "coordinates": [ 139.4684006, 35.673490753405545 ] } },
{ "type": "Feature", "properties": { "内容": "アースサポート府中【訪問入浴介護】東京都府中市片町2丁目10番地の１", "url": "https://www.kaigokensaku.mhlw.go.jp/13/index.php?action_kouhyou_detail_004_kani=true&JigyosyoCd=1373801958-00&ServiceCd=120&Type=search", "url2": "https://www.earthsupport.co.jp/" }, "geometry": { "type": "Point", "coordinates": [ 139.471631399999978, 35.6697982 ] } },
{ "type": "Feature", "properties": { "内容": "アースサポート昭島【訪問入浴介護】東京都昭島市昭和町5丁目5番4号", "url": "https://www.kaigokensaku.mhlw.go.jp/13/index.php?action_kouhyou_detail_004_kani=true&JigyosyoCd=1374001236-00&ServiceCd=120&Type=search", "url2": "https://www.earthsupport.co.jp/" }, "geometry": { "type": "Point", "coordinates": [ 139.36106129999996, 35.7119436 ] } },
{ "type": "Feature", "properties": { "内容": "アースサポート調布【訪問入浴介護】東京都調布市東つつじヶ丘1丁目5番2号", "url": "https://www.kaigokensaku.mhlw.go.jp/13/index.php?action_kouhyou_detail_004_kani=true&JigyosyoCd=1374200846-00&ServiceCd=120&Type=search", "url2": "https://www.earthsupport.co.jp/" }, "geometry": { "type": "Point", "coordinates": [ 139.576053300000012, 35.6596633 ] } },
{ "type": "Feature", "properties": { "内容": "アスケア訪問入浴　調布【訪問入浴介護】東京都調布市下石原1-2-4ヤシマビル1階", "url": "https://www.kaigokensaku.mhlw.go.jp/13/index.php?action_kouhyou_detail_004_kani=true&JigyosyoCd=1374203063-00&ServiceCd=120&Type=search", "url2": "https://www.as-care.co.jp/" }, "geometry": { "type": "Point", "coordinates": [ 139.534031378643931, 35.657691092678675 ] } },
{ "type": "Feature", "properties": { "内容": "アースサポート町田【訪問入浴介護】東京都町田市森野3丁目20番5号", "url": "https://www.kaigokensaku.mhlw.go.jp/13/index.php?action_kouhyou_detail_004_kani=true&JigyosyoCd=1373202264-00&ServiceCd=120&Type=search", "url2": "http://www.earthsupport.co.jp" }, "geometry": { "type": "Point", "coordinates": [ 139.439537800000039, 35.5519138 ] } },
{ "type": "Feature", "properties": { "内容": "ツクイ町田森野【訪問入浴介護】東京都町田市森野５－２１－１渋谷ツインビル１０３号", "url": "https://www.kaigokensaku.mhlw.go.jp/13/index.php?action_kouhyou_detail_004_kani=true&JigyosyoCd=1373200409-00&ServiceCd=120&Type=search", "url2": null }, "geometry": { "type": "Point", "coordinates": [ 139.434038399999963, 35.5501473 ] } },
{ "type": "Feature", "properties": { "内容": "アスケア訪問入浴　成瀬【訪問入浴介護】東京都町田市南成瀬５－１－６コーポ台益ナルセ地下１階", "url": "https://www.kaigokensaku.mhlw.go.jp/13/index.php?action_kouhyou_detail_004_kani=true&JigyosyoCd=1373206992-00&ServiceCd=120&Type=search", "url2": "https://www.as-care.co.jp/" }, "geometry": { "type": "Point", "coordinates": [ 139.474628535276111, 35.536060835151574 ] } },
{ "type": "Feature", "properties": { "内容": "アスケア訪問入浴　町田【訪問入浴介護】東京都町田市木曽東３－２－５", "url": "https://www.kaigokensaku.mhlw.go.jp/13/index.php?action_kouhyou_detail_004_kani=true&JigyosyoCd=1373204955-00&ServiceCd=120&Type=search", "url2": "https://www.as-care.co.jp/" }, "geometry": { "type": "Point", "coordinates": [ 139.425798, 35.559634899999985 ] } },
{ "type": "Feature", "properties": { "内容": "桜町訪問入浴ステーション【訪問入浴介護】東京都小金井市桜町1-9-5", "url": "https://www.kaigokensaku.mhlw.go.jp/13/index.php?action_kouhyou_detail_004_kani=true&JigyosyoCd=1374100129-00&ServiceCd=120&Type=search", "url2": "http://www.seiyohanekai.or.jp" }, "geometry": { "type": "Point", "coordinates": [ 139.511851299999989, 35.7106056 ] } },
{ "type": "Feature", "properties": { "内容": "訪問入浴サービス　ぴーす【訪問入浴介護】東京都小平市小川東町1－28－6東京都小平市小川東町マロニエハイツ１０３号", "url": "https://www.kaigokensaku.mhlw.go.jp/13/index.php?action_kouhyou_detail_004_kani=true&JigyosyoCd=1374303590-00&ServiceCd=120&Type=search", "url2": "http://hp.kaipoke.biz/nn4" }, "geometry": { "type": "Point", "coordinates": [ 139.4641987, 35.7382768 ] } },
{ "type": "Feature", "properties": { "内容": "アースサポート小平【訪問入浴介護】東京都小平市美園町1丁目7番3号", "url": "https://www.kaigokensaku.mhlw.go.jp/13/index.php?action_kouhyou_detail_004_kani=true&JigyosyoCd=1374301685-00&ServiceCd=120&Type=search", "url2": "https://www.earthsupport.co.jp" }, "geometry": { "type": "Point", "coordinates": [ 139.486852099999965, 35.7346075 ] } },
{ "type": "Feature", "properties": { "内容": "アスケア訪問入浴　小平【訪問入浴介護】東京都小平市仲町５７１－２ラリーマンション　１階東号室", "url": "https://www.kaigokensaku.mhlw.go.jp/13/index.php?action_kouhyou_detail_004_kani=true&JigyosyoCd=1374301164-00&ServiceCd=120&Type=search", "url2": "https://www.as-care.co.jp/" }, "geometry": { "type": "Point", "coordinates": [ 139.483184735887818, 35.730584328325058 ] } },
{ "type": "Feature", "properties": { "内容": "アスケア訪問入浴　日野【訪問入浴介護】東京都日野市高幡１０１２－１下田ビル１０３", "url": "https://www.kaigokensaku.mhlw.go.jp/13/index.php?action_kouhyou_detail_004_kani=true&JigyosyoCd=1373502226-00&ServiceCd=120&Type=search", "url2": "https://www.as-care.co.jp/" }, "geometry": { "type": "Point", "coordinates": [ 139.41613525052685, 35.66235567451735 ] } },
{ "type": "Feature", "properties": { "内容": "アースサポート東村山【訪問入浴介護】東京都東村山市野口町1丁目17番地2", "url": "https://www.kaigokensaku.mhlw.go.jp/13/index.php?action_kouhyou_detail_004_kani=true&JigyosyoCd=1372701597-00&ServiceCd=120&Type=search", "url2": "https://www.earthsupport.co.jp" }, "geometry": { "type": "Point", "coordinates": [ 139.464750500000036, 35.7612599 ] } },
{ "type": "Feature", "properties": { "内容": "アスケア訪問入浴　東村山【訪問入浴介護】東京都東村山市野口町３丁目１－１０オークハイツ１０２号室", "url": "https://www.kaigokensaku.mhlw.go.jp/13/index.php?action_kouhyou_detail_004_kani=true&JigyosyoCd=1372701324-00&ServiceCd=120&Type=search", "url2": "https://www.as-care.co.jp/" }, "geometry": { "type": "Point", "coordinates": [ 139.458517075463078, 35.761567496516165 ] } },
{ "type": "Feature", "properties": { "内容": "介護センター　みらい【訪問入浴介護】東京都福生市加美平二丁目１番地１３", "url": "https://www.kaigokensaku.mhlw.go.jp/13/index.php?action_kouhyou_detail_004_kani=true&JigyosyoCd=1374400552-00&ServiceCd=120&Type=search", "url2": "https://www.care-mirai.com" }, "geometry": { "type": "Point", "coordinates": [ 139.3255848, 35.7456746 ] } },
{ "type": "Feature", "properties": { "内容": "湯あ～ず【訪問入浴介護】東京都武蔵村山市榎3-36-1ハイツカミーナ101", "url": "https://www.kaigokensaku.mhlw.go.jp/13/index.php?action_kouhyou_detail_004_kani=true&JigyosyoCd=1374901443-00&ServiceCd=120&Type=search", "url2": null }, "geometry": { "type": "Point", "coordinates": [ 139.388264099999986, 35.748650200000014 ] } },
{ "type": "Feature", "properties": { "内容": "訪問入浴サービスあじさい【訪問入浴介護】東京都稲城市平尾１－５４－１５あじさいビル２０２", "url": "https://www.kaigokensaku.mhlw.go.jp/13/index.php?action_kouhyou_detail_004_kani=true&JigyosyoCd=1375100789-00&ServiceCd=120&Type=search", "url2": null }, "geometry": { "type": "Point", "coordinates": [ 139.4965995, 35.609666300000022 ] } },
{ "type": "Feature", "properties": { "内容": "有限会社シルバーライフ【訪問入浴介護】東京都あきる野市網代167番地1", "url": "https://www.kaigokensaku.mhlw.go.jp/13/index.php?action_kouhyou_detail_004_kani=true&JigyosyoCd=1374900221-00&ServiceCd=120&Type=search", "url2": null }, "geometry": { "type": "Point", "coordinates": [ 139.249378699999966, 35.724659 ] } },
{ "type": "Feature", "properties": { "内容": "アースサポートひばりが丘【訪問入浴介護】東京都西東京市ひばりが丘1丁目9番29号", "url": "https://www.kaigokensaku.mhlw.go.jp/13/index.php?action_kouhyou_detail_004_kani=true&JigyosyoCd=1375401245-00&ServiceCd=120&Type=search", "url2": "https://www.earthsupport.co.jp/" }, "geometry": { "type": "Point", "coordinates": [ 139.541595863628771, 35.751110315883203 ] } },
{ "type": "Feature", "properties": { "内容": "アスケア訪問入浴　西東京【訪問入浴介護】東京都西東京市西原町１－４－６サンハイツ１階　１０１", "url": "https://www.kaigokensaku.mhlw.go.jp/13/index.php?action_kouhyou_detail_004_kani=true&JigyosyoCd=1375400668-00&ServiceCd=120&Type=search", "url2": "https://www.as-care.co.jp/" }, "geometry": { "type": "Point", "coordinates": [ 139.538019935071588, 35.732249770316841 ] } },
{ "type": "Feature", "properties": { "内容": "セイブケア【訪問入浴介護】東京都西多摩郡瑞穂町高根98番地", "url": "https://www.kaigokensaku.mhlw.go.jp/13/index.php?action_kouhyou_detail_004_kani=true&JigyosyoCd=1372401255-00&ServiceCd=120&Type=search", "url2": "http://www.savecare.co.jp//" }, "geometry": { "type": "Point", "coordinates": [ 139.363133599999969, 35.7842988 ] } },
{ "type": "Feature", "properties": { "内容": "アースサポート瑞穂【訪問入浴介護】東京都西多摩郡瑞穂町大字箱根ヶ崎215番地16", "url": "https://www.kaigokensaku.mhlw.go.jp/13/index.php?action_kouhyou_detail_004_kani=true&JigyosyoCd=1372401271-00&ServiceCd=120&Type=search", "url2": "https://www.earthsupport.co.jp/" }, "geometry": { "type": "Point", "coordinates": [ 139.348396699999967, 35.7684892 ] } },
{ "type": "Feature", "properties": { "内容": "大島町高齢者在宅サービスセンター【訪問入浴介護】東京都大島町元町字地の岡45番１", "url": "https://www.kaigokensaku.mhlw.go.jp/13/index.php?action_kouhyou_detail_004_kani=true&JigyosyoCd=1370300566-00&ServiceCd=120&Type=search", "url2": "http://care-net.biz/13/tubakinosato/" }, "geometry": { "type": "Point", "coordinates": [ 139.365013500000032, 34.7716926 ] } },
{ "type": "Feature", "properties": { "内容": "やすらぎ入浴サービス【訪問入浴介護】東京都八丈島八丈町三根２八丈町保健福祉センター", "url": "https://www.kaigokensaku.mhlw.go.jp/13/index.php?action_kouhyou_detail_004_kani=true&JigyosyoCd=1370300673-00&ServiceCd=120&Type=search", "url2": "http://8jo-syakyo.or.jp/" }, "geometry": { "type": "Point", "coordinates": [ 139.793605993995669, 33.113263917822998 ] } }
]
}
