{
"type": "FeatureCollection",
"name": "geo_13_短期入所療養介護（介護老人保健施設）",
"crs": { "type": "name", "properties": { "name": "urn:ogc:def:crs:OGC:1.3:CRS84" } },
"features": [
{ "type": "Feature", "properties": { "内容": "中央区立介護老人保健施設リハポート明石【短期入所療養介護（介護老人保健施設）】東京都中央区明石町1-6", "url2": "https://www.kaigokensaku.mhlw.go.jp/13/index.php?action_kouhyou_detail_004_kani=true&JigyosyoCd=1357081250-00&ServiceCd=220&Type=search" }, "geometry": { "type": "Point", "coordinates": [ 139.776702800000066, 35.6693091 ] } },
{ "type": "Feature", "properties": { "内容": "介護老人保健施設新橋ばらの園【短期入所療養介護（介護老人保健施設）】東京都港区新橋6-19-2", "url2": "https://www.kaigokensaku.mhlw.go.jp/13/index.php?action_kouhyou_detail_004_kani=true&JigyosyoCd=1357081466-00&ServiceCd=220&Type=search" }, "geometry": { "type": "Point", "coordinates": [ 139.753779500000064, 35.6612067 ] } },
{ "type": "Feature", "properties": { "内容": "介護老人保健施設洛和ヴィラサラサ短期入所療養介護【短期入所療養介護（介護老人保健施設）】東京都港区南麻布4-6-1北棟", "url2": "https://www.kaigokensaku.mhlw.go.jp/13/index.php?action_kouhyou_detail_004_kani=true&JigyosyoCd=1350380018-00&ServiceCd=220&Type=search" }, "geometry": { "type": "Point", "coordinates": [ 139.726679500000046, 35.6502766 ] } },
{ "type": "Feature", "properties": { "内容": "介護老人保健施設　ルネサンス麻布【短期入所療養介護（介護老人保健施設）】東京都港区南麻布２丁目１０番２１号", "url2": "https://www.kaigokensaku.mhlw.go.jp/13/index.php?action_kouhyou_detail_004_kani=true&JigyosyoCd=1357080633-00&ServiceCd=220&Type=search" }, "geometry": { "type": "Point", "coordinates": [ 139.735162100000025, 35.6479133 ] } },
{ "type": "Feature", "properties": { "内容": "介護老人保健施設デンマークイン新宿【短期入所療養介護（介護老人保健施設）】東京都新宿区原町二丁目43番地", "url2": "https://www.kaigokensaku.mhlw.go.jp/13/index.php?action_kouhyou_detail_004_kani=true&JigyosyoCd=1357081177-00&ServiceCd=220&Type=search" }, "geometry": { "type": "Point", "coordinates": [ 139.723821899999962, 35.6989151 ] } },
{ "type": "Feature", "properties": { "内容": "マイウェイ四谷【短期入所療養介護（介護老人保健施設）】東京都新宿区大京町1-3", "url2": "https://www.kaigokensaku.mhlw.go.jp/13/index.php?action_kouhyou_detail_004_kani=true&JigyosyoCd=1357081441-00&ServiceCd=220&Type=search" }, "geometry": { "type": "Point", "coordinates": [ 139.719128599999976, 35.6866303 ] } },
{ "type": "Feature", "properties": { "内容": "介護老人保健施設フォレスト西早稲田【短期入所療養介護（介護老人保健施設）】東京都新宿区西早稲田3-27-22", "url2": "https://www.kaigokensaku.mhlw.go.jp/13/index.php?action_kouhyou_detail_004_kani=true&JigyosyoCd=1350480016-00&ServiceCd=220&Type=search" }, "geometry": { "type": "Point", "coordinates": [ 139.7109547, 35.7117949 ] } },
{ "type": "Feature", "properties": { "内容": "龍岡介護老人保健施設【短期入所療養介護（介護老人保健施設）】東京都文京区湯島4－9－8", "url2": "https://www.kaigokensaku.mhlw.go.jp/13/index.php?action_kouhyou_detail_004_kani=true&JigyosyoCd=1357080260-00&ServiceCd=220&Type=search" }, "geometry": { "type": "Point", "coordinates": [ 139.764591200000041, 35.7095651 ] } },
{ "type": "Feature", "properties": { "内容": "介護老人保健施設　音羽えびすの郷【短期入所療養介護（介護老人保健施設）】東京都文京区音羽1-22-14介護老人保健施設　音羽えびすの郷", "url2": "https://www.kaigokensaku.mhlw.go.jp/13/index.php?action_kouhyou_detail_004_kani=true&JigyosyoCd=1350580013-00&ServiceCd=220&Type=search" }, "geometry": { "type": "Point", "coordinates": [ 139.7297155, 35.7138832 ] } },
{ "type": "Feature", "properties": { "内容": "台東区立老人保健施設千束【短期入所療養介護（介護老人保健施設）】東京都台東区千束３－２０－５", "url2": "https://www.kaigokensaku.mhlw.go.jp/13/index.php?action_kouhyou_detail_004_kani=true&JigyosyoCd=1350680011-00&ServiceCd=220&Type=search" }, "geometry": { "type": "Point", "coordinates": [ 139.792616299999963, 35.7228232 ] } },
{ "type": "Feature", "properties": { "内容": "浅草介護老人保健施設【短期入所療養介護（介護老人保健施設）】東京都台東区寿４－８－２", "url2": "https://www.kaigokensaku.mhlw.go.jp/13/index.php?action_kouhyou_detail_004_kani=true&JigyosyoCd=1357081011-00&ServiceCd=220&Type=search" }, "geometry": { "type": "Point", "coordinates": [ 139.791869899999938, 35.708966 ] } },
{ "type": "Feature", "properties": { "内容": "ろうけん隅田秋光園【短期入所療養介護（介護老人保健施設）】東京都墨田区横網2-7-13", "url2": "https://www.kaigokensaku.mhlw.go.jp/13/index.php?action_kouhyou_detail_004_kani=true&JigyosyoCd=1350780027-00&ServiceCd=220&Type=search" }, "geometry": { "type": "Point", "coordinates": [ 139.794855500000011, 35.7011026 ] } },
{ "type": "Feature", "properties": { "内容": "医療法人社団　葵会　介護老人保健施設　葵の園・向島【短期入所療養介護（介護老人保健施設）】東京都墨田区向島三丁目１番13号", "url2": "https://www.kaigokensaku.mhlw.go.jp/13/index.php?action_kouhyou_detail_004_kani=true&JigyosyoCd=1357081169-00&ServiceCd=220&Type=search" }, "geometry": { "type": "Point", "coordinates": [ 139.806382399999961, 35.7129381 ] } },
{ "type": "Feature", "properties": { "内容": "櫻川介護老人保健施設【短期入所療養介護（介護老人保健施設）】東京都墨田区堤通1-9-8", "url2": "https://www.kaigokensaku.mhlw.go.jp/13/index.php?action_kouhyou_detail_004_kani=true&JigyosyoCd=1357081375-00&ServiceCd=220&Type=search" }, "geometry": { "type": "Point", "coordinates": [ 139.8111427, 35.7245706 ] } },
{ "type": "Feature", "properties": { "内容": "介護老人保健施設ベレール向島【短期入所療養介護（介護老人保健施設）】東京都墨田区東向島2-36-11", "url2": "https://www.kaigokensaku.mhlw.go.jp/13/index.php?action_kouhyou_detail_004_kani=true&JigyosyoCd=1350780019-00&ServiceCd=220&Type=search" }, "geometry": { "type": "Point", "coordinates": [ 139.8181978, 35.7216348 ] } },
{ "type": "Feature", "properties": { "内容": "医療法人社団　湖聖会　介護老人保健施設　キーストーン【短期入所療養介護（介護老人保健施設）】東京都江東区亀戸３－３６－１", "url2": "https://www.kaigokensaku.mhlw.go.jp/13/index.php?action_kouhyou_detail_004_kani=true&JigyosyoCd=1350880017-00&ServiceCd=220&Type=search" }, "geometry": { "type": "Point", "coordinates": [ 139.819328700000028, 35.7072746 ] } },
{ "type": "Feature", "properties": { "内容": "東京城東病院附属介護老人保健施設【短期入所療養介護（介護老人保健施設）】東京都江東区亀戸９丁目13-1", "url2": "https://www.kaigokensaku.mhlw.go.jp/13/index.php?action_kouhyou_detail_004_kani=true&JigyosyoCd=1357080286-00&ServiceCd=220&Type=search" }, "geometry": { "type": "Point", "coordinates": [ 139.8459348, 35.6952155 ] } },
{ "type": "Feature", "properties": { "内容": "介護老人保健施設　メディケアイースト【短期入所療養介護（介護老人保健施設）】東京都江東区新砂３－３－３８", "url2": "https://www.kaigokensaku.mhlw.go.jp/13/index.php?action_kouhyou_detail_004_kani=true&JigyosyoCd=1357081144-00&ServiceCd=220&Type=search" }, "geometry": { "type": "Point", "coordinates": [ 139.832308399999988, 35.665402 ] } },
{ "type": "Feature", "properties": { "内容": "かがやきライフ江東【短期入所療養介護（介護老人保健施設）】東京都江東区枝川3-8-18", "url2": "https://www.kaigokensaku.mhlw.go.jp/13/index.php?action_kouhyou_detail_004_kani=true&JigyosyoCd=1357081359-00&ServiceCd=220&Type=search" }, "geometry": { "type": "Point", "coordinates": [ 139.8119431, 35.6586405 ] } },
{ "type": "Feature", "properties": { "内容": "介護老人保健施設　葵の園・江東区【短期入所療養介護（介護老人保健施設）】東京都江東区北砂2-18-1", "url2": "https://www.kaigokensaku.mhlw.go.jp/13/index.php?action_kouhyou_detail_004_kani=true&JigyosyoCd=1350880025-00&ServiceCd=220&Type=search" }, "geometry": { "type": "Point", "coordinates": [ 139.826386599999978, 35.6810666 ] } },
{ "type": "Feature", "properties": { "内容": "介護老人保健施設　清らかの里【短期入所療養介護（介護老人保健施設）】東京都江東区東砂四丁目２０番２号愛育メディカルセンター", "url2": "https://www.kaigokensaku.mhlw.go.jp/13/index.php?action_kouhyou_detail_004_kani=true&JigyosyoCd=1357081086-00&ServiceCd=220&Type=search" }, "geometry": { "type": "Point", "coordinates": [ 139.838693799999987, 35.6778312 ] } },
{ "type": "Feature", "properties": { "内容": "介護老人保健施設ソピア御殿山【短期入所療養介護（介護老人保健施設）】東京都品川区北品川５丁目２番１号品川リハビリテーションパーク・品川区立大崎図書館", "url2": "https://www.kaigokensaku.mhlw.go.jp/13/index.php?action_kouhyou_detail_004_kani=true&JigyosyoCd=1350980015-00&ServiceCd=220&Type=search" }, "geometry": { "type": "Point", "coordinates": [ 139.7317002, 35.623211 ] } },
{ "type": "Feature", "properties": { "内容": "介護老人保健施設　　　ケアセンター南大井【短期入所療養介護（介護老人保健施設）】東京都品川区南大井5-19-1高齢者保健福祉複合施設", "url2": "https://www.kaigokensaku.mhlw.go.jp/13/index.php?action_kouhyou_detail_004_kani=true&JigyosyoCd=1357080864-00&ServiceCd=220&Type=search" }, "geometry": { "type": "Point", "coordinates": [ 139.733981099999937, 35.5946474 ] } },
{ "type": "Feature", "properties": { "内容": "大田ナーシングホーム翔裕園【短期入所療養介護（介護老人保健施設）】東京都大田区東六郷１－１２－１1", "url2": "https://www.kaigokensaku.mhlw.go.jp/13/index.php?action_kouhyou_detail_004_kani=true&JigyosyoCd=1357081243-00&ServiceCd=220&Type=search" }, "geometry": { "type": "Point", "coordinates": [ 139.719637299999931, 35.5538191 ] } },
{ "type": "Feature", "properties": { "内容": "介護老人保健施設　和光の園【短期入所療養介護（介護老人保健施設）】東京都大田区大森西4-12-1", "url2": "https://www.kaigokensaku.mhlw.go.jp/13/index.php?action_kouhyou_detail_004_kani=true&JigyosyoCd=1351180029-00&ServiceCd=220&Type=search" }, "geometry": { "type": "Point", "coordinates": [ 139.723163600000021, 35.5727358 ] } },
{ "type": "Feature", "properties": { "内容": "社会医療法人財団　仁医会　介護老人保健施設　大森平和の里【短期入所療養介護（介護老人保健施設）】東京都大田区大森本町１丁目７番６号", "url2": "https://www.kaigokensaku.mhlw.go.jp/13/index.php?action_kouhyou_detail_004_kani=true&JigyosyoCd=1357081219-00&ServiceCd=220&Type=search" }, "geometry": { "type": "Point", "coordinates": [ 139.736756499999956, 35.5850458 ] } },
{ "type": "Feature", "properties": { "内容": "短期入所療養介護　アクア東糀谷【短期入所療養介護（介護老人保健施設）】東京都大田区東糀谷六丁目４番１７号", "url2": "https://www.kaigokensaku.mhlw.go.jp/13/index.php?action_kouhyou_detail_004_kani=true&JigyosyoCd=1357081532-00&ServiceCd=220&Type=search" }, "geometry": { "type": "Point", "coordinates": [ 139.751026599999932, 35.5592414 ] } },
{ "type": "Feature", "properties": { "内容": "介護老人保健施設コージーハウスはすぬま【短期入所療養介護（介護老人保健施設）】東京都大田区東矢口３丁目８番１１号", "url2": "https://www.kaigokensaku.mhlw.go.jp/13/index.php?action_kouhyou_detail_004_kani=true&JigyosyoCd=1357081409-00&ServiceCd=220&Type=search" }, "geometry": { "type": "Point", "coordinates": [ 139.706135499999959, 35.5632482 ] } },
{ "type": "Feature", "properties": { "内容": "介護老人保健施設　梅ヶ丘【短期入所療養介護（介護老人保健施設）】東京都世田谷区松原六丁目37番1号東京リハビリテーションセンター世田谷", "url2": "https://www.kaigokensaku.mhlw.go.jp/13/index.php?action_kouhyou_detail_004_kani=true&JigyosyoCd=1351280035-00&ServiceCd=220&Type=search" }, "geometry": { "type": "Point", "coordinates": [ 139.650629400000014, 35.6576848 ] } },
{ "type": "Feature", "properties": { "内容": "老人保健施設　ビバ・フローラ【短期入所療養介護（介護老人保健施設）】東京都世田谷区世田谷１丁目１６番２号", "url2": "https://www.kaigokensaku.mhlw.go.jp/13/index.php?action_kouhyou_detail_004_kani=true&JigyosyoCd=1357080336-00&ServiceCd=220&Type=search" }, "geometry": { "type": "Point", "coordinates": [ 139.650431, 35.6415949 ] } },
{ "type": "Feature", "properties": { "内容": "介護老人保健施設　ホスピア三軒茶屋【短期入所療養介護（介護老人保健施設）】東京都世田谷区三軒茶屋1-16-13", "url2": "https://www.kaigokensaku.mhlw.go.jp/13/index.php?action_kouhyou_detail_004_kani=true&JigyosyoCd=1357080351-00&ServiceCd=220&Type=search" }, "geometry": { "type": "Point", "coordinates": [ 139.670540399999936, 35.6401817 ] } },
{ "type": "Feature", "properties": { "内容": "介護老人保健施設　玉川すばる【短期入所療養介護（介護老人保健施設）】東京都世田谷区瀬田４－１－１４", "url2": "https://www.kaigokensaku.mhlw.go.jp/13/index.php?action_kouhyou_detail_004_kani=true&JigyosyoCd=1357081474-00&ServiceCd=220&Type=search" }, "geometry": { "type": "Point", "coordinates": [ 139.627675899999986, 35.6178677 ] } },
{ "type": "Feature", "properties": { "内容": "医療法人社団美誠会　介護老人保健施設　サンセール世田谷大蔵【短期入所療養介護（介護老人保健施設）】東京都世田谷区大蔵1-3-22", "url2": "https://www.kaigokensaku.mhlw.go.jp/13/index.php?action_kouhyou_detail_004_kani=true&JigyosyoCd=1351280019-00&ServiceCd=220&Type=search" }, "geometry": { "type": "Point", "coordinates": [ 139.6211644, 35.635679 ] } },
{ "type": "Feature", "properties": { "内容": "介護老人保健施設グリーンポート恵比寿【短期入所療養介護（介護老人保健施設）】東京都渋谷区恵比寿3-36-5", "url2": "https://www.kaigokensaku.mhlw.go.jp/13/index.php?action_kouhyou_detail_004_kani=true&JigyosyoCd=1357080658-00&ServiceCd=220&Type=search" }, "geometry": { "type": "Point", "coordinates": [ 139.719058200000063, 35.6423995 ] } },
{ "type": "Feature", "properties": { "内容": "日本赤十字社総合福祉センター　介護老人保健施設　レクロス広尾【短期入所療養介護（介護老人保健施設）】東京都渋谷区広尾4丁目1番23号日本赤十字社総合福祉センター", "url2": "https://www.kaigokensaku.mhlw.go.jp/13/index.php?action_kouhyou_detail_004_kani=true&JigyosyoCd=1351380017-00&ServiceCd=220&Type=search" }, "geometry": { "type": "Point", "coordinates": [ 139.718994504229727, 35.654511608433417 ] } },
{ "type": "Feature", "properties": { "内容": "介護老人保健施設中野すみれ苑【短期入所療養介護（介護老人保健施設）】東京都中野区弥生町6丁目7番16号", "url2": "https://www.kaigokensaku.mhlw.go.jp/13/index.php?action_kouhyou_detail_004_kani=true&JigyosyoCd=1351480015-00&ServiceCd=220&Type=search" }, "geometry": { "type": "Point", "coordinates": [ 139.6614774, 35.685837 ] } },
{ "type": "Feature", "properties": { "内容": "リハビリテーションセンター江古田の森【短期入所療養介護（介護老人保健施設）】東京都中野区江古田3-14-19", "url2": "https://www.kaigokensaku.mhlw.go.jp/13/index.php?action_kouhyou_detail_004_kani=true&JigyosyoCd=1357081540-00&ServiceCd=220&Type=search" }, "geometry": { "type": "Point", "coordinates": [ 139.665365, 35.729588 ] } },
{ "type": "Feature", "properties": { "内容": "社会福祉法人浴風会　老健くぬぎ【短期入所療養介護（介護老人保健施設）】東京都杉並区高井戸西1-12-1", "url2": "https://www.kaigokensaku.mhlw.go.jp/13/index.php?action_kouhyou_detail_004_kani=true&JigyosyoCd=1351580012-00&ServiceCd=220&Type=search" }, "geometry": { "type": "Point", "coordinates": [ 139.609105401713578, 35.680373427718465 ] } },
{ "type": "Feature", "properties": { "内容": "ブース記念老人保健施設　グレイス【短期入所療養介護（介護老人保健施設）】東京都杉並区和田１－４０－１５", "url2": "https://www.kaigokensaku.mhlw.go.jp/13/index.php?action_kouhyou_detail_004_kani=true&JigyosyoCd=1357080195-00&ServiceCd=220&Type=search" }, "geometry": { "type": "Point", "coordinates": [ 139.660480900000039, 35.6911725 ] } },
{ "type": "Feature", "properties": { "内容": "介護老人保健施設　ウェルファー【短期入所療養介護（介護老人保健施設）】東京都杉並区堀ノ内１－６－６", "url2": "https://www.kaigokensaku.mhlw.go.jp/13/index.php?action_kouhyou_detail_004_kani=true&JigyosyoCd=1357080583-00&ServiceCd=220&Type=search" }, "geometry": { "type": "Point", "coordinates": [ 139.6535235, 35.6831316 ] } },
{ "type": "Feature", "properties": { "内容": "介護老人保健施設シーダ・ウォーク【短期入所療養介護（介護老人保健施設）】東京都杉並区桃井3-4-9", "url2": "https://www.kaigokensaku.mhlw.go.jp/13/index.php?action_kouhyou_detail_004_kani=true&JigyosyoCd=1357081284-00&ServiceCd=220&Type=search" }, "geometry": { "type": "Point", "coordinates": [ 139.605684699999983, 35.7116972 ] } },
{ "type": "Feature", "properties": { "内容": "介護老人保健施設　池袋えびすの郷【短期入所療養介護（介護老人保健施設）】東京都豊島区池袋本町2-34-1", "url2": "https://www.kaigokensaku.mhlw.go.jp/13/index.php?action_kouhyou_detail_004_kani=true&JigyosyoCd=1357081235-00&ServiceCd=220&Type=search" }, "geometry": { "type": "Point", "coordinates": [ 139.709005, 35.742949 ] } },
{ "type": "Feature", "properties": { "内容": "介護老人保健施設安寿【短期入所療養介護（介護老人保健施設）】東京都豊島区南池袋3-7-8", "url2": "https://www.kaigokensaku.mhlw.go.jp/13/index.php?action_kouhyou_detail_004_kani=true&JigyosyoCd=1357081383-00&ServiceCd=220&Type=search" }, "geometry": { "type": "Point", "coordinates": [ 139.7120999, 35.7235511 ] } },
{ "type": "Feature", "properties": { "内容": "南池袋介護老人保健施設アバンセ【短期入所療養介護（介護老人保健施設）】東京都豊島区南池袋4-6-1", "url2": "https://www.kaigokensaku.mhlw.go.jp/13/index.php?action_kouhyou_detail_004_kani=true&JigyosyoCd=1351680010-00&ServiceCd=220&Type=search" }, "geometry": { "type": "Point", "coordinates": [ 139.716520800000012, 35.72187 ] } },
{ "type": "Feature", "properties": { "内容": "東京シニアケアセンター赤羽【短期入所療養介護（介護老人保健施設）】東京都北区志茂1-19-14", "url2": "https://www.kaigokensaku.mhlw.go.jp/13/index.php?action_kouhyou_detail_004_kani=true&JigyosyoCd=1351780042-00&ServiceCd=220&Type=search" }, "geometry": { "type": "Point", "coordinates": [ 139.7273454, 35.7767748 ] } },
{ "type": "Feature", "properties": { "内容": "介護老人保健施設はくちょう【短期入所療養介護（介護老人保健施設）】東京都北区田端3-18-24", "url2": "https://www.kaigokensaku.mhlw.go.jp/13/index.php?action_kouhyou_detail_004_kani=true&JigyosyoCd=1351780034-00&ServiceCd=220&Type=search" }, "geometry": { "type": "Point", "coordinates": [ 139.7570131, 35.7359479 ] } },
{ "type": "Feature", "properties": { "内容": "介護老人保健施設　「太陽の都」【短期入所療養介護（介護老人保健施設）】東京都北区浮間２－１－１３介護老人保健施設　「太陽の都」", "url2": "https://www.kaigokensaku.mhlw.go.jp/13/index.php?action_kouhyou_detail_004_kani=true&JigyosyoCd=1357080559-00&ServiceCd=220&Type=search" }, "geometry": { "type": "Point", "coordinates": [ 139.700123800000028, 35.7926396 ] } },
{ "type": "Feature", "properties": { "内容": "東京北医療センター　介護老人保健施設　さくらの杜【短期入所療養介護（介護老人保健施設）】東京都北区赤羽台４－１７－５６", "url2": "https://www.kaigokensaku.mhlw.go.jp/13/index.php?action_kouhyou_detail_004_kani=true&JigyosyoCd=1357081185-00&ServiceCd=220&Type=search" }, "geometry": { "type": "Point", "coordinates": [ 139.711245299999973, 35.7840384 ] } },
{ "type": "Feature", "properties": { "内容": "滝野川病院附属介護老人保健施設【短期入所療養介護（介護老人保健施設）】東京都北区滝野川2-32-12滝野川病院4階", "url2": "https://www.kaigokensaku.mhlw.go.jp/13/index.php?action_kouhyou_detail_004_kani=true&JigyosyoCd=1351780018-00&ServiceCd=220&Type=search" }, "geometry": { "type": "Point", "coordinates": [ 139.731274900000017, 35.7505307 ] } },
{ "type": "Feature", "properties": { "内容": "リハビリパーク滝野川【短期入所療養介護（介護老人保健施設）】東京都北区滝野川６－１３－１３", "url2": "https://www.kaigokensaku.mhlw.go.jp/13/index.php?action_kouhyou_detail_004_kani=true&JigyosyoCd=1351780026-00&ServiceCd=220&Type=search" }, "geometry": { "type": "Point", "coordinates": [ 139.724423, 35.7435538 ] } },
{ "type": "Feature", "properties": { "内容": "社会福祉法人上智社会事業団　介護老人保健施設まちや【短期入所療養介護（介護老人保健施設）】東京都荒川区町屋4-9-5", "url2": "https://www.kaigokensaku.mhlw.go.jp/13/index.php?action_kouhyou_detail_004_kani=true&JigyosyoCd=1357080476-00&ServiceCd=220&Type=search" }, "geometry": { "type": "Point", "coordinates": [ 139.776585599999947, 35.7471172 ] } },
{ "type": "Feature", "properties": { "内容": "介護老人保健施設　ひぐらしの里【短期入所療養介護（介護老人保健施設）】東京都荒川区西日暮里1-4-1", "url2": "https://www.kaigokensaku.mhlw.go.jp/13/index.php?action_kouhyou_detail_004_kani=true&JigyosyoCd=1357080872-00&ServiceCd=220&Type=search" }, "geometry": { "type": "Point", "coordinates": [ 139.777564100000063, 35.7345603 ] } },
{ "type": "Feature", "properties": { "内容": "医療法人社団明芳会　介護老人保健施設　クローバーのさと　イムスケアカウピリ板橋【短期入所療養介護（介護老人保健施設）】東京都板橋区仲町１－４", "url2": "https://www.kaigokensaku.mhlw.go.jp/13/index.php?action_kouhyou_detail_004_kani=true&JigyosyoCd=1351980022-00&ServiceCd=220&Type=search" }, "geometry": { "type": "Point", "coordinates": [ 139.699533400000064, 35.7515865 ] } },
{ "type": "Feature", "properties": { "内容": "介護老人保健施設　紅梅園【短期入所療養介護（介護老人保健施設）】東京都板橋区徳丸8-14-11", "url2": "https://www.kaigokensaku.mhlw.go.jp/13/index.php?action_kouhyou_detail_004_kani=true&JigyosyoCd=1351980030-00&ServiceCd=220&Type=search" }, "geometry": { "type": "Point", "coordinates": [ 139.6571662, 35.781664 ] } },
{ "type": "Feature", "properties": { "内容": "医療法人財団　朔望会　介護老人保健施設エーデルワイス【短期入所療養介護（介護老人保健施設）】東京都板橋区四葉2-21-16", "url2": "https://www.kaigokensaku.mhlw.go.jp/13/index.php?action_kouhyou_detail_004_kani=true&JigyosyoCd=1357080393-00&ServiceCd=220&Type=search" }, "geometry": { "type": "Point", "coordinates": [ 139.650689599999964, 35.783259 ] } },
{ "type": "Feature", "properties": { "内容": "介護老人保健施設　シルバーピア加賀【短期入所療養介護（介護老人保健施設）】東京都板橋区加賀１丁目３番１号", "url2": "https://www.kaigokensaku.mhlw.go.jp/13/index.php?action_kouhyou_detail_004_kani=true&JigyosyoCd=1357080435-00&ServiceCd=220&Type=search" }, "geometry": { "type": "Point", "coordinates": [ 139.721350195770242, 35.753733662918982 ] } },
{ "type": "Feature", "properties": { "内容": "医療法人社団　翠会　蓮根ひまわり苑【短期入所療養介護（介護老人保健施設）】東京都板橋区蓮根3丁目25番4号", "url2": "https://www.kaigokensaku.mhlw.go.jp/13/index.php?action_kouhyou_detail_004_kani=true&JigyosyoCd=1357080591-00&ServiceCd=220&Type=search" }, "geometry": { "type": "Point", "coordinates": [ 139.676867600000037, 35.7908086 ] } },
{ "type": "Feature", "properties": { "内容": "介護老人保健施設　板橋ロイヤルケアセンター【短期入所療養介護（介護老人保健施設）】東京都板橋区前野町3丁目46番3号", "url2": "https://www.kaigokensaku.mhlw.go.jp/13/index.php?action_kouhyou_detail_004_kani=true&JigyosyoCd=1357080948-00&ServiceCd=220&Type=search" }, "geometry": { "type": "Point", "coordinates": [ 139.694227700000056, 35.7720481 ] } },
{ "type": "Feature", "properties": { "内容": "医療法人財団健康文化会介護老人保健施設志村さつき苑【短期入所療養介護（介護老人保健施設）】東京都板橋区坂下3-7-6", "url2": "https://www.kaigokensaku.mhlw.go.jp/13/index.php?action_kouhyou_detail_004_kani=true&JigyosyoCd=1357081276-00&ServiceCd=220&Type=search" }, "geometry": { "type": "Point", "coordinates": [ 139.683856, 35.7863762 ] } },
{ "type": "Feature", "properties": { "内容": "介護老人保健施設　赤塚園【短期入所療養介護（介護老人保健施設）】東京都板橋区赤塚新町３－３３－２７", "url2": "https://www.kaigokensaku.mhlw.go.jp/13/index.php?action_kouhyou_detail_004_kani=true&JigyosyoCd=1357081334-00&ServiceCd=220&Type=search" }, "geometry": { "type": "Point", "coordinates": [ 139.640676699999972, 35.7693774 ] } },
{ "type": "Feature", "properties": { "内容": "介護老人保健施設　浮間舟渡園【短期入所療養介護（介護老人保健施設）】東京都板橋区舟渡1丁目17番1号", "url2": "https://www.kaigokensaku.mhlw.go.jp/13/index.php?action_kouhyou_detail_004_kani=true&JigyosyoCd=1351980014-00&ServiceCd=220&Type=search" }, "geometry": { "type": "Point", "coordinates": [ 139.687085700000011, 35.792763 ] } },
{ "type": "Feature", "properties": { "内容": "介護老人保健施設プリムローズ【短期入所療養介護（介護老人保健施設）】東京都板橋区前野町3-8-7", "url2": "https://www.kaigokensaku.mhlw.go.jp/13/index.php?action_kouhyou_detail_004_kani=true&JigyosyoCd=1357081524-00&ServiceCd=220&Type=search" }, "geometry": { "type": "Point", "coordinates": [ 139.6928891, 35.7678958 ] } },
{ "type": "Feature", "properties": { "内容": "介護老人保健施設　第二橘苑【短期入所療養介護（介護老人保健施設）】東京都練馬区北町2-32-14", "url2": "https://www.kaigokensaku.mhlw.go.jp/13/index.php?action_kouhyou_detail_004_kani=true&JigyosyoCd=1352080053-00&ServiceCd=220&Type=search" }, "geometry": { "type": "Point", "coordinates": [ 139.6560615, 35.7682842 ] } },
{ "type": "Feature", "properties": { "内容": "リハビリパーク練馬【短期入所療養介護（介護老人保健施設）】東京都練馬区豊玉北1-20-20", "url2": "https://www.kaigokensaku.mhlw.go.jp/13/index.php?action_kouhyou_detail_004_kani=true&JigyosyoCd=1352080046-00&ServiceCd=220&Type=search" }, "geometry": { "type": "Point", "coordinates": [ 139.6665868, 35.7318677 ] } },
{ "type": "Feature", "properties": { "内容": "神石介護老人保健施設【短期入所療養介護（介護老人保健施設）】東京都練馬区上石神井3-33-6", "url2": "https://www.kaigokensaku.mhlw.go.jp/13/index.php?action_kouhyou_detail_004_kani=true&JigyosyoCd=1352080020-00&ServiceCd=220&Type=search" }, "geometry": { "type": "Point", "coordinates": [ 139.591291, 35.7317332 ] } },
{ "type": "Feature", "properties": { "内容": "介護老人保健施設　エスポワール練馬【短期入所療養介護（介護老人保健施設）】東京都練馬区関町東1-1-9", "url2": "https://www.kaigokensaku.mhlw.go.jp/13/index.php?action_kouhyou_detail_004_kani=true&JigyosyoCd=1352080061-00&ServiceCd=220&Type=search" }, "geometry": { "type": "Point", "coordinates": [ 139.584821926319819, 35.722946935967535 ] } },
{ "type": "Feature", "properties": { "内容": "医療法人社団健育会　介護老人保健施設　ライフサポートひなた【短期入所療養介護（介護老人保健施設）】東京都練馬区氷川台2-14-3", "url2": "https://www.kaigokensaku.mhlw.go.jp/13/index.php?action_kouhyou_detail_004_kani=true&JigyosyoCd=1352080079-00&ServiceCd=220&Type=search" }, "geometry": { "type": "Point", "coordinates": [ 139.6678528, 35.7561352 ] } },
{ "type": "Feature", "properties": { "内容": "医療法人社団川満惠光会　介護老人保健施設　みんなの笑顔【短期入所療養介護（介護老人保健施設）】東京都練馬区東大泉5-29-13", "url2": "https://www.kaigokensaku.mhlw.go.jp/13/index.php?action_kouhyou_detail_004_kani=true&JigyosyoCd=1352080087-00&ServiceCd=220&Type=search" }, "geometry": { "type": "Point", "coordinates": [ 139.58684089999997, 35.7471923 ] } },
{ "type": "Feature", "properties": { "内容": "医療法人社団翠会　介護老人保健施設　練馬ゆめの木【短期入所療養介護（介護老人保健施設）】東京都練馬区大泉町2-17-1", "url2": "https://www.kaigokensaku.mhlw.go.jp/13/index.php?action_kouhyou_detail_004_kani=true&JigyosyoCd=1357080427-00&ServiceCd=220&Type=search" }, "geometry": { "type": "Point", "coordinates": [ 139.60274430000004, 35.7607912 ] } },
{ "type": "Feature", "properties": { "内容": "平和台介護老人保健施設アバンセ【短期入所療養介護（介護老人保健施設）】東京都練馬区平和台1丁目16番12号", "url2": "https://www.kaigokensaku.mhlw.go.jp/13/index.php?action_kouhyou_detail_004_kani=true&JigyosyoCd=1357080955-00&ServiceCd=220&Type=search" }, "geometry": { "type": "Point", "coordinates": [ 139.664705799999979, 35.759257 ] } },
{ "type": "Feature", "properties": { "内容": "医療法人社団カタクリ会介護老人保健施設カタクリの花【短期入所療養介護（介護老人保健施設）】東京都練馬区高野台5-32-12", "url2": "https://www.kaigokensaku.mhlw.go.jp/13/index.php?action_kouhyou_detail_004_kani=true&JigyosyoCd=1357081037-00&ServiceCd=220&Type=search" }, "geometry": { "type": "Point", "coordinates": [ 139.609285799999952, 35.7489484 ] } },
{ "type": "Feature", "properties": { "内容": "介護老人保健施設　大泉学園ふきのとう【短期入所療養介護（介護老人保健施設）】東京都練馬区大泉学園町８－２４－２５", "url2": "https://www.kaigokensaku.mhlw.go.jp/13/index.php?action_kouhyou_detail_004_kani=true&JigyosyoCd=1357080518-00&ServiceCd=220&Type=search" }, "geometry": { "type": "Point", "coordinates": [ 139.5980889, 35.7736644 ] } },
{ "type": "Feature", "properties": { "内容": "介護老人保健施設　ライフサポートねりま【短期入所療養介護（介護老人保健施設）】東京都練馬区大泉学園町7丁目3番28号", "url2": "https://www.kaigokensaku.mhlw.go.jp/13/index.php?action_kouhyou_detail_004_kani=true&JigyosyoCd=1352080095-00&ServiceCd=220&Type=search" }, "geometry": { "type": "Point", "coordinates": [ 139.587935397483818, 35.769835869655068 ] } },
{ "type": "Feature", "properties": { "内容": "介護老人保健施設　ミレニアム桜台【短期入所療養介護（介護老人保健施設）】東京都練馬区桜台2-1-13", "url2": "https://www.kaigokensaku.mhlw.go.jp/13/index.php?action_kouhyou_detail_004_kani=true&JigyosyoCd=1357080724-00&ServiceCd=220&Type=search" }, "geometry": { "type": "Point", "coordinates": [ 139.667793514680511, 35.742303134957666 ] } },
{ "type": "Feature", "properties": { "内容": "介護老人保健施設葵の園・練馬【短期入所療養介護（介護老人保健施設）】東京都練馬区春日町４丁目３７－３０", "url2": "https://www.kaigokensaku.mhlw.go.jp/13/index.php?action_kouhyou_detail_004_kani=true&JigyosyoCd=1352080012-00&ServiceCd=220&Type=search" }, "geometry": { "type": "Point", "coordinates": [ 139.638155200000028, 35.7563955 ] } },
{ "type": "Feature", "properties": { "内容": "介護老人保健施設橘苑【短期入所療養介護（介護老人保健施設）】東京都練馬区北町3-7-22", "url2": "https://www.kaigokensaku.mhlw.go.jp/13/index.php?action_kouhyou_detail_004_kani=true&JigyosyoCd=1352080038-00&ServiceCd=220&Type=search" }, "geometry": { "type": "Point", "coordinates": [ 139.6559715, 35.7685833 ] } },
{ "type": "Feature", "properties": { "内容": "千壽介護老人保健施設【短期入所療養介護（介護老人保健施設）】東京都足立区千住中居町29-6", "url2": "https://www.kaigokensaku.mhlw.go.jp/13/index.php?action_kouhyou_detail_004_kani=true&JigyosyoCd=1352180028-00&ServiceCd=220&Type=search" }, "geometry": { "type": "Point", "coordinates": [ 139.79715310000006, 35.7515424 ] } },
{ "type": "Feature", "properties": { "内容": "介護老人保健施設　イルアカーサ【短期入所療養介護（介護老人保健施設）】東京都足立区六木4-9-10", "url2": "https://www.kaigokensaku.mhlw.go.jp/13/index.php?action_kouhyou_detail_004_kani=true&JigyosyoCd=1352180044-00&ServiceCd=220&Type=search" }, "geometry": { "type": "Point", "coordinates": [ 139.839047700000037, 35.7976535 ] } },
{ "type": "Feature", "properties": { "内容": "医療法人財団　健和会　老人保健施設　千寿の郷【短期入所療養介護（介護老人保健施設）】東京都足立区柳原2-33-6", "url2": "https://www.kaigokensaku.mhlw.go.jp/13/index.php?action_kouhyou_detail_004_kani=true&JigyosyoCd=1357080179-00&ServiceCd=220&Type=search" }, "geometry": { "type": "Point", "coordinates": [ 139.814416, 35.7479349 ] } },
{ "type": "Feature", "properties": { "内容": "介護老人保健施設しらさぎ【短期入所療養介護（介護老人保健施設）】東京都足立区梅田8-12-10", "url2": "https://www.kaigokensaku.mhlw.go.jp/13/index.php?action_kouhyou_detail_004_kani=true&JigyosyoCd=1357080302-00&ServiceCd=220&Type=search" }, "geometry": { "type": "Point", "coordinates": [ 139.794779799999986, 35.772337 ] } },
{ "type": "Feature", "properties": { "内容": "（医）成仁介護老人保健施設【短期入所療養介護（介護老人保健施設）】東京都足立区大谷田2丁目18番12号", "url2": "https://www.kaigokensaku.mhlw.go.jp/13/index.php?action_kouhyou_detail_004_kani=true&JigyosyoCd=1357080690-00&ServiceCd=220&Type=search" }, "geometry": { "type": "Point", "coordinates": [ 139.843636400000037, 35.7836916 ] } },
{ "type": "Feature", "properties": { "内容": "介護老人保健施設いずみ【短期入所療養介護（介護老人保健施設）】東京都足立区西新井５丁目３５番２号", "url2": "https://www.kaigokensaku.mhlw.go.jp/13/index.php?action_kouhyou_detail_004_kani=true&JigyosyoCd=1357081003-00&ServiceCd=220&Type=search" }, "geometry": { "type": "Point", "coordinates": [ 139.775736700000039, 35.785596 ] } },
{ "type": "Feature", "properties": { "内容": "医療法人社団成和会　介護老人保健施設むくげのいえ【短期入所療養介護（介護老人保健施設）】東京都足立区西新井本町1-25-36", "url2": "https://www.kaigokensaku.mhlw.go.jp/13/index.php?action_kouhyou_detail_004_kani=true&JigyosyoCd=1357081136-00&ServiceCd=220&Type=search" }, "geometry": { "type": "Point", "coordinates": [ 139.7795827, 35.7747206 ] } },
{ "type": "Feature", "properties": { "内容": "介護老人保健施設　ホスピア東和【短期入所療養介護（介護老人保健施設）】東京都足立区東和４－７－８", "url2": "https://www.kaigokensaku.mhlw.go.jp/13/index.php?action_kouhyou_detail_004_kani=true&JigyosyoCd=1357081367-00&ServiceCd=220&Type=search" }, "geometry": { "type": "Point", "coordinates": [ 139.8432616, 35.7727098 ] } },
{ "type": "Feature", "properties": { "内容": "介護老人保健施設あさひ【短期入所療養介護（介護老人保健施設）】東京都足立区保木間4-41-12", "url2": "https://www.kaigokensaku.mhlw.go.jp/13/index.php?action_kouhyou_detail_004_kani=true&JigyosyoCd=1352180036-00&ServiceCd=220&Type=search" }, "geometry": { "type": "Point", "coordinates": [ 139.807480599999963, 35.8000754 ] } },
{ "type": "Feature", "properties": { "内容": "介護老人保健施設　葵の園・椿【短期入所療養介護（介護老人保健施設）】東京都足立区椿2-3-1", "url2": "https://www.kaigokensaku.mhlw.go.jp/13/index.php?action_kouhyou_detail_004_kani=true&JigyosyoCd=1352180051-00&ServiceCd=220&Type=search" }, "geometry": { "type": "Point", "coordinates": [ 139.757772499999987, 35.7787186 ] } },
{ "type": "Feature", "properties": { "内容": "水野介護老人保健施設【短期入所療養介護（介護老人保健施設）】東京都足立区西新井６-２４-１３", "url2": "https://www.kaigokensaku.mhlw.go.jp/13/index.php?action_kouhyou_detail_004_kani=true&JigyosyoCd=1352180010-00&ServiceCd=220&Type=search" }, "geometry": { "type": "Point", "coordinates": [ 139.77553075886081, 35.781457274048421 ] } },
{ "type": "Feature", "properties": { "内容": "介護老人保健施設　足立老人ケアセンター【短期入所療養介護（介護老人保健施設）】東京都足立区保木間5-23-20", "url2": "https://www.kaigokensaku.mhlw.go.jp/13/index.php?action_kouhyou_detail_004_kani=true&JigyosyoCd=1357080252-00&ServiceCd=220&Type=search" }, "geometry": { "type": "Point", "coordinates": [ 139.804614099999981, 35.8042026 ] } },
{ "type": "Feature", "properties": { "内容": "介護老人保健施設レーベンハウス【短期入所療養介護（介護老人保健施設）】東京都足立区西新井本町２－２３－１", "url2": "https://www.kaigokensaku.mhlw.go.jp/13/index.php?action_kouhyou_detail_004_kani=true&JigyosyoCd=1357080468-00&ServiceCd=220&Type=search" }, "geometry": { "type": "Point", "coordinates": [ 139.772509500000069, 35.7751139 ] } },
{ "type": "Feature", "properties": { "内容": "介護老人保健施設　梅の木【短期入所療養介護（介護老人保健施設）】青井4-29-23", "url2": "https://www.kaigokensaku.mhlw.go.jp/13/index.php?action_kouhyou_detail_004_kani=true&JigyosyoCd=1357081094-00&ServiceCd=220&Type=search" }, "geometry": { "type": "Point", "coordinates": [ 139.817624, 35.7743383 ] } },
{ "type": "Feature", "properties": { "内容": "東京愛育苑ケアレジデンス【短期入所療養介護（介護老人保健施設）】東京都葛飾区水元３－１３－２", "url2": "https://www.kaigokensaku.mhlw.go.jp/13/index.php?action_kouhyou_detail_004_kani=true&JigyosyoCd=1357080054-00&ServiceCd=220&Type=search" }, "geometry": { "type": "Point", "coordinates": [ 139.863482200000021, 35.7822974 ] } },
{ "type": "Feature", "properties": { "内容": "介護老人保健施設　葛飾ロイヤルケアセンター【短期入所療養介護（介護老人保健施設）】東京都葛飾区堀切二丁目６６番１７号", "url2": "https://www.kaigokensaku.mhlw.go.jp/13/index.php?action_kouhyou_detail_004_kani=true&JigyosyoCd=1357080963-00&ServiceCd=220&Type=search" }, "geometry": { "type": "Point", "coordinates": [ 139.831514700000071, 35.7442801 ] } },
{ "type": "Feature", "properties": { "内容": "介護老人保健施設　ケア新小岩【短期入所療養介護（介護老人保健施設）】東京都葛飾区東新小岩２－１－１２", "url2": "https://www.kaigokensaku.mhlw.go.jp/13/index.php?action_kouhyou_detail_004_kani=true&JigyosyoCd=1357080989-00&ServiceCd=220&Type=search" }, "geometry": { "type": "Point", "coordinates": [ 139.865265099999988, 35.722741 ] } },
{ "type": "Feature", "properties": { "内容": "介護老人保健施設リハビリケアかつしか【短期入所療養介護（介護老人保健施設）】東京都葛飾区西新小岩3-37-8", "url2": "https://www.kaigokensaku.mhlw.go.jp/13/index.php?action_kouhyou_detail_004_kani=true&JigyosyoCd=1352280018-00&ServiceCd=220&Type=search" }, "geometry": { "type": "Point", "coordinates": [ 139.845482009787048, 35.722338270430328 ] } },
{ "type": "Feature", "properties": { "内容": "アルターかつしかばし【短期入所療養介護（介護老人保健施設）】東京都葛飾区東金町7-30-14", "url2": "https://www.kaigokensaku.mhlw.go.jp/13/index.php?action_kouhyou_detail_004_kani=true&JigyosyoCd=1357080484-00&ServiceCd=220&Type=search" }, "geometry": { "type": "Point", "coordinates": [ 139.884651, 35.7782355 ] } },
{ "type": "Feature", "properties": { "内容": "介護老人保健施設　花の木【短期入所療養介護（介護老人保健施設）】東京都葛飾区新宿2丁目16番4号", "url2": "https://www.kaigokensaku.mhlw.go.jp/13/index.php?action_kouhyou_detail_004_kani=true&JigyosyoCd=1357080385-00&ServiceCd=220&Type=search" }, "geometry": { "type": "Point", "coordinates": [ 139.8570801, 35.7608749 ] } },
{ "type": "Feature", "properties": { "内容": "介護老人保健施設　ヴィット【短期入所療養介護（介護老人保健施設）】東京都江戸川区船堀3丁目10番7号", "url2": "https://www.kaigokensaku.mhlw.go.jp/13/index.php?action_kouhyou_detail_004_kani=true&JigyosyoCd=1357080203-00&ServiceCd=220&Type=search" }, "geometry": { "type": "Point", "coordinates": [ 139.864777600000025, 35.6816263 ] } },
{ "type": "Feature", "properties": { "内容": "介護老人保健施設　ジェロントピア菊華【短期入所療養介護（介護老人保健施設）】東京都江戸川区鹿骨3丁目20番3号", "url2": "https://www.kaigokensaku.mhlw.go.jp/13/index.php?action_kouhyou_detail_004_kani=true&JigyosyoCd=1357080229-00&ServiceCd=220&Type=search" }, "geometry": { "type": "Point", "coordinates": [ 139.891421941664163, 35.716542835570728 ] } },
{ "type": "Feature", "properties": { "内容": "老人保健施設ビーバス成光苑【短期入所療養介護（介護老人保健施設）】東京都江戸川区北小岩2-7-6", "url2": "https://www.kaigokensaku.mhlw.go.jp/13/index.php?action_kouhyou_detail_004_kani=true&JigyosyoCd=1357080377-00&ServiceCd=220&Type=search" }, "geometry": { "type": "Point", "coordinates": [ 139.88292649999994, 35.741824899999983 ] } },
{ "type": "Feature", "properties": { "内容": "介護老人保健施設　やすらぎ【短期入所療養介護（介護老人保健施設）】東京都江戸川区瑞江１－３－２０", "url2": "https://www.kaigokensaku.mhlw.go.jp/13/index.php?action_kouhyou_detail_004_kani=true&JigyosyoCd=1357080880-00&ServiceCd=220&Type=search" }, "geometry": { "type": "Point", "coordinates": [ 139.894238200000018, 35.6995924 ] } },
{ "type": "Feature", "properties": { "内容": "介護老人保健施設めぐみ【短期入所療養介護（介護老人保健施設）】東京都江戸川区東小松川2丁目7番1号", "url2": "https://www.kaigokensaku.mhlw.go.jp/13/index.php?action_kouhyou_detail_004_kani=true&JigyosyoCd=1357081292-00&ServiceCd=220&Type=search" }, "geometry": { "type": "Point", "coordinates": [ 139.8643968, 35.697866 ] } },
{ "type": "Feature", "properties": { "内容": "森山ケアセンター介護老人保健施設【短期入所療養介護（介護老人保健施設）】東京都江戸川区江戸川五丁目4番23", "url2": "https://www.kaigokensaku.mhlw.go.jp/13/index.php?action_kouhyou_detail_004_kani=true&JigyosyoCd=1352380016-00&ServiceCd=220&Type=search" }, "geometry": { "type": "Point", "coordinates": [ 139.88377909999997, 35.6772974 ] } },
{ "type": "Feature", "properties": { "内容": "介護老人保健施設こでまり【短期入所療養介護（介護老人保健施設）】東京都江戸川区北葛西2－5－21", "url2": "https://www.kaigokensaku.mhlw.go.jp/13/index.php?action_kouhyou_detail_004_kani=true&JigyosyoCd=1357081268-00&ServiceCd=220&Type=search" }, "geometry": { "type": "Point", "coordinates": [ 139.8540035, 35.6758384 ] } },
{ "type": "Feature", "properties": { "内容": "医療法人社団希和会　介護老人保健施設ひまわり【短期入所療養介護（介護老人保健施設）】東京都江戸川区東葛西8-19-16", "url2": "https://www.kaigokensaku.mhlw.go.jp/13/index.php?action_kouhyou_detail_004_kani=true&JigyosyoCd=1357080542-00&ServiceCd=220&Type=search" }, "geometry": { "type": "Point", "coordinates": [ 139.880488499999956, 35.6560578 ] } },
{ "type": "Feature", "properties": { "内容": "介護老人保健施設ゆうむ【短期入所療養介護（介護老人保健施設）】東京都八王子市西寺方町２８４", "url2": "https://www.kaigokensaku.mhlw.go.jp/13/index.php?action_kouhyou_detail_004_kani=true&JigyosyoCd=1357080237-00&ServiceCd=220&Type=search" }, "geometry": { "type": "Point", "coordinates": [ 139.266601600000058, 35.6720483 ] } },
{ "type": "Feature", "properties": { "内容": "介護老人保健施設アメイズ【短期入所療養介護（介護老人保健施設）】東京都八王子市中野山王2-8-2", "url2": "https://www.kaigokensaku.mhlw.go.jp/13/index.php?action_kouhyou_detail_004_kani=true&JigyosyoCd=1352980013-00&ServiceCd=220&Type=search" }, "geometry": { "type": "Point", "coordinates": [ 139.331522800000016, 35.6764158 ] } },
{ "type": "Feature", "properties": { "内容": "ハイネス憩の丘【短期入所療養介護（介護老人保健施設）】東京都八王子市中野町2082-1", "url2": "https://www.kaigokensaku.mhlw.go.jp/13/index.php?action_kouhyou_detail_004_kani=true&JigyosyoCd=1357080088-00&ServiceCd=220&Type=search" }, "geometry": { "type": "Point", "coordinates": [ 139.326340399999907, 35.6789854 ] } },
{ "type": "Feature", "properties": { "内容": "介護老人保健施設　ウエストケアセンター【短期入所療養介護（介護老人保健施設）】東京都八王子市上川町2135番地", "url2": "https://www.kaigokensaku.mhlw.go.jp/13/index.php?action_kouhyou_detail_004_kani=true&JigyosyoCd=1357080112-00&ServiceCd=220&Type=search" }, "geometry": { "type": "Point", "coordinates": [ 139.266722699999946, 35.7050422 ] } },
{ "type": "Feature", "properties": { "内容": "介護老人保健施設エンジェルコート【短期入所療養介護（介護老人保健施設）】東京都八王子市上壱分方町71－1", "url2": "https://www.kaigokensaku.mhlw.go.jp/13/index.php?action_kouhyou_detail_004_kani=true&JigyosyoCd=1357080138-00&ServiceCd=220&Type=search" }, "geometry": { "type": "Point", "coordinates": [ 139.2809499, 35.6846584 ] } },
{ "type": "Feature", "properties": { "内容": "介護老人保健施設ハートランド・ぐらんぱぐらんま【短期入所療養介護（介護老人保健施設）】東京都八王子市美山町１０７４", "url2": "https://www.kaigokensaku.mhlw.go.jp/13/index.php?action_kouhyou_detail_004_kani=true&JigyosyoCd=1357080187-00&ServiceCd=220&Type=search" }, "geometry": { "type": "Point", "coordinates": [ 139.250252899999964, 35.6839306 ] } },
{ "type": "Feature", "properties": { "内容": "介護老人保健施設　イマジン【短期入所療養介護（介護老人保健施設）】東京都八王子市椚田町583-15", "url2": "https://www.kaigokensaku.mhlw.go.jp/13/index.php?action_kouhyou_detail_004_kani=true&JigyosyoCd=1357080310-00&ServiceCd=220&Type=search" }, "geometry": { "type": "Point", "coordinates": [ 139.305038, 35.6392177 ] } },
{ "type": "Feature", "properties": { "内容": "介護老人保健施設　南大沢ホロス由木【短期入所療養介護（介護老人保健施設）】東京都八王子市南大沢２－２２４－５", "url2": "https://www.kaigokensaku.mhlw.go.jp/13/index.php?action_kouhyou_detail_004_kani=true&JigyosyoCd=1357080096-00&ServiceCd=220&Type=search" }, "geometry": { "type": "Point", "coordinates": [ 139.385679900000014, 35.6053117 ] } },
{ "type": "Feature", "properties": { "内容": "立川介護老人保健施設わかば【短期入所療養介護（介護老人保健施設）】東京都立川市若葉町3-45-2", "url2": "https://www.kaigokensaku.mhlw.go.jp/13/index.php?action_kouhyou_detail_004_kani=true&JigyosyoCd=1357080674-00&ServiceCd=220&Type=search" }, "geometry": { "type": "Point", "coordinates": [ 139.441181599999936, 35.7197306 ] } },
{ "type": "Feature", "properties": { "内容": "介護老人保健施設パークサイドヴィラ【短期入所療養介護（介護老人保健施設）】東京都立川市富士見町1丁目36番６号", "url2": "https://www.kaigokensaku.mhlw.go.jp/13/index.php?action_kouhyou_detail_004_kani=true&JigyosyoCd=1357080781-00&ServiceCd=220&Type=search" }, "geometry": { "type": "Point", "coordinates": [ 139.3938987, 35.7034247 ] } },
{ "type": "Feature", "properties": { "内容": "介護老人保健施設　国立あおやぎ苑立川【短期入所療養介護（介護老人保健施設）】東京都立川市富士見町7丁目33番10号", "url2": "https://www.kaigokensaku.mhlw.go.jp/13/index.php?action_kouhyou_detail_004_kani=true&JigyosyoCd=1357081318-00&ServiceCd=220&Type=search" }, "geometry": { "type": "Point", "coordinates": [ 139.39782260000004, 35.6894775 ] } },
{ "type": "Feature", "properties": { "内容": "介護老人保健施設　サンセール武蔵野【短期入所療養介護（介護老人保健施設）】東京都武蔵野市桜堤1-9-7", "url2": "https://www.kaigokensaku.mhlw.go.jp/13/index.php?action_kouhyou_detail_004_kani=true&JigyosyoCd=1353380023-00&ServiceCd=220&Type=search" }, "geometry": { "type": "Point", "coordinates": [ 139.533801199999971, 35.7105011 ] } },
{ "type": "Feature", "properties": { "内容": "介護老人保健施設　ハウスグリーンパーク【短期入所療養介護（介護老人保健施設）】東京都武蔵野市緑町２－３－２１", "url2": "https://www.kaigokensaku.mhlw.go.jp/13/index.php?action_kouhyou_detail_004_kani=true&JigyosyoCd=1357080906-00&ServiceCd=220&Type=search" }, "geometry": { "type": "Point", "coordinates": [ 139.562990899999932, 35.7164536 ] } },
{ "type": "Feature", "properties": { "内容": "介護老人保健施設あんず苑アネックス【短期入所療養介護（介護老人保健施設）】東京都武蔵野市境1－19－20", "url2": "https://www.kaigokensaku.mhlw.go.jp/13/index.php?action_kouhyou_detail_004_kani=true&JigyosyoCd=1353380015-00&ServiceCd=220&Type=search" }, "geometry": { "type": "Point", "coordinates": [ 139.5472929, 35.7043546 ] } },
{ "type": "Feature", "properties": { "内容": "介護老人保健施設あんず苑【短期入所療養介護（介護老人保健施設）】東京都武蔵野市境1-18-5", "url2": "https://www.kaigokensaku.mhlw.go.jp/13/index.php?action_kouhyou_detail_004_kani=true&JigyosyoCd=1357080120-00&ServiceCd=220&Type=search" }, "geometry": { "type": "Point", "coordinates": [ 139.5472264, 35.703202 ] } },
{ "type": "Feature", "properties": { "内容": "三鷹市牟礼老人保健施設はなかいどう【短期入所療養介護（介護老人保健施設）】東京都三鷹市牟礼6-12-30", "url2": "https://www.kaigokensaku.mhlw.go.jp/13/index.php?action_kouhyou_detail_004_kani=true&JigyosyoCd=1357080682-00&ServiceCd=220&Type=search" }, "geometry": { "type": "Point", "coordinates": [ 139.574399399999947, 35.6878377 ] } },
{ "type": "Feature", "properties": { "内容": "介護老人保健施設　太郎【短期入所療養介護（介護老人保健施設）】東京都三鷹市下連雀4-2-8", "url2": "https://www.kaigokensaku.mhlw.go.jp/13/index.php?action_kouhyou_detail_004_kani=true&JigyosyoCd=1357080997-00&ServiceCd=220&Type=search" }, "geometry": { "type": "Point", "coordinates": [ 139.564702899999929, 35.6934953 ] } },
{ "type": "Feature", "properties": { "内容": "介護老人保健施設　三鷹ロイヤルの丘【短期入所療養介護（介護老人保健施設）】東京都三鷹市新川五丁目６番２４号", "url2": "https://www.kaigokensaku.mhlw.go.jp/13/index.php?action_kouhyou_detail_004_kani=true&JigyosyoCd=1353680018-00&ServiceCd=220&Type=search" }, "geometry": { "type": "Point", "coordinates": [ 139.571050099999979, 35.6749808 ] } },
{ "type": "Feature", "properties": { "内容": "医療法人社団永寿会　介護老人保健施設　三鷹中央リハケアセンター【短期入所療養介護（介護老人保健施設）】東京都三鷹市下連雀9-2-7", "url2": "https://www.kaigokensaku.mhlw.go.jp/13/index.php?action_kouhyou_detail_004_kani=true&JigyosyoCd=1357081417-00&ServiceCd=220&Type=search" }, "geometry": { "type": "Point", "coordinates": [ 139.5633699, 35.6845185 ] } },
{ "type": "Feature", "properties": { "内容": "介護老人保健施設　青梅すえひろ苑【短期入所療養介護（介護老人保健施設）】東京都青梅市末広町一丁目４番地５", "url2": "https://www.kaigokensaku.mhlw.go.jp/13/index.php?action_kouhyou_detail_004_kani=true&JigyosyoCd=1357080153-00&ServiceCd=220&Type=search" }, "geometry": { "type": "Point", "coordinates": [ 139.3133904, 35.7784008 ] } },
{ "type": "Feature", "properties": { "内容": "メディケア梅の園【短期入所療養介護（介護老人保健施設）】東京都青梅市駒木町3-594-1介護老人保健施設メディケア梅の園", "url2": "https://www.kaigokensaku.mhlw.go.jp/13/index.php?action_kouhyou_detail_004_kani=true&JigyosyoCd=1357080625-00&ServiceCd=220&Type=search" }, "geometry": { "type": "Point", "coordinates": [ 139.251665600000024, 35.7814016 ] } },
{ "type": "Feature", "properties": { "内容": "介護老人保健施設　西東京ケアセンター【短期入所療養介護（介護老人保健施設）】東京都青梅市友田町3-136-1", "url2": "https://www.kaigokensaku.mhlw.go.jp/13/index.php?action_kouhyou_detail_004_kani=true&JigyosyoCd=1352880015-00&ServiceCd=220&Type=search" }, "geometry": { "type": "Point", "coordinates": [ 139.29112310000005, 35.7728342 ] } },
{ "type": "Feature", "properties": { "内容": "介護老人保健施設　葵の園・武蔵府中【短期入所療養介護（介護老人保健施設）】東京都府中市片町2-16-1", "url2": "https://www.kaigokensaku.mhlw.go.jp/13/index.php?action_kouhyou_detail_004_kani=true&JigyosyoCd=1357080534-00&ServiceCd=220&Type=search" }, "geometry": { "type": "Point", "coordinates": [ 139.469923200000039, 35.6697953 ] } },
{ "type": "Feature", "properties": { "内容": "ウイング【短期入所療養介護（介護老人保健施設）】東京都府中市四谷６丁目１５番２", "url2": "https://www.kaigokensaku.mhlw.go.jp/13/index.php?action_kouhyou_detail_004_kani=true&JigyosyoCd=1357080716-00&ServiceCd=220&Type=search" }, "geometry": { "type": "Point", "coordinates": [ 139.435278499999981, 35.6696721 ] } },
{ "type": "Feature", "properties": { "内容": "介護老人保健施設ファミリート府中【短期入所療養介護（介護老人保健施設）】東京都府中市若松町2丁目4番4号", "url2": "https://www.kaigokensaku.mhlw.go.jp/13/index.php?action_kouhyou_detail_004_kani=true&JigyosyoCd=1353880022-00&ServiceCd=220&Type=search" }, "geometry": { "type": "Point", "coordinates": [ 139.4982817, 35.6712044 ] } },
{ "type": "Feature", "properties": { "内容": "介護老人保健施設　ふれあいの里【短期入所療養介護（介護老人保健施設）】東京都府中市押立町１丁目９番地１", "url2": "https://www.kaigokensaku.mhlw.go.jp/13/index.php?action_kouhyou_detail_004_kani=true&JigyosyoCd=1353880014-00&ServiceCd=220&Type=search" }, "geometry": { "type": "Point", "coordinates": [ 139.507137400000033, 35.6585872 ] } },
{ "type": "Feature", "properties": { "内容": "医療法人徳洲会　介護老人保健施設いちいの杜【短期入所療養介護（介護老人保健施設）】東京都昭島市武蔵野3-5-63", "url2": "https://www.kaigokensaku.mhlw.go.jp/13/index.php?action_kouhyou_detail_004_kani=true&JigyosyoCd=1354080028-00&ServiceCd=220&Type=search" }, "geometry": { "type": "Point", "coordinates": [ 139.375277899999986, 35.7195109 ] } },
{ "type": "Feature", "properties": { "内容": "介護老人保健施設　アゼリア【短期入所療養介護（介護老人保健施設）】東京都昭島市田中町２丁目１番地３７", "url2": "https://www.kaigokensaku.mhlw.go.jp/13/index.php?action_kouhyou_detail_004_kani=true&JigyosyoCd=1357080401-00&ServiceCd=220&Type=search" }, "geometry": { "type": "Point", "coordinates": [ 139.356387, 35.7024723 ] } },
{ "type": "Feature", "properties": { "内容": "医療法人社団　佑樹会　介護老人保健施設　なごみの里【短期入所療養介護（介護老人保健施設）】東京都昭島市中神町1345番1", "url2": "https://www.kaigokensaku.mhlw.go.jp/13/index.php?action_kouhyou_detail_004_kani=true&JigyosyoCd=1357081227-00&ServiceCd=220&Type=search" }, "geometry": { "type": "Point", "coordinates": [ 139.386228299999971, 35.7192184 ] } },
{ "type": "Feature", "properties": { "内容": "介護老人保健施設　いなほ【短期入所療養介護（介護老人保健施設）】東京都調布市染地２丁目３４番２１号", "url2": "https://www.kaigokensaku.mhlw.go.jp/13/index.php?action_kouhyou_detail_004_kani=true&JigyosyoCd=1357080799-00&ServiceCd=220&Type=search" }, "geometry": { "type": "Point", "coordinates": [ 139.5535463, 35.6382554 ] } },
{ "type": "Feature", "properties": { "内容": "介護老人保健施設フロリール調布【短期入所療養介護（介護老人保健施設）】東京都調布市下石原3-45-1", "url2": "https://www.kaigokensaku.mhlw.go.jp/13/index.php?action_kouhyou_detail_004_kani=true&JigyosyoCd=1357080062-00&ServiceCd=220&Type=search" }, "geometry": { "type": "Point", "coordinates": [ 139.532691500000027, 35.6509588 ] } },
{ "type": "Feature", "properties": { "内容": "介護老人保健施設グリーンガーデン青樹【短期入所療養介護（介護老人保健施設）】東京都調布市上石原三丁目33番地の17", "url2": "https://www.kaigokensaku.mhlw.go.jp/13/index.php?action_kouhyou_detail_004_kani=true&JigyosyoCd=1357080161-00&ServiceCd=220&Type=search" }, "geometry": { "type": "Point", "coordinates": [ 139.525199250926221, 35.650596518986461 ] } },
{ "type": "Feature", "properties": { "内容": "介護老人保健施設　花水木【短期入所療養介護（介護老人保健施設）】東京都調布市深大寺北町四丁目１７番地７", "url2": "https://www.kaigokensaku.mhlw.go.jp/13/index.php?action_kouhyou_detail_004_kani=true&JigyosyoCd=1357080211-00&ServiceCd=220&Type=search" }, "geometry": { "type": "Point", "coordinates": [ 139.551957200000061, 35.6794494 ] } },
{ "type": "Feature", "properties": { "内容": "介護老人保健施設　ハピネスせりがや【短期入所療養介護（介護老人保健施設）】東京都町田市原町田４－２７－３３", "url2": "https://www.kaigokensaku.mhlw.go.jp/13/index.php?action_kouhyou_detail_004_kani=true&JigyosyoCd=1357080930-00&ServiceCd=220&Type=search" }, "geometry": { "type": "Point", "coordinates": [ 139.454835722090138, 35.543669135849605 ] } },
{ "type": "Feature", "properties": { "内容": "介護老人保健施設　オネスティ南町田【短期入所療養介護（介護老人保健施設）】東京都町田市鶴間7丁目3番3号", "url2": "https://www.kaigokensaku.mhlw.go.jp/13/index.php?action_kouhyou_detail_004_kani=true&JigyosyoCd=1353280017-00&ServiceCd=220&Type=search" }, "geometry": { "type": "Point", "coordinates": [ 139.477845399999978, 35.5071703 ] } },
{ "type": "Feature", "properties": { "内容": "マイライフ尾根道【短期入所療養介護（介護老人保健施設）】東京都町田市常盤町3547番地2", "url2": "https://www.kaigokensaku.mhlw.go.jp/13/index.php?action_kouhyou_detail_004_kani=true&JigyosyoCd=1357080609-00&ServiceCd=220&Type=search" }, "geometry": { "type": "Point", "coordinates": [ 139.4036178, 35.5847622 ] } },
{ "type": "Feature", "properties": { "内容": "介護老人保健施設町田さくらんぼ【短期入所療養介護（介護老人保健施設）】東京都町田市小野路町１６３２番地", "url2": "https://www.kaigokensaku.mhlw.go.jp/13/index.php?action_kouhyou_detail_004_kani=true&JigyosyoCd=1357080146-00&ServiceCd=220&Type=search" }, "geometry": { "type": "Point", "coordinates": [ 139.4456959, 35.596192400000021 ] } },
{ "type": "Feature", "properties": { "内容": "介護老人保健施設　サンシルバー町田【短期入所療養介護（介護老人保健施設）】東京都町田市相原町２３７３番１", "url2": "https://www.kaigokensaku.mhlw.go.jp/13/index.php?action_kouhyou_detail_004_kani=true&JigyosyoCd=1357080245-00&ServiceCd=220&Type=search" }, "geometry": { "type": "Point", "coordinates": [ 139.314166399999976, 35.6132973 ] } },
{ "type": "Feature", "properties": { "内容": "医療法人社団　康心会　介護老人保健施設　ふれあいの町田【短期入所療養介護（介護老人保健施設）】東京都町田市小山ヶ丘１－３－７", "url2": "https://www.kaigokensaku.mhlw.go.jp/13/index.php?action_kouhyou_detail_004_kani=true&JigyosyoCd=1357081557-00&ServiceCd=220&Type=search" }, "geometry": { "type": "Point", "coordinates": [ 139.382474900000034, 35.5978462 ] } },
{ "type": "Feature", "properties": { "内容": "介護老人保健施設　小金井あんず苑【短期入所療養介護（介護老人保健施設）】東京都小金井市前原町5-3-24", "url2": "https://www.kaigokensaku.mhlw.go.jp/13/index.php?action_kouhyou_detail_004_kani=true&JigyosyoCd=1357080419-00&ServiceCd=220&Type=search" }, "geometry": { "type": "Point", "coordinates": [ 139.497872899999948, 35.6877162 ] } },
{ "type": "Feature", "properties": { "内容": "介護老人保健施設　秋桜【短期入所療養介護（介護老人保健施設）】東京都小金井市前原町4丁目4番47号", "url2": "https://www.kaigokensaku.mhlw.go.jp/13/index.php?action_kouhyou_detail_004_kani=true&JigyosyoCd=1357081508-00&ServiceCd=220&Type=search" }, "geometry": { "type": "Point", "coordinates": [ 139.504375641139148, 35.686529369352535 ] } },
{ "type": "Feature", "properties": { "内容": "介護老人保健施設けやきの郷【短期入所療養介護（介護老人保健施設）】東京都小平市小川町1丁目485番地", "url2": "https://www.kaigokensaku.mhlw.go.jp/13/index.php?action_kouhyou_detail_004_kani=true&JigyosyoCd=1357080344-00&ServiceCd=220&Type=search" }, "geometry": { "type": "Point", "coordinates": [ 139.4402663, 35.728184400000032 ] } },
{ "type": "Feature", "properties": { "内容": "介護老人保健施設　プラチナ・ヴィラ小平【短期入所療養介護（介護老人保健施設）】東京都小平市鈴木町1－85－1プラチナ・ヴィラ小平", "url2": "https://www.kaigokensaku.mhlw.go.jp/13/index.php?action_kouhyou_detail_004_kani=true&JigyosyoCd=1354380014-00&ServiceCd=220&Type=search" }, "geometry": { "type": "Point", "coordinates": [ 139.4936607, 35.7257984 ] } },
{ "type": "Feature", "properties": { "内容": "介護老人保健施設・クローバー【短期入所療養介護（介護老人保健施設）】東京都日野市東平山3-1-1", "url2": "https://www.kaigokensaku.mhlw.go.jp/13/index.php?action_kouhyou_detail_004_kani=true&JigyosyoCd=1357081482-00&ServiceCd=220&Type=search" }, "geometry": { "type": "Point", "coordinates": [ 139.378192300000023, 35.6548697 ] } },
{ "type": "Feature", "properties": { "内容": "介護老人保健施設カトレア【短期入所療養介護（介護老人保健施設）】東京都日野市日野本町6-3-17", "url2": "https://www.kaigokensaku.mhlw.go.jp/13/index.php?action_kouhyou_detail_004_kani=true&JigyosyoCd=1357080740-00&ServiceCd=220&Type=search" }, "geometry": { "type": "Point", "coordinates": [ 139.401361299999962, 35.6833087 ] } },
{ "type": "Feature", "properties": { "内容": "介護老人保健施設　高幡みさわの杜【短期入所療養介護（介護老人保健施設）】東京都日野市三沢3-22-14", "url2": "https://www.kaigokensaku.mhlw.go.jp/13/index.php?action_kouhyou_detail_004_kani=true&JigyosyoCd=1357080807-00&ServiceCd=220&Type=search" }, "geometry": { "type": "Point", "coordinates": [ 139.418302600000061, 35.6581841 ] } },
{ "type": "Feature", "properties": { "内容": "介護老人保健施設サルビア【短期入所療養介護（介護老人保健施設）】東京都日野市万願寺1丁目18番地の1", "url2": "https://www.kaigokensaku.mhlw.go.jp/13/index.php?action_kouhyou_detail_004_kani=true&JigyosyoCd=1357080914-00&ServiceCd=220&Type=search" }, "geometry": { "type": "Point", "coordinates": [ 139.419732100000033, 35.6763349 ] } },
{ "type": "Feature", "properties": { "内容": "介護老人保健施設ロベリア【短期入所療養介護（介護老人保健施設）】東京都日野市万願寺1-13-4", "url2": "https://www.kaigokensaku.mhlw.go.jp/13/index.php?action_kouhyou_detail_004_kani=true&JigyosyoCd=1357081193-00&ServiceCd=220&Type=search" }, "geometry": { "type": "Point", "coordinates": [ 139.419929300000035, 35.6753822 ] } },
{ "type": "Feature", "properties": { "内容": "介護老人保健施設　東京ばんなん白光園【短期入所療養介護（介護老人保健施設）】東京都東村山市諏訪町二丁目２６番地１", "url2": "https://www.kaigokensaku.mhlw.go.jp/13/index.php?action_kouhyou_detail_004_kani=true&JigyosyoCd=1357080039-00&ServiceCd=220&Type=search" }, "geometry": { "type": "Point", "coordinates": [ 139.463675299999977, 35.7718922 ] } },
{ "type": "Feature", "properties": { "内容": "社会医療法人社団愛有会介護老人保健施設久米川【短期入所療養介護（介護老人保健施設）】東京都東村山市本町4-7-14", "url2": "https://www.kaigokensaku.mhlw.go.jp/13/index.php?action_kouhyou_detail_004_kani=true&JigyosyoCd=1352780017-00&ServiceCd=220&Type=search" }, "geometry": { "type": "Point", "coordinates": [ 139.4697209, 35.754907599999989 ] } },
{ "type": "Feature", "properties": { "内容": "介護老人保健施設グリーン・ボイス【短期入所療養介護（介護老人保健施設）】東京都東村山市萩山町3-31-2", "url2": "https://www.kaigokensaku.mhlw.go.jp/13/index.php?action_kouhyou_detail_004_kani=true&JigyosyoCd=1357080278-00&ServiceCd=220&Type=search" }, "geometry": { "type": "Point", "coordinates": [ 139.468161799999962, 35.7439783 ] } },
{ "type": "Feature", "properties": { "内容": "公益財団法人結核予防会　介護老人保健施設保生の森【短期入所療養介護（介護老人保健施設）】東京都東村山市諏訪町３丁目６番地１", "url2": "https://www.kaigokensaku.mhlw.go.jp/13/index.php?action_kouhyou_detail_004_kani=true&JigyosyoCd=1357080732-00&ServiceCd=220&Type=search" }, "geometry": { "type": "Point", "coordinates": [ 139.46193930000004, 35.7708839 ] } },
{ "type": "Feature", "properties": { "内容": "介護老人保健施設　多摩すずらん【短期入所療養介護（介護老人保健施設）】東京都東村山市青葉町2-27-1", "url2": "https://www.kaigokensaku.mhlw.go.jp/13/index.php?action_kouhyou_detail_004_kani=true&JigyosyoCd=1357080815-00&ServiceCd=220&Type=search" }, "geometry": { "type": "Point", "coordinates": [ 139.491770200000019, 35.7624328 ] } },
{ "type": "Feature", "properties": { "内容": "国分寺市介護老人保健施設すこやか【短期入所療養介護（介護老人保健施設）】東京都国分寺市泉町2-3-8国分寺市いずみプラザ", "url2": "https://www.kaigokensaku.mhlw.go.jp/13/index.php?action_kouhyou_detail_004_kani=true&JigyosyoCd=1357080823-00&ServiceCd=220&Type=search" }, "geometry": { "type": "Point", "coordinates": [ 139.468849800000044, 35.6964477 ] } },
{ "type": "Feature", "properties": { "内容": "にんじん健康ひろば【短期入所療養介護（介護老人保健施設）】東京都国分寺市西元町2-16-40", "url2": "https://www.kaigokensaku.mhlw.go.jp/13/index.php?action_kouhyou_detail_004_kani=true&JigyosyoCd=1353180019-00&ServiceCd=220&Type=search" }, "geometry": { "type": "Point", "coordinates": [ 139.4693304, 35.6951534 ] } },
{ "type": "Feature", "properties": { "内容": "介護老人保健施設国立あおやぎ苑【短期入所療養介護（介護老人保健施設）】東京都国立市青柳3丁目5番地の1", "url2": "https://www.kaigokensaku.mhlw.go.jp/13/index.php?action_kouhyou_detail_004_kani=true&JigyosyoCd=1357080575-00&ServiceCd=220&Type=search" }, "geometry": { "type": "Point", "coordinates": [ 139.42119, 35.6875534 ] } },
{ "type": "Feature", "properties": { "内容": "介護老人保健施設国立あおやぎ苑みのわ通り【短期入所療養介護（介護老人保健施設）】東京都国立市青柳3丁目2番4号", "url2": "https://www.kaigokensaku.mhlw.go.jp/13/index.php?action_kouhyou_detail_004_kani=true&JigyosyoCd=1353480013-00&ServiceCd=220&Type=search" }, "geometry": { "type": "Point", "coordinates": [ 139.4205513, 35.6858479 ] } },
{ "type": "Feature", "properties": { "内容": "介護老人保健施設　あるふぁ国立【短期入所療養介護（介護老人保健施設）】東京都国立市谷保6-21-13", "url2": "https://www.kaigokensaku.mhlw.go.jp/13/index.php?action_kouhyou_detail_004_kani=true&JigyosyoCd=1357080567-00&ServiceCd=220&Type=search" }, "geometry": { "type": "Point", "coordinates": [ 139.442686099999946, 35.6753661 ] } },
{ "type": "Feature", "properties": { "内容": "医療法人社団永進会　介護老人保健施設ユーアイビラ【短期入所療養介護（介護老人保健施設）】東京都福生市南田園一丁目10番地3", "url2": "https://www.kaigokensaku.mhlw.go.jp/13/index.php?action_kouhyou_detail_004_kani=true&JigyosyoCd=1357081052-00&ServiceCd=220&Type=search" }, "geometry": { "type": "Point", "coordinates": [ 139.33170210000003, 35.7228442 ] } },
{ "type": "Feature", "properties": { "内容": "介護老人保健施設　プラチナ・ヴィラ東大和【短期入所療養介護（介護老人保健施設）】東京都東大和市芋窪6-1284-1", "url2": "https://www.kaigokensaku.mhlw.go.jp/13/index.php?action_kouhyou_detail_004_kani=true&JigyosyoCd=1354680017-00&ServiceCd=220&Type=search" }, "geometry": { "type": "Point", "coordinates": [ 139.412708299999963, 35.7505516 ] } },
{ "type": "Feature", "properties": { "内容": "介護老人保健施設ラビアンローゼ【短期入所療養介護（介護老人保健施設）】東京都清瀬市下清戸3-385", "url2": "https://www.kaigokensaku.mhlw.go.jp/13/index.php?action_kouhyou_detail_004_kani=true&JigyosyoCd=1357080369-00&ServiceCd=220&Type=search" }, "geometry": { "type": "Point", "coordinates": [ 139.538971100000026, 35.7848836 ] } },
{ "type": "Feature", "properties": { "内容": "介護老人保健施設　たけおか【短期入所療養介護（介護老人保健施設）】東京都清瀬市竹丘2-3-21", "url2": "https://www.kaigokensaku.mhlw.go.jp/13/index.php?action_kouhyou_detail_004_kani=true&JigyosyoCd=1357080450-00&ServiceCd=220&Type=search" }, "geometry": { "type": "Point", "coordinates": [ 139.508915800000068, 35.7652437 ] } },
{ "type": "Feature", "properties": { "内容": "ケア東久留米【短期入所療養介護（介護老人保健施設）】東京都東久留米市幸町3-11-10", "url2": "https://www.kaigokensaku.mhlw.go.jp/13/index.php?action_kouhyou_detail_004_kani=true&JigyosyoCd=1357081516-00&ServiceCd=220&Type=search" }, "geometry": { "type": "Point", "coordinates": [ 139.521606600000041, 35.7583807 ] } },
{ "type": "Feature", "properties": { "内容": "医療法人財団立川中央病院介護老人保健施設アルカディア【短期入所療養介護（介護老人保健施設）】東京都武蔵村山市三ツ藤一丁目９８番の１", "url2": "https://www.kaigokensaku.mhlw.go.jp/13/index.php?action_kouhyou_detail_004_kani=true&JigyosyoCd=1357081300-00&ServiceCd=220&Type=search" }, "geometry": { "type": "Point", "coordinates": [ 139.379841899999974, 35.7482203 ] } },
{ "type": "Feature", "properties": { "内容": "介護老人保健施設聖の郷【短期入所療養介護（介護老人保健施設）】東京都多摩市連光寺2-69-6", "url2": "https://www.kaigokensaku.mhlw.go.jp/13/index.php?action_kouhyou_detail_004_kani=true&JigyosyoCd=1357080617-00&ServiceCd=220&Type=search" }, "geometry": { "type": "Point", "coordinates": [ 139.453767199999987, 35.6394318 ] } },
{ "type": "Feature", "properties": { "内容": "あい介護老人保健施設【短期入所療養介護（介護老人保健施設）】東京都多摩市中沢1-17-38", "url2": "https://www.kaigokensaku.mhlw.go.jp/13/index.php?action_kouhyou_detail_004_kani=true&JigyosyoCd=1357081045-00&ServiceCd=220&Type=search" }, "geometry": { "type": "Point", "coordinates": [ 139.412685300000021, 35.6221716 ] } },
{ "type": "Feature", "properties": { "内容": "介護老人保健施設デンマークイン若葉台【短期入所療養介護（介護老人保健施設）】東京都稲城市若葉台３－７－１", "url2": "https://www.kaigokensaku.mhlw.go.jp/13/index.php?action_kouhyou_detail_004_kani=true&JigyosyoCd=1357080013-00&ServiceCd=220&Type=search" }, "geometry": { "type": "Point", "coordinates": [ 139.46467819999998, 35.6243789 ] } },
{ "type": "Feature", "properties": { "内容": "医療法人社団　葵会　介護老人保健施設　葵の園・羽村【短期入所療養介護（介護老人保健施設）】東京都羽村市栄町三丁目3番10", "url2": "https://www.kaigokensaku.mhlw.go.jp/13/index.php?action_kouhyou_detail_004_kani=true&JigyosyoCd=1355380013-00&ServiceCd=220&Type=search" }, "geometry": { "type": "Point", "coordinates": [ 139.31414129999996, 35.7728289 ] } },
{ "type": "Feature", "properties": { "内容": "介護老人保健施設　あかしあの里【短期入所療養介護（介護老人保健施設）】東京都羽村市玉川二丁目６番６号", "url2": "https://www.kaigokensaku.mhlw.go.jp/13/index.php?action_kouhyou_detail_004_kani=true&JigyosyoCd=1357080971-00&ServiceCd=220&Type=search" }, "geometry": { "type": "Point", "coordinates": [ 139.314741300000037, 35.7490711 ] } },
{ "type": "Feature", "properties": { "内容": "オキドキ【短期入所療養介護（介護老人保健施設）】東京都あきる野市伊奈４７７番地１", "url2": "https://www.kaigokensaku.mhlw.go.jp/13/index.php?action_kouhyou_detail_004_kani=true&JigyosyoCd=1357081326-00&ServiceCd=220&Type=search" }, "geometry": { "type": "Point", "coordinates": [ 139.255119299999933, 35.7331518 ] } },
{ "type": "Feature", "properties": { "内容": "介護老人保健施設　さくら【短期入所療養介護（介護老人保健施設）】東京都あきる野市草花字南小宮３０７９番５", "url2": "https://www.kaigokensaku.mhlw.go.jp/13/index.php?action_kouhyou_detail_004_kani=true&JigyosyoCd=1357080526-00&ServiceCd=220&Type=search" }, "geometry": { "type": "Point", "coordinates": [ 139.314736, 35.7409554 ] } },
{ "type": "Feature", "properties": { "内容": "介護老人保健施設　葵の園・ひばりが丘【短期入所療養介護（介護老人保健施設）】東京都西東京市ひばりが丘３－１－８", "url2": "https://www.kaigokensaku.mhlw.go.jp/13/index.php?action_kouhyou_detail_004_kani=true&JigyosyoCd=1355480029-00&ServiceCd=220&Type=search" }, "geometry": { "type": "Point", "coordinates": [ 139.53676328343235, 35.744279516611456 ] } },
{ "type": "Feature", "properties": { "内容": "介護老人保健施設　ハートフル田無【短期入所療養介護（介護老人保健施設）】東京都西東京市向台町2-16-22", "url2": "https://www.kaigokensaku.mhlw.go.jp/13/index.php?action_kouhyou_detail_004_kani=true&JigyosyoCd=1357080641-00&ServiceCd=220&Type=search" }, "geometry": { "type": "Point", "coordinates": [ 139.5394427, 35.7203941 ] } },
{ "type": "Feature", "properties": { "内容": "介護老人保健施設　武蔵野徳洲苑【短期入所療養介護（介護老人保健施設）】東京都西東京市向台町3丁目5番57号", "url2": "https://www.kaigokensaku.mhlw.go.jp/13/index.php?action_kouhyou_detail_004_kani=true&JigyosyoCd=1355480011-00&ServiceCd=220&Type=search" }, "geometry": { "type": "Point", "coordinates": [ 139.533242455819732, 35.718443366044355 ] } },
{ "type": "Feature", "properties": { "内容": "介護老人保健施設　菜の花【短期入所療養介護（介護老人保健施設）】東京都西多摩郡瑞穂町殿ヶ谷454", "url2": "https://www.kaigokensaku.mhlw.go.jp/13/index.php?action_kouhyou_detail_004_kani=true&JigyosyoCd=1357081201-00&ServiceCd=220&Type=search" }, "geometry": { "type": "Point", "coordinates": [ 139.356727, 35.7577324 ] } },
{ "type": "Feature", "properties": { "内容": "介護老人保健施設　けんちの苑みずほ【短期入所療養介護（介護老人保健施設）】東京都西多摩郡瑞穂町大字長岡長谷部31-1", "url2": "https://www.kaigokensaku.mhlw.go.jp/13/index.php?action_kouhyou_detail_004_kani=true&JigyosyoCd=1357081029-00&ServiceCd=220&Type=search" }, "geometry": { "type": "Point", "coordinates": [ 139.330011, 35.787275300000019 ] } },
{ "type": "Feature", "properties": { "内容": "かいごろうじんほけんしせつ　ふぁみりーとひので【短期入所療養介護（介護老人保健施設）】東京都西多摩郡日の出町平井351-1", "url2": "https://www.kaigokensaku.mhlw.go.jp/13/index.php?action_kouhyou_detail_004_kani=true&JigyosyoCd=1352480022-00&ServiceCd=220&Type=search" }, "geometry": { "type": "Point", "coordinates": [ 139.2833133, 35.7340661 ] } },
{ "type": "Feature", "properties": { "内容": "介護老人保健施設ウェルピア白寿【短期入所療養介護（介護老人保健施設）】東京都西多摩日の出町平井3820番地介護老人保健施設ウェルピア白寿", "url2": "https://www.kaigokensaku.mhlw.go.jp/13/index.php?action_kouhyou_detail_004_kani=true&JigyosyoCd=1357081391-00&ServiceCd=220&Type=search" }, "geometry": { "type": "Point", "coordinates": [ 139.2719601, 35.7448214 ] } },
{ "type": "Feature", "properties": { "内容": "介護老人保健施設　日の出さくら【短期入所療養介護（介護老人保健施設）】東京都西多摩郡日の出町大字平井字宮本3608番1", "url2": "https://www.kaigokensaku.mhlw.go.jp/13/index.php?action_kouhyou_detail_004_kani=true&JigyosyoCd=1352480030-00&ServiceCd=220&Type=search" }, "geometry": { "type": "Point", "coordinates": [ 139.267149865723212, 35.744474704704913 ] } }
]
}
