{
"type": "FeatureCollection",
"name": "geo_13_特定施設入居者生活介護（有料老人ホーム（サービス付き高齢者向け住宅））",
"crs": { "type": "name", "properties": { "name": "urn:ogc:def:crs:OGC:1.3:CRS84" } },
"features": [
{ "type": "Feature", "properties": { "内容": "グランクレールHARUMIFLAG　ケアレジデンス【特定施設入居者生活介護（有料老人ホーム（サービス付き高齢者向け住宅））】東京都中央区晴海五丁目3番4号", "url2": "https://www.kaigokensaku.mhlw.go.jp/13/index.php?action_kouhyou_detail_004_kani=true&JigyosyoCd=1370202770-00&ServiceCd=&Type=search" }, "geometry": { "type": "Point", "coordinates": [ 139.7772587, 35.6508307 ] } },
{ "type": "Feature", "properties": { "内容": "ツクイ・ののあおやま【特定施設入居者生活介護（有料老人ホーム（サービス付き高齢者向け住宅））】東京都港区北青山3-4-3", "url2": "https://www.kaigokensaku.mhlw.go.jp/13/index.php?action_kouhyou_detail_004_kani=true&JigyosyoCd=1370305201-00&ServiceCd=&Type=search" }, "geometry": { "type": "Point", "coordinates": [ 139.7127001, 35.6669407 ] } },
{ "type": "Feature", "properties": { "内容": "サナサンテ入谷【特定施設入居者生活介護（有料老人ホーム（サービス付き高齢者向け住宅））】東京都台東区竜泉１－１９－７", "url2": "https://www.kaigokensaku.mhlw.go.jp/13/index.php?action_kouhyou_detail_004_kani=true&JigyosyoCd=1370604421-00&ServiceCd=&Type=search" }, "geometry": { "type": "Point", "coordinates": [ 139.78954250000001, 35.7237102 ] } },
{ "type": "Feature", "properties": { "内容": "グレイテストライフ浅草（介護予防）特定施設入居者生活介護【特定施設入居者生活介護（有料老人ホーム（サービス付き高齢者向け住宅））】東京都台東区東浅草2-22-5グレイテストライフ浅草", "url2": "https://www.kaigokensaku.mhlw.go.jp/13/index.php?action_kouhyou_detail_004_kani=true&JigyosyoCd=1370604462-00&ServiceCd=&Type=search" }, "geometry": { "type": "Point", "coordinates": [ 139.799840499999988, 35.725012 ] } },
{ "type": "Feature", "properties": { "内容": "東急ウェリナ旗の台【特定施設入居者生活介護（有料老人ホーム（サービス付き高齢者向け住宅））】東京都品川区旗の台２丁目１２番１号東急ウェリナ旗の台", "url2": "https://www.kaigokensaku.mhlw.go.jp/13/index.php?action_kouhyou_detail_004_kani=true&JigyosyoCd=1370903831-00&ServiceCd=&Type=search" }, "geometry": { "type": "Point", "coordinates": [ 139.701047, 35.605434 ] } },
{ "type": "Feature", "properties": { "内容": "ケアホーム西大井こうほうえん【特定施設入居者生活介護（有料老人ホーム（サービス付き高齢者向け住宅））】東京都品川区西大井2-5-21", "url2": "https://www.kaigokensaku.mhlw.go.jp/13/index.php?action_kouhyou_detail_004_kani=true&JigyosyoCd=1370903146-00&ServiceCd=&Type=search" }, "geometry": { "type": "Point", "coordinates": [ 139.721864900000014, 35.5992548 ] } },
{ "type": "Feature", "properties": { "内容": "メディカルホームセントラル南馬込【特定施設入居者生活介護（有料老人ホーム（サービス付き高齢者向け住宅））】東京都大田区南馬込3丁目25-5", "url2": "https://www.kaigokensaku.mhlw.go.jp/13/index.php?action_kouhyou_detail_004_kani=true&JigyosyoCd=1371111228-00&ServiceCd=&Type=search" }, "geometry": { "type": "Point", "coordinates": [ 139.719565900000021, 35.585425900000011 ] } },
{ "type": "Feature", "properties": { "内容": "ライブラリ大森東五丁目【特定施設入居者生活介護（有料老人ホーム（サービス付き高齢者向け住宅））】東京都大田区大森東5丁目10-3", "url2": "https://www.kaigokensaku.mhlw.go.jp/13/index.php?action_kouhyou_detail_004_kani=true&JigyosyoCd=1371112556-00&ServiceCd=&Type=search" }, "geometry": { "type": "Point", "coordinates": [ 139.741602853967294, 35.569038698505651 ] } },
{ "type": "Feature", "properties": { "内容": "ホームステーションらいふ羽田大鳥居【特定施設入居者生活介護（有料老人ホーム（サービス付き高齢者向け住宅））】東京都大田区萩中3-14-20", "url2": "https://www.kaigokensaku.mhlw.go.jp/13/index.php?action_kouhyou_detail_004_kani=true&JigyosyoCd=1371112978-00&ServiceCd=&Type=search" }, "geometry": { "type": "Point", "coordinates": [ 139.7337287, 35.551402 ] } },
{ "type": "Feature", "properties": { "内容": "プライマリー山王【特定施設入居者生活介護（有料老人ホーム（サービス付き高齢者向け住宅））】東京都大田区山王１－４３－２プライマリー山王", "url2": "https://www.kaigokensaku.mhlw.go.jp/13/index.php?action_kouhyou_detail_004_kani=true&JigyosyoCd=1371110451-00&ServiceCd=&Type=search" }, "geometry": { "type": "Point", "coordinates": [ 139.720065500000032, 35.592014 ] } },
{ "type": "Feature", "properties": { "内容": "リハビリホームくらら西馬込【特定施設入居者生活介護（有料老人ホーム（サービス付き高齢者向け住宅））】東京都大田区西馬込1-29-12", "url2": "https://www.kaigokensaku.mhlw.go.jp/13/index.php?action_kouhyou_detail_004_kani=true&JigyosyoCd=1371110956-00&ServiceCd=&Type=search" }, "geometry": { "type": "Point", "coordinates": [ 139.706097699999987, 35.5883225 ] } },
{ "type": "Feature", "properties": { "内容": "ココファン池上通り【特定施設入居者生活介護（有料老人ホーム（サービス付き高齢者向け住宅））】東京都大田区池上8-2-1ココファン池上通り", "url2": "https://www.kaigokensaku.mhlw.go.jp/13/index.php?action_kouhyou_detail_004_kani=true&JigyosyoCd=1371113521-00&ServiceCd=&Type=search" }, "geometry": { "type": "Point", "coordinates": [ 139.6975243, 35.5723518 ] } },
{ "type": "Feature", "properties": { "内容": "そんぽの家大森西【特定施設入居者生活介護（有料老人ホーム（サービス付き高齢者向け住宅））】東京都大田区大森西7-6-30", "url2": "https://www.kaigokensaku.mhlw.go.jp/13/index.php?action_kouhyou_detail_004_kani=true&JigyosyoCd=1371112275-00&ServiceCd=&Type=search" }, "geometry": { "type": "Point", "coordinates": [ 139.721719500000063, 35.569352800000019 ] } },
{ "type": "Feature", "properties": { "内容": "ハーモニーライフ八幡山【特定施設入居者生活介護（有料老人ホーム（サービス付き高齢者向け住宅））】東京都世田谷区八幡山3-24-4ハーモニーライフ八幡山", "url2": "https://www.kaigokensaku.mhlw.go.jp/13/index.php?action_kouhyou_detail_004_kani=true&JigyosyoCd=1371215532-00&ServiceCd=&Type=search" }, "geometry": { "type": "Point", "coordinates": [ 139.617381199999954, 35.6662117 ] } },
{ "type": "Feature", "properties": { "内容": "ココファン世田谷砧【特定施設入居者生活介護（有料老人ホーム（サービス付き高齢者向け住宅））】東京都世田谷区砧5-1-6", "url2": "https://www.kaigokensaku.mhlw.go.jp/13/index.php?action_kouhyou_detail_004_kani=true&JigyosyoCd=1371216134-00&ServiceCd=&Type=search" }, "geometry": { "type": "Point", "coordinates": [ 139.609780599999965, 35.6345415 ] } },
{ "type": "Feature", "properties": { "内容": "リアンレーヴ世田谷【特定施設入居者生活介護（有料老人ホーム（サービス付き高齢者向け住宅））】東京都世田谷区上用賀一丁目26番20号", "url2": "https://www.kaigokensaku.mhlw.go.jp/13/index.php?action_kouhyou_detail_004_kani=true&JigyosyoCd=1371216670-00&ServiceCd=&Type=search" }, "geometry": { "type": "Point", "coordinates": [ 139.632720799999959, 35.6338852 ] } },
{ "type": "Feature", "properties": { "内容": "リハビリホームまどか上祖師谷【特定施設入居者生活介護（有料老人ホーム（サービス付き高齢者向け住宅））】東京都世田谷区上祖師谷6-7-15", "url2": "https://www.kaigokensaku.mhlw.go.jp/13/index.php?action_kouhyou_detail_004_kani=true&JigyosyoCd=1371214238-00&ServiceCd=&Type=search" }, "geometry": { "type": "Point", "coordinates": [ 139.596812499999942, 35.6584332 ] } },
{ "type": "Feature", "properties": { "内容": "グランクレール世田谷中町ケアレジデンス【特定施設入居者生活介護（有料老人ホーム（サービス付き高齢者向け住宅））】東京都世田谷区中町五丁目9番9号グランクレール世田谷中町ケアレジデンス", "url2": "https://www.kaigokensaku.mhlw.go.jp/13/index.php?action_kouhyou_detail_004_kani=true&JigyosyoCd=1371214725-00&ServiceCd=&Type=search" }, "geometry": { "type": "Point", "coordinates": [ 139.644848899999943, 35.6216864 ] } },
{ "type": "Feature", "properties": { "内容": "祖師谷ケアパークそよ風【特定施設入居者生活介護（有料老人ホーム（サービス付き高齢者向け住宅））】東京都世田谷区祖師谷４丁目３－１５", "url2": "https://www.kaigokensaku.mhlw.go.jp/13/index.php?action_kouhyou_detail_004_kani=true&JigyosyoCd=1371209360-00&ServiceCd=&Type=search" }, "geometry": { "type": "Point", "coordinates": [ 139.6077197, 35.6476095 ] } },
{ "type": "Feature", "properties": { "内容": "ココファンレジデンス世田谷弦巻【特定施設入居者生活介護（有料老人ホーム（サービス付き高齢者向け住宅））】東京都世田谷区弦巻1-3-19", "url2": "https://www.kaigokensaku.mhlw.go.jp/13/index.php?action_kouhyou_detail_004_kani=true&JigyosyoCd=1371217918-00&ServiceCd=&Type=search" }, "geometry": { "type": "Point", "coordinates": [ 139.655291, 35.6380787 ] } },
{ "type": "Feature", "properties": { "内容": "ニチイホーム渋谷本町【特定施設入居者生活介護（有料老人ホーム（サービス付き高齢者向け住宅））】東京都渋谷区本町4丁目49番15号ニチイホーム渋谷本町", "url2": "https://www.kaigokensaku.mhlw.go.jp/13/index.php?action_kouhyou_detail_004_kani=true&JigyosyoCd=1371303692-00&ServiceCd=&Type=search" }, "geometry": { "type": "Point", "coordinates": [ 139.678336100000024, 35.6870008 ] } },
{ "type": "Feature", "properties": { "内容": "ローベル西荻窪【特定施設入居者生活介護（有料老人ホーム（サービス付き高齢者向け住宅））】東京都杉並区西荻北3-11-25", "url2": "https://www.kaigokensaku.mhlw.go.jp/13/index.php?action_kouhyou_detail_004_kani=true&JigyosyoCd=1371510726-00&ServiceCd=&Type=search" }, "geometry": { "type": "Point", "coordinates": [ 139.595056, 35.704610700000039 ] } },
{ "type": "Feature", "properties": { "内容": "ホームステーション高井戸【特定施設入居者生活介護（有料老人ホーム（サービス付き高齢者向け住宅））】東京都杉並区上高井戸1-25-14", "url2": "https://www.kaigokensaku.mhlw.go.jp/13/index.php?action_kouhyou_detail_004_kani=true&JigyosyoCd=1371510890-00&ServiceCd=&Type=search" }, "geometry": { "type": "Point", "coordinates": [ 139.613186, 35.6737021 ] } },
{ "type": "Feature", "properties": { "内容": "ローベル上井草【特定施設入居者生活介護（有料老人ホーム（サービス付き高齢者向け住宅））】東京都杉並区上井草3-25-4ローベル上井草", "url2": "https://www.kaigokensaku.mhlw.go.jp/13/index.php?action_kouhyou_detail_004_kani=true&JigyosyoCd=1371510932-00&ServiceCd=&Type=search" }, "geometry": { "type": "Point", "coordinates": [ 139.5993559, 35.7218698 ] } },
{ "type": "Feature", "properties": { "内容": "イリーゼ明大前【特定施設入居者生活介護（有料老人ホーム（サービス付き高齢者向け住宅））】東京都杉並区和泉2丁目22番22号イリーゼ明大前", "url2": "https://www.kaigokensaku.mhlw.go.jp/13/index.php?action_kouhyou_detail_004_kani=true&JigyosyoCd=1371511526-00&ServiceCd=&Type=search" }, "geometry": { "type": "Point", "coordinates": [ 139.65128398465572, 35.673590331193672 ] } },
{ "type": "Feature", "properties": { "内容": "ラヴィーレ東池袋【特定施設入居者生活介護（有料老人ホーム（サービス付き高齢者向け住宅））】東京都豊島区東池袋5-43-6", "url2": "https://www.kaigokensaku.mhlw.go.jp/13/index.php?action_kouhyou_detail_004_kani=true&JigyosyoCd=1371606037-00&ServiceCd=&Type=search" }, "geometry": { "type": "Point", "coordinates": [ 139.7254873, 35.7270231 ] } },
{ "type": "Feature", "properties": { "内容": "プラチナ・シニアホーム高島平【特定施設入居者生活介護（有料老人ホーム（サービス付き高齢者向け住宅））】東京都板橋区新河岸3-11-11", "url2": "https://www.kaigokensaku.mhlw.go.jp/13/index.php?action_kouhyou_detail_004_kani=true&JigyosyoCd=1371908896-00&ServiceCd=&Type=search" }, "geometry": { "type": "Point", "coordinates": [ 139.651400494442782, 35.795489622169839 ] } },
{ "type": "Feature", "properties": { "内容": "ホームステーション蓮根【特定施設入居者生活介護（有料老人ホーム（サービス付き高齢者向け住宅））】東京都板橋区坂下3-30-17", "url2": "https://www.kaigokensaku.mhlw.go.jp/13/index.php?action_kouhyou_detail_004_kani=true&JigyosyoCd=1371909522-00&ServiceCd=&Type=search" }, "geometry": { "type": "Point", "coordinates": [ 139.6817466, 35.7900593 ] } },
{ "type": "Feature", "properties": { "内容": "プラチナ・シニアホーム板橋徳丸弐番館【特定施設入居者生活介護（有料老人ホーム（サービス付き高齢者向け住宅））】東京都板橋区徳丸5-29-16プラチナ・シニアホーム板橋徳丸弐番館", "url2": "https://www.kaigokensaku.mhlw.go.jp/13/index.php?action_kouhyou_detail_004_kani=true&JigyosyoCd=1371909589-00&ServiceCd=&Type=search" }, "geometry": { "type": "Point", "coordinates": [ 139.654381100000023, 35.7789153 ] } },
{ "type": "Feature", "properties": { "内容": "ホームステーション中板橋【特定施設入居者生活介護（有料老人ホーム（サービス付き高齢者向け住宅））】東京都板橋区弥生町75-10", "url2": "https://www.kaigokensaku.mhlw.go.jp/13/index.php?action_kouhyou_detail_004_kani=true&JigyosyoCd=1371910397-00&ServiceCd=&Type=search" }, "geometry": { "type": "Point", "coordinates": [ 139.692379226983604, 35.752882737392937 ] } },
{ "type": "Feature", "properties": { "内容": "アミカの郷成増【特定施設入居者生活介護（有料老人ホーム（サービス付き高齢者向け住宅））】東京都板橋区三園1-32-2", "url2": "https://www.kaigokensaku.mhlw.go.jp/13/index.php?action_kouhyou_detail_004_kani=true&JigyosyoCd=1371911494-00&ServiceCd=&Type=search" }, "geometry": { "type": "Point", "coordinates": [ 139.640627116007977, 35.789796973797323 ] } },
{ "type": "Feature", "properties": { "内容": "ローベル西台【特定施設入居者生活介護（有料老人ホーム（サービス付き高齢者向け住宅））】東京都板橋区西台1-40-15", "url2": "https://www.kaigokensaku.mhlw.go.jp/13/index.php?action_kouhyou_detail_004_kani=true&JigyosyoCd=1371911585-00&ServiceCd=&Type=search" }, "geometry": { "type": "Point", "coordinates": [ 139.6756646, 35.7765135 ] } },
{ "type": "Feature", "properties": { "内容": "家族の家ひまわり赤塚【特定施設入居者生活介護（有料老人ホーム（サービス付き高齢者向け住宅））】東京都板橋区赤塚7-25-9", "url2": "https://www.kaigokensaku.mhlw.go.jp/13/index.php?action_kouhyou_detail_004_kani=true&JigyosyoCd=1371912112-00&ServiceCd=&Type=search" }, "geometry": { "type": "Point", "coordinates": [ 139.649737099999982, 35.7788567 ] } },
{ "type": "Feature", "properties": { "内容": "プラチナ・シニアホーム板橋徳丸【特定施設入居者生活介護（有料老人ホーム（サービス付き高齢者向け住宅））】東京都板橋区徳丸３－３８－１９", "url2": "https://www.kaigokensaku.mhlw.go.jp/13/index.php?action_kouhyou_detail_004_kani=true&JigyosyoCd=1371907492-00&ServiceCd=&Type=search" }, "geometry": { "type": "Point", "coordinates": [ 139.658694700000069, 35.7755742 ] } },
{ "type": "Feature", "properties": { "内容": "イリーゼ練馬光が丘【特定施設入居者生活介護（有料老人ホーム（サービス付き高齢者向け住宅））】東京都練馬区土支田一丁目14番10号", "url2": "https://www.kaigokensaku.mhlw.go.jp/13/index.php?action_kouhyou_detail_004_kani=true&JigyosyoCd=1372014371-00&ServiceCd=&Type=search" }, "geometry": { "type": "Point", "coordinates": [ 139.618761335581979, 35.764154239891305 ] } },
{ "type": "Feature", "properties": { "内容": "ココファン練馬関町【特定施設入居者生活介護（有料老人ホーム（サービス付き高齢者向け住宅））】東京都練馬区関町南4-21-21", "url2": "https://www.kaigokensaku.mhlw.go.jp/13/index.php?action_kouhyou_detail_004_kani=true&JigyosyoCd=1372010288-00&ServiceCd=&Type=search" }, "geometry": { "type": "Point", "coordinates": [ 139.568390200000067, 35.7220448 ] } },
{ "type": "Feature", "properties": { "内容": "ホームステーション氷川台【特定施設入居者生活介護（有料老人ホーム（サービス付き高齢者向け住宅））】東京都練馬区桜台3-4-2ホームステーション氷川台", "url2": "https://www.kaigokensaku.mhlw.go.jp/13/index.php?action_kouhyou_detail_004_kani=true&JigyosyoCd=1372013472-00&ServiceCd=&Type=search" }, "geometry": { "type": "Point", "coordinates": [ 139.6694612, 35.746067200000034 ] } },
{ "type": "Feature", "properties": { "内容": "リーシェガーデン大泉学園【特定施設入居者生活介護（有料老人ホーム（サービス付き高齢者向け住宅））】東京都練馬区大泉学園町七丁目１０番２１号", "url2": "https://www.kaigokensaku.mhlw.go.jp/13/index.php?action_kouhyou_detail_004_kani=true&JigyosyoCd=1372013860-00&ServiceCd=&Type=search" }, "geometry": { "type": "Point", "coordinates": [ 139.586691793640114, 35.77191573981262 ] } },
{ "type": "Feature", "properties": { "内容": "ホームステーション石神井公園【特定施設入居者生活介護（有料老人ホーム（サービス付き高齢者向け住宅））】東京都練馬区谷原2-1-11", "url2": "https://www.kaigokensaku.mhlw.go.jp/13/index.php?action_kouhyou_detail_004_kani=true&JigyosyoCd=1372014231-00&ServiceCd=&Type=search" }, "geometry": { "type": "Point", "coordinates": [ 139.6181554, 35.7502266 ] } },
{ "type": "Feature", "properties": { "内容": "ライブラリ練馬高野台【特定施設入居者生活介護（有料老人ホーム（サービス付き高齢者向け住宅））】東京都練馬区南田中2-22‐12", "url2": "https://www.kaigokensaku.mhlw.go.jp/13/index.php?action_kouhyou_detail_004_kani=true&JigyosyoCd=1372014389-00&ServiceCd=&Type=search" }, "geometry": { "type": "Point", "coordinates": [ 139.616362899999984, 35.7354363 ] } },
{ "type": "Feature", "properties": { "内容": "ウエリスオリーブ武蔵野関町ケアレジデンス【特定施設入居者生活介護（有料老人ホーム（サービス付き高齢者向け住宅））】東京都練馬区関町南4-16-20ウエリスオリーブ武蔵野関町ケアレジデンス", "url2": "https://www.kaigokensaku.mhlw.go.jp/13/index.php?action_kouhyou_detail_004_kani=true&JigyosyoCd=1372011971-00&ServiceCd=&Type=search" }, "geometry": { "type": "Point", "coordinates": [ 139.571244789549269, 35.721956674220635 ] } },
{ "type": "Feature", "properties": { "内容": "イリーゼ練馬中村橋【特定施設入居者生活介護（有料老人ホーム（サービス付き高齢者向け住宅））】東京都練馬区中村南2丁目1-11", "url2": "https://www.kaigokensaku.mhlw.go.jp/13/index.php?action_kouhyou_detail_004_kani=true&JigyosyoCd=1372012698-00&ServiceCd=&Type=search" }, "geometry": { "type": "Point", "coordinates": [ 139.6449467, 35.7304206 ] } },
{ "type": "Feature", "properties": { "内容": "サービス付高齢者向け住宅　特定施設入居者生活介護エクセレント練馬プレミア【特定施設入居者生活介護（有料老人ホーム（サービス付き高齢者向け住宅））】東京都練馬区平和台１－１７－１０", "url2": "https://www.kaigokensaku.mhlw.go.jp/13/index.php?action_kouhyou_detail_004_kani=true&JigyosyoCd=1372006112-00&ServiceCd=&Type=search" }, "geometry": { "type": "Point", "coordinates": [ 139.665114099999982, 35.7586932 ] } },
{ "type": "Feature", "properties": { "内容": "ハートランド足立【特定施設入居者生活介護（有料老人ホーム（サービス付き高齢者向け住宅））】東京都足立区堀之内2丁目8番7号", "url2": "https://www.kaigokensaku.mhlw.go.jp/13/index.php?action_kouhyou_detail_004_kani=true&JigyosyoCd=1372113280-00&ServiceCd=&Type=search" }, "geometry": { "type": "Point", "coordinates": [ 139.7585774, 35.7756606 ] } },
{ "type": "Feature", "properties": { "内容": "アミカの郷亀有【特定施設入居者生活介護（有料老人ホーム（サービス付き高齢者向け住宅））】東京都足立区佐野1-9-3", "url2": "https://www.kaigokensaku.mhlw.go.jp/13/index.php?action_kouhyou_detail_004_kani=true&JigyosyoCd=1372113322-00&ServiceCd=&Type=search" }, "geometry": { "type": "Point", "coordinates": [ 139.843769400000014, 35.7851655 ] } },
{ "type": "Feature", "properties": { "内容": "ﾄﾞｰﾐｰ亀有Levi【特定施設入居者生活介護（有料老人ホーム（サービス付き高齢者向け住宅））】東京都足立区東和1-17-26", "url2": "https://www.kaigokensaku.mhlw.go.jp/13/index.php?action_kouhyou_detail_004_kani=true&JigyosyoCd=1372113801-00&ServiceCd=&Type=search" }, "geometry": { "type": "Point", "coordinates": [ 139.8386334, 35.7671479 ] } },
{ "type": "Feature", "properties": { "内容": "ココファン新小岩【特定施設入居者生活介護（有料老人ホーム（サービス付き高齢者向け住宅））】東京都葛飾区東新小岩5丁目14番2号ココファン新小岩", "url2": "https://www.kaigokensaku.mhlw.go.jp/13/index.php?action_kouhyou_detail_004_kani=true&JigyosyoCd=1372209484-00&ServiceCd=&Type=search" }, "geometry": { "type": "Point", "coordinates": [ 139.854043600000011, 35.7224035 ] } },
{ "type": "Feature", "properties": { "内容": "イリーゼ葛飾水元【特定施設入居者生活介護（有料老人ホーム（サービス付き高齢者向け住宅））】東京都葛飾区西水元6-2-6イリーゼ葛飾水元", "url2": "https://www.kaigokensaku.mhlw.go.jp/13/index.php?action_kouhyou_detail_004_kani=true&JigyosyoCd=1372208841-00&ServiceCd=&Type=search" }, "geometry": { "type": "Point", "coordinates": [ 139.8532869, 35.7893328 ] } },
{ "type": "Feature", "properties": { "内容": "タムスさくらレジデンス篠崎【特定施設入居者生活介護（有料老人ホーム（サービス付き高齢者向け住宅））】東京都江戸川区篠崎町4-21-10", "url2": "https://www.kaigokensaku.mhlw.go.jp/13/index.php?action_kouhyou_detail_004_kani=true&JigyosyoCd=1372309623-00&ServiceCd=&Type=search" }, "geometry": { "type": "Point", "coordinates": [ 139.911837099999957, 35.6996678 ] } },
{ "type": "Feature", "properties": { "内容": "リアンレーヴ立川【特定施設入居者生活介護（有料老人ホーム（サービス付き高齢者向け住宅））】東京都立川市柏町２－１２－６リアンレーヴ立川", "url2": "https://www.kaigokensaku.mhlw.go.jp/13/index.php?action_kouhyou_detail_004_kani=true&JigyosyoCd=1373003324-00&ServiceCd=&Type=search" }, "geometry": { "type": "Point", "coordinates": [ 139.416642200000069, 35.7213827 ] } },
{ "type": "Feature", "properties": { "内容": "ディーフェスタクオーレ立川【特定施設入居者生活介護（有料老人ホーム（サービス付き高齢者向け住宅））】東京都立川市幸町2-53-1ディーフェスタクオーレ立川", "url2": "https://www.kaigokensaku.mhlw.go.jp/13/index.php?action_kouhyou_detail_004_kani=true&JigyosyoCd=1373003357-00&ServiceCd=&Type=search" }, "geometry": { "type": "Point", "coordinates": [ 139.426775300000031, 35.7224152 ] } },
{ "type": "Feature", "properties": { "内容": "ホームステーション三鷹【特定施設入居者生活介護（有料老人ホーム（サービス付き高齢者向け住宅））】東京都三鷹市上連雀7-10-10", "url2": "https://www.kaigokensaku.mhlw.go.jp/13/index.php?action_kouhyou_detail_004_kani=true&JigyosyoCd=1373602752-00&ServiceCd=&Type=search" }, "geometry": { "type": "Point", "coordinates": [ 139.5539134, 35.6907103 ] } },
{ "type": "Feature", "properties": { "内容": "デンマークINNつつじヶ丘【特定施設入居者生活介護（有料老人ホーム（サービス付き高齢者向け住宅））】東京都調布市2丁目36番地１デンマークINNつつじヶ丘", "url2": "https://www.kaigokensaku.mhlw.go.jp/13/index.php?action_kouhyou_detail_004_kani=true&JigyosyoCd=1374203741-00&ServiceCd=&Type=search" }, "geometry": { "type": "Point", "coordinates": [ 139.578620441144182, 35.655775621056918 ] } },
{ "type": "Feature", "properties": { "内容": "ウエリスオリーブ成城学園前ケアレジデンス【特定施設入居者生活介護（有料老人ホーム（サービス付き高齢者向け住宅））】東京都調布市入間町2丁目28番36ウエリスオリーブ成城学園前ケアレジデンス", "url2": "https://www.kaigokensaku.mhlw.go.jp/13/index.php?action_kouhyou_detail_004_kani=true&JigyosyoCd=1374203402-00&ServiceCd=&Type=search" }, "geometry": { "type": "Point", "coordinates": [ 139.587089411639454, 35.648960063071705 ] } },
{ "type": "Feature", "properties": { "内容": "ﾎｰﾑｽﾃｰｼｮﾝ町田【特定施設入居者生活介護（有料老人ホーム（サービス付き高齢者向け住宅））】東京都町田市南町田1-7-1", "url2": "https://www.kaigokensaku.mhlw.go.jp/13/index.php?action_kouhyou_detail_004_kani=true&JigyosyoCd=1373205713-00&ServiceCd=&Type=search" }, "geometry": { "type": "Point", "coordinates": [ 139.468261696047961, 35.523128714733033 ] } },
{ "type": "Feature", "properties": { "内容": "せらび小金井【特定施設入居者生活介護（有料老人ホーム（サービス付き高齢者向け住宅））】東京都小金井市貫井北町3-37-6", "url2": "https://www.kaigokensaku.mhlw.go.jp/13/index.php?action_kouhyou_detail_004_kani=true&JigyosyoCd=1374101523-00&ServiceCd=&Type=search" }, "geometry": { "type": "Point", "coordinates": [ 139.50207439999997, 35.7114607 ] } },
{ "type": "Feature", "properties": { "内容": "ホームステーションらいふ小平【特定施設入居者生活介護（有料老人ホーム（サービス付き高齢者向け住宅））】東京都小平市小川町1丁目3002-10", "url2": "https://www.kaigokensaku.mhlw.go.jp/13/index.php?action_kouhyou_detail_004_kani=true&JigyosyoCd=1374302568-00&ServiceCd=&Type=search" }, "geometry": { "type": "Point", "coordinates": [ 139.442995368817122, 35.725313141525355 ] } },
{ "type": "Feature", "properties": { "内容": "アミカの郷小平あじさい公園【特定施設入居者生活介護（有料老人ホーム（サービス付き高齢者向け住宅））】東京都小平市仲町293－5", "url2": "https://www.kaigokensaku.mhlw.go.jp/13/index.php?action_kouhyou_detail_004_kani=true&JigyosyoCd=1374303921-00&ServiceCd=&Type=search" }, "geometry": { "type": "Point", "coordinates": [ 139.4918468, 35.7337602 ] } },
{ "type": "Feature", "properties": { "内容": "サービス付き高齢者向け住宅　風のガーデンひの【特定施設入居者生活介護（有料老人ホーム（サービス付き高齢者向け住宅））】東京都日野市程久保8-5-5風のガーデンひの", "url2": "https://www.kaigokensaku.mhlw.go.jp/13/index.php?action_kouhyou_detail_004_kani=true&JigyosyoCd=1373503240-00&ServiceCd=&Type=search" }, "geometry": { "type": "Point", "coordinates": [ 139.4064347, 35.6509417 ] } },
{ "type": "Feature", "properties": { "内容": "ホームステーション日野【特定施設入居者生活介護（有料老人ホーム（サービス付き高齢者向け住宅））】東京都日野市大字日野1048-1ホームステーション日野", "url2": "https://www.kaigokensaku.mhlw.go.jp/13/index.php?action_kouhyou_detail_004_kani=true&JigyosyoCd=1373502820-00&ServiceCd=&Type=search" }, "geometry": { "type": "Point", "coordinates": [ 139.410840122090121, 35.679130711428449 ] } },
{ "type": "Feature", "properties": { "内容": "介護付きホームＥＡＳＴビレッジ【特定施設入居者生活介護（有料老人ホーム（サービス付き高齢者向け住宅））】東京都東村山市恩多町1-59-2", "url2": "https://www.kaigokensaku.mhlw.go.jp/13/index.php?action_kouhyou_detail_004_kani=true&JigyosyoCd=1372702793-00&ServiceCd=&Type=search" }, "geometry": { "type": "Point", "coordinates": [ 139.490016200000014, 35.752449 ] } },
{ "type": "Feature", "properties": { "内容": "イリーゼ西国分寺【特定施設入居者生活介護（有料老人ホーム（サービス付き高齢者向け住宅））】東京都国分寺市泉町三丁目37番20号イリーゼ西国分寺", "url2": "https://www.kaigokensaku.mhlw.go.jp/13/index.php?action_kouhyou_detail_004_kani=true&JigyosyoCd=1373101995-00&ServiceCd=&Type=search" }, "geometry": { "type": "Point", "coordinates": [ 139.4639431, 35.6994546 ] } },
{ "type": "Feature", "properties": { "内容": "ディーフェスタクオーレ福生【特定施設入居者生活介護（有料老人ホーム（サービス付き高齢者向け住宅））】東京都福生市本町87-1ディーフェスタクオーレ福生", "url2": "https://www.kaigokensaku.mhlw.go.jp/13/index.php?action_kouhyou_detail_004_kani=true&JigyosyoCd=1374400958-00&ServiceCd=&Type=search" }, "geometry": { "type": "Point", "coordinates": [ 139.325466, 35.7401518 ] } },
{ "type": "Feature", "properties": { "内容": "イリーゼ福生【特定施設入居者生活介護（有料老人ホーム（サービス付き高齢者向け住宅））】東京都福生市大字福生2303-1", "url2": "https://www.kaigokensaku.mhlw.go.jp/13/index.php?action_kouhyou_detail_004_kani=true&JigyosyoCd=1374400966-00&ServiceCd=&Type=search" }, "geometry": { "type": "Point", "coordinates": [ 139.3377514, 35.7401543 ] } },
{ "type": "Feature", "properties": { "内容": "ホームステーション成城西【特定施設入居者生活介護（有料老人ホーム（サービス付き高齢者向け住宅））】東京都狛江市岩戸北4-2-36", "url2": "https://www.kaigokensaku.mhlw.go.jp/13/index.php?action_kouhyou_detail_004_kani=true&JigyosyoCd=1374500955-00&ServiceCd=&Type=search" }, "geometry": { "type": "Point", "coordinates": [ 139.585726, 35.634774 ] } },
{ "type": "Feature", "properties": { "内容": "プラチナ・シニアホーム東大和【特定施設入居者生活介護（有料老人ホーム（サービス付き高齢者向け住宅））】東京都東大和市清水６丁目１１０５－１プラチナ・シニアホーム東大和", "url2": "https://www.kaigokensaku.mhlw.go.jp/13/index.php?action_kouhyou_detail_004_kani=true&JigyosyoCd=1374600938-00&ServiceCd=&Type=search" }, "geometry": { "type": "Point", "coordinates": [ 139.445504644249695, 35.747169063193105 ] } },
{ "type": "Feature", "properties": { "内容": "アミカの郷東大和【特定施設入居者生活介護（有料老人ホーム（サービス付き高齢者向け住宅））】東京都東大和市蔵敷1-433-1", "url2": "https://www.kaigokensaku.mhlw.go.jp/13/index.php?action_kouhyou_detail_004_kani=true&JigyosyoCd=1374601308-00&ServiceCd=&Type=search" }, "geometry": { "type": "Point", "coordinates": [ 139.419884, 35.7541883 ] } },
{ "type": "Feature", "properties": { "内容": "ブランシエールケア玉川上水【特定施設入居者生活介護（有料老人ホーム（サービス付き高齢者向け住宅））】東京都東大和市桜が丘4-29-4", "url2": "https://www.kaigokensaku.mhlw.go.jp/13/index.php?action_kouhyou_detail_004_kani=true&JigyosyoCd=1374601019-00&ServiceCd=&Type=search" }, "geometry": { "type": "Point", "coordinates": [ 139.41437560242457, 35.73702609764284 ] } },
{ "type": "Feature", "properties": { "内容": "ホームステーションらいふ清瀬【特定施設入居者生活介護（有料老人ホーム（サービス付き高齢者向け住宅））】東京都清瀬市松山1-4-16", "url2": "https://www.kaigokensaku.mhlw.go.jp/13/index.php?action_kouhyou_detail_004_kani=true&JigyosyoCd=1374701454-00&ServiceCd=&Type=search" }, "geometry": { "type": "Point", "coordinates": [ 139.520572899999934, 35.770907 ] } },
{ "type": "Feature", "properties": { "内容": "プラチナ・シニアホーム武蔵村山弐番館【特定施設入居者生活介護（有料老人ホーム（サービス付き高齢者向け住宅））】東京都武蔵村山市残堀一丁目８４番プラチナ・シニアホーム武蔵村山弐番館", "url2": "https://www.kaigokensaku.mhlw.go.jp/13/index.php?action_kouhyou_detail_004_kani=true&JigyosyoCd=1374901245-00&ServiceCd=&Type=search" }, "geometry": { "type": "Point", "coordinates": [ 139.377253200000041, 35.7470621 ] } },
{ "type": "Feature", "properties": { "内容": "プラチナ・シニアホーム武蔵村山【特定施設入居者生活介護（有料老人ホーム（サービス付き高齢者向け住宅））】東京都武蔵村山市伊奈平五丁目16番1", "url2": "https://www.kaigokensaku.mhlw.go.jp/13/index.php?action_kouhyou_detail_004_kani=true&JigyosyoCd=1374901237-00&ServiceCd=&Type=search" }, "geometry": { "type": "Point", "coordinates": [ 139.373480796434023, 35.740880401167011 ] } },
{ "type": "Feature", "properties": { "内容": "プラチナ・シニアホーム西東京ひばりヶ丘【特定施設入居者生活介護（有料老人ホーム（サービス付き高齢者向け住宅））】東京都西東京市北町二丁目１番1号", "url2": "https://www.kaigokensaku.mhlw.go.jp/13/index.php?action_kouhyou_detail_004_kani=true&JigyosyoCd=1375424700-00&ServiceCd=&Type=search" }, "geometry": { "type": "Point", "coordinates": [ 139.55554082015658, 35.75394079641697 ] } },
{ "type": "Feature", "properties": { "内容": "西東京ケアコミュニティそよ風【特定施設入居者生活介護（有料老人ホーム（サービス付き高齢者向け住宅））】東京都西東京市東町3-1-13西東京ケアコミュニティそよ風", "url2": "https://www.kaigokensaku.mhlw.go.jp/13/index.php?action_kouhyou_detail_004_kani=true&JigyosyoCd=1375424155-00&ServiceCd=&Type=search" }, "geometry": { "type": "Point", "coordinates": [ 139.565250600000013, 35.7446975 ] } }
]
}
