{
"type": "FeatureCollection",
"name": "geo_13_介護医療院",
"crs": { "type": "name", "properties": { "name": "urn:ogc:def:crs:OGC:1.3:CRS84" } },
"features": [
{ "type": "Feature", "properties": { "内容": "康済会介護医療院【介護医療院】東京都品川区小山三丁目4番17号", "url": "https://www.kaigokensaku.mhlw.go.jp/13/index.php?action_kouhyou_detail_004_kani=true&JigyosyoCd=13B0900010-00&ServiceCd=550&Type=search", "url2": "https://www.kousai-kai.info/" }, "geometry": { "type": "Point", "coordinates": [ 139.704180900000011, 35.620724 ] } },
{ "type": "Feature", "properties": { "内容": "医療法人財団日扇会第一病院【介護医療院】東京都目黒区中根二丁目10番20号", "url": "https://www.kaigokensaku.mhlw.go.jp/13/index.php?action_kouhyou_detail_004_kani=true&JigyosyoCd=13B1000018-00&ServiceCd=550&Type=search", "url2": "http://www.nissenkai.or.jp/" }, "geometry": { "type": "Point", "coordinates": [ 139.6769405, 35.6144827 ] } },
{ "type": "Feature", "properties": { "内容": "介護医療院セントラル大田【介護医療院】東京都大田区中央8-34-10", "url": "https://www.kaigokensaku.mhlw.go.jp/13/index.php?action_kouhyou_detail_004_kani=true&JigyosyoCd=13B1100024-00&ServiceCd=550&Type=search", "url2": "https://central.or.jp/facilities/ohtaku03.php" }, "geometry": { "type": "Point", "coordinates": [ 139.71821800118866, 35.570821682992445 ] } },
{ "type": "Feature", "properties": { "内容": "医療法人社団幸栄会幸和病院介護医療院【介護医療院】東京都大田区萩中三丁目29番5号幸和病院", "url": "https://www.kaigokensaku.mhlw.go.jp/13/index.php?action_kouhyou_detail_004_kani=true&JigyosyoCd=13B1100016-00&ServiceCd=550&Type=search", "url2": "https://www.kowa-hospital.com" }, "geometry": { "type": "Point", "coordinates": [ 139.734409, 35.5509677 ] } },
{ "type": "Feature", "properties": { "内容": "セントラル介護医療院【介護医療院】東京都渋谷区神泉25-1", "url": "https://www.kaigokensaku.mhlw.go.jp/13/index.php?action_kouhyou_detail_004_kani=true&JigyosyoCd=13B1300012-00&ServiceCd=550&Type=search", "url2": "http://www.central-hospital.or.jp" }, "geometry": { "type": "Point", "coordinates": [ 139.69063890000001, 35.657659 ] } },
{ "type": "Feature", "properties": { "内容": "武蔵野療園病院介護医療院【介護医療院】東京都中野区江古田2-24-11", "url": "https://www.kaigokensaku.mhlw.go.jp/13/index.php?action_kouhyou_detail_004_kani=true&JigyosyoCd=13B1400010-00&ServiceCd=550&Type=search", "url2": "https://www.musashino-ryoen.com/" }, "geometry": { "type": "Point", "coordinates": [ 139.6641051, 35.727276 ] } },
{ "type": "Feature", "properties": { "内容": "介護医療院磯病院【介護医療院】東京都荒川区南千住1-56-10", "url": "https://www.kaigokensaku.mhlw.go.jp/13/index.php?action_kouhyou_detail_004_kani=true&JigyosyoCd=13B1800011-00&ServiceCd=550&Type=search", "url2": "http://iso-hp.or.jp/" }, "geometry": { "type": "Point", "coordinates": [ 139.793075499999986, 35.7333308 ] } },
{ "type": "Feature", "properties": { "内容": "医療法人社団杏和会　寺田病院介護医療院【介護医療院】東京都荒川区町屋3丁目23番14号", "url": "https://www.kaigokensaku.mhlw.go.jp/13/index.php?action_kouhyou_detail_004_kani=true&JigyosyoCd=13B1800029-00&ServiceCd=550&Type=search", "url2": "https://terada-hp.jp/" }, "geometry": { "type": "Point", "coordinates": [ 139.784486942327931, 35.749539812038101 ] } },
{ "type": "Feature", "properties": { "内容": "医療法人社団和好会金子病院介護医療院【介護医療院】東京都板橋区南常盤台1-15-14", "url": "https://www.kaigokensaku.mhlw.go.jp/13/index.php?action_kouhyou_detail_004_kani=true&JigyosyoCd=13B1900027-00&ServiceCd=550&Type=search", "url2": "kanekohosptal.or.jp" }, "geometry": { "type": "Point", "coordinates": [ 139.687422700000013, 35.7559202 ] } },
{ "type": "Feature", "properties": { "内容": "医療法人社団慈誠会　慈誠会前野病院附属介護医療院【介護医療院】東京都板橋区前野町6-38-3", "url": "https://www.kaigokensaku.mhlw.go.jp/13/index.php?action_kouhyou_detail_004_kani=true&JigyosyoCd=13B1900035-00&ServiceCd=550&Type=search", "url2": "https://maeno-hospital.jp/" }, "geometry": { "type": "Point", "coordinates": [ 139.688485991401706, 35.768842277253164 ] } },
{ "type": "Feature", "properties": { "内容": "富士見病院介護医療院【介護医療院】東京都板橋区大和町１４番１６号", "url": "https://www.kaigokensaku.mhlw.go.jp/13/index.php?action_kouhyou_detail_004_kani=true&JigyosyoCd=13B1900043-00&ServiceCd=550&Type=search", "url2": "https://www.fujimi-hp.or.jp" }, "geometry": { "type": "Point", "coordinates": [ 139.705517841139198, 35.760420815702375 ] } },
{ "type": "Feature", "properties": { "内容": "医療法人社団慈誠会　慈誠会記念病院介護医療院【介護医療院】東京都板橋区西台三丁目１１番３号", "url": "https://www.kaigokensaku.mhlw.go.jp/13/index.php?action_kouhyou_detail_004_kani=true&JigyosyoCd=13B1900050-00&ServiceCd=550&Type=search", "url2": "https://jiseikaikinen-hp.jp/" }, "geometry": { "type": "Point", "coordinates": [ 139.667491099999978, 35.7743323 ] } },
{ "type": "Feature", "properties": { "内容": "慈誠会・光が丘介護医療院【介護医療院】東京都練馬区光が丘2-11-1", "url": "https://www.kaigokensaku.mhlw.go.jp/13/index.php?action_kouhyou_detail_004_kani=true&JigyosyoCd=13B2000017-00&ServiceCd=550&Type=search", "url2": "https://jskhhp.jp/" }, "geometry": { "type": "Point", "coordinates": [ 139.629795435057076, 35.761998966449632 ] } },
{ "type": "Feature", "properties": { "内容": "社会医療法人社団　昭愛会　水野介護医療院【介護医療院】東京都足立区西新井５－５－５", "url": "https://www.kaigokensaku.mhlw.go.jp/13/index.php?action_kouhyou_detail_004_kani=true&JigyosyoCd=13B2100049-00&ServiceCd=550&Type=search", "url2": "https://mizuno-lp.jp/" }, "geometry": { "type": "Point", "coordinates": [ 139.7760709, 35.7846321 ] } },
{ "type": "Feature", "properties": { "内容": "特定医療法人社団　潤恵会　ひのき介護医療院【介護医療院】東京都足立区新田2-16-13", "url": "https://www.kaigokensaku.mhlw.go.jp/13/index.php?action_kouhyou_detail_004_kani=true&JigyosyoCd=13B2100015-00&ServiceCd=550&Type=search", "url2": "http://www.keijin-hospital.or.jp" }, "geometry": { "type": "Point", "coordinates": [ 139.741921700000034, 35.773457 ] } },
{ "type": "Feature", "properties": { "内容": "介護医療院足立鹿浜病院【介護医療院】東京都足立区鹿浜三丁目6番1号", "url": "https://www.kaigokensaku.mhlw.go.jp/13/index.php?action_kouhyou_detail_004_kani=true&JigyosyoCd=13B2100023-00&ServiceCd=550&Type=search", "url2": "http://www.shikahamabyoin.com" }, "geometry": { "type": "Point", "coordinates": [ 139.75434580000001, 35.7799709 ] } },
{ "type": "Feature", "properties": { "内容": "医療法人財団厚生協会　東京足立介護医療院【介護医療院】東京都足立区保木間5-23-20", "url": "https://www.kaigokensaku.mhlw.go.jp/13/index.php?action_kouhyou_detail_004_kani=true&JigyosyoCd=13B2100031-00&ServiceCd=550&Type=search", "url2": "http://tokyoadachi-med.jp" }, "geometry": { "type": "Point", "coordinates": [ 139.8042759, 35.8044714 ] } },
{ "type": "Feature", "properties": { "内容": "介護医療院松寿会病院【介護医療院】東京都江戸川区北葛西4-4-28", "url": "https://www.kaigokensaku.mhlw.go.jp/13/index.php?action_kouhyou_detail_004_kani=true&JigyosyoCd=13B2300011-00&ServiceCd=550&Type=search", "url2": "http://www.matsutoshikai.or.jp" }, "geometry": { "type": "Point", "coordinates": [ 139.8628077, 35.6720975 ] } },
{ "type": "Feature", "properties": { "内容": "一盛病院介護医療院【介護医療院】東京都江戸川区小松川三丁目１０番１号", "url": "https://www.kaigokensaku.mhlw.go.jp/13/index.php?action_kouhyou_detail_004_kani=true&JigyosyoCd=13B2300029-00&ServiceCd=550&Type=search", "url2": "http://www.ichimori-hp.or.jp" }, "geometry": { "type": "Point", "coordinates": [ 139.850613, 35.6977789 ] } },
{ "type": "Feature", "properties": { "内容": "介護医療院　陵北病院【介護医療院】東京都八王子市西寺方町315", "url": "https://www.kaigokensaku.mhlw.go.jp/13/index.php?action_kouhyou_detail_004_kani=true&JigyosyoCd=13B2900018-00&ServiceCd=550&Type=search", "url2": "http://ryohoku-hp.jp" }, "geometry": { "type": "Point", "coordinates": [ 139.2656481, 35.6726663 ] } },
{ "type": "Feature", "properties": { "内容": "医療法人社団永生会　永生病院　介護医療院【介護医療院】東京都八王子市椚田町583番地15", "url": "https://www.kaigokensaku.mhlw.go.jp/13/index.php?action_kouhyou_detail_004_kani=true&JigyosyoCd=13B2900034-00&ServiceCd=550&Type=search", "url2": "https://www.eisei.or.jp/" }, "geometry": { "type": "Point", "coordinates": [ 139.305026722090162, 35.639588757926283 ] } },
{ "type": "Feature", "properties": { "内容": "社会医療法人社団愛有会　さんあい介護医療院【介護医療院】東京都八王子市宮下町３７７番地", "url": "https://www.kaigokensaku.mhlw.go.jp/13/index.php?action_kouhyou_detail_004_kani=true&JigyosyoCd=13B2900026-00&ServiceCd=550&Type=search", "url2": "http://sanai-hachioji.jp/" }, "geometry": { "type": "Point", "coordinates": [ 139.307748822090161, 35.70676513981482 ] } },
{ "type": "Feature", "properties": { "内容": "医療法人社団清恵会　介護医療院　篠原病院【介護医療院】東京都三鷹市下連雀6-13-10", "url": "https://www.kaigokensaku.mhlw.go.jp/13/index.php?action_kouhyou_detail_004_kani=true&JigyosyoCd=13B3600013-00&ServiceCd=550&Type=search", "url2": "https://shinohara-hospital.or.jp" }, "geometry": { "type": "Point", "coordinates": [ 139.565070100000014, 35.6887052 ] } },
{ "type": "Feature", "properties": { "内容": "医療法人社団　向日葵清心会　青梅今井病院　介護医療院【介護医療院】東京都青梅市今井一丁目2609番地の2", "url": "https://www.kaigokensaku.mhlw.go.jp/13/index.php?action_kouhyou_detail_004_kani=true&JigyosyoCd=13B2800010-00&ServiceCd=550&Type=search", "url2": "http://www.oumeimai.or.jp" }, "geometry": { "type": "Point", "coordinates": [ 139.3149807, 35.8148347 ] } },
{ "type": "Feature", "properties": { "内容": "医療法人社団倭林会　武蔵野台病院介護医療院【介護医療院】東京都青梅市今井1丁目2586", "url": "https://www.kaigokensaku.mhlw.go.jp/13/index.php?action_kouhyou_detail_004_kani=true&JigyosyoCd=13B2800028-00&ServiceCd=550&Type=search", "url2": "musashinodai-hp.com" }, "geometry": { "type": "Point", "coordinates": [ 139.3133654, 35.812881 ] } },
{ "type": "Feature", "properties": { "内容": "長生病院介護医療院【介護医療院】東京都青梅市小曽木一丁目３４３８番地", "url": "https://www.kaigokensaku.mhlw.go.jp/13/index.php?action_kouhyou_detail_004_kani=true&JigyosyoCd=13B2800036-00&ServiceCd=550&Type=search", "url2": "https://chosei-kai.com/chosei" }, "geometry": { "type": "Point", "coordinates": [ 139.2925799, 35.8235868 ] } },
{ "type": "Feature", "properties": { "内容": "府中医王介護医療院【介護医療院】東京都府中市晴見町一丁目20番", "url": "https://www.kaigokensaku.mhlw.go.jp/13/index.php?action_kouhyou_detail_004_kani=true&JigyosyoCd=13B3800019-00&ServiceCd=550&Type=search", "url2": "http://www.fuchu-iou.info/" }, "geometry": { "type": "Point", "coordinates": [ 139.47849871852415, 35.68145790634545 ] } },
{ "type": "Feature", "properties": { "内容": "ふよう病院介護医療院【介護医療院】東京都町田市南町田三丁目43番1号", "url": "https://www.kaigokensaku.mhlw.go.jp/13/index.php?action_kouhyou_detail_004_kani=true&JigyosyoCd=13B3200012-00&ServiceCd=550&Type=search", "url2": "http://www.fuyou.or.jp/" }, "geometry": { "type": "Point", "coordinates": [ 139.47194, 35.516041594943694 ] } },
{ "type": "Feature", "properties": { "内容": "多摩済生病院　介護医療院【介護医療院】東京都小平市美園町3丁目11番地1号", "url": "https://www.kaigokensaku.mhlw.go.jp/13/index.php?action_kouhyou_detail_004_kani=true&JigyosyoCd=13B4300019-00&ServiceCd=550&Type=search", "url2": "https://tama-saisei-hp.com" }, "geometry": { "type": "Point", "coordinates": [ 139.489312899999987, 35.7406486 ] } },
{ "type": "Feature", "properties": { "内容": "多摩平の森の病院介護医療院【介護医療院】東京都日野市多摩平三丁目1-17多摩平の森の病院", "url": "https://www.kaigokensaku.mhlw.go.jp/13/index.php?action_kouhyou_detail_004_kani=true&JigyosyoCd=13B3500015-00&ServiceCd=550&Type=search", "url2": "https://tamadairanomorino-hospital.com/" }, "geometry": { "type": "Point", "coordinates": [ 139.3770165, 35.6653456 ] } },
{ "type": "Feature", "properties": { "内容": "医療法人社団豊徳会　介護医療院　東京多摩病院【介護医療院】東京都狛江市岩戸南2－2－3", "url": "https://www.kaigokensaku.mhlw.go.jp/13/index.php?action_kouhyou_detail_004_kani=true&JigyosyoCd=13B4500014-00&ServiceCd=550&Type=search", "url2": "https://tokyotama.or.jp/" }, "geometry": { "type": "Point", "coordinates": [ 139.586568199999988, 35.6318249 ] } },
{ "type": "Feature", "properties": { "内容": "救世軍清瀬病院介護医療院シャロン【介護医療院】東京都清瀬市竹丘１－１７－９", "url": "https://www.kaigokensaku.mhlw.go.jp/13/index.php?action_kouhyou_detail_004_kani=true&JigyosyoCd=13B4700010-00&ServiceCd=550&Type=search", "url2": "https://kiyosehp.salvationarmy.or.jp/sharon/" }, "geometry": { "type": "Point", "coordinates": [ 139.5068042, 35.7699694 ] } },
{ "type": "Feature", "properties": { "内容": "田無病院介護医療院【介護医療院】東京都西東京市緑町3-6-1", "url": "https://www.kaigokensaku.mhlw.go.jp/13/index.php?action_kouhyou_detail_004_kani=true&JigyosyoCd=13B5400016-00&ServiceCd=550&Type=search", "url2": "http://www.tanashi-hospital.or.jp/" }, "geometry": { "type": "Point", "coordinates": [ 139.54173560000001, 35.7416152 ] } },
{ "type": "Feature", "properties": { "内容": "介護医療院ユニット菜の花【介護医療院】東京都西多摩郡瑞穂町殿ヶ谷454-2介護医療院ユニット菜の花", "url": "https://www.kaigokensaku.mhlw.go.jp/13/index.php?action_kouhyou_detail_004_kani=true&JigyosyoCd=13B2400035-00&ServiceCd=550&Type=search", "url2": "http://www.kanjinkai.net/" }, "geometry": { "type": "Point", "coordinates": [ 139.356253234254439, 35.757914632166646 ] } },
{ "type": "Feature", "properties": { "内容": "医療法人社団崎陽会　日の出ヶ丘介護医療院【介護医療院】東京都西多摩郡日の出町大久野310番地", "url": "https://www.kaigokensaku.mhlw.go.jp/13/index.php?action_kouhyou_detail_004_kani=true&JigyosyoCd=13B2400019-00&ServiceCd=550&Type=search", "url2": "http://www.hinodehp.com" }, "geometry": { "type": "Point", "coordinates": [ 139.246223900000018, 35.7429719 ] } },
{ "type": "Feature", "properties": { "内容": "医療法人財団利定会大久野病院介護医療院【介護医療院】東京都西多摩郡日の出町大字大久野6416番地2階", "url": "https://www.kaigokensaku.mhlw.go.jp/13/index.php?action_kouhyou_detail_004_kani=true&JigyosyoCd=13B2400027-00&ServiceCd=550&Type=search", "url2": "http://www.oogunohp.com/" }, "geometry": { "type": "Point", "coordinates": [ 139.2340225, 35.756339700000034 ] } }
]
}
