{
"type": "FeatureCollection",
"name": "geo_13_地域密着型特定施設入居者生活介護（有料老人ホーム）",
"crs": { "type": "name", "properties": { "name": "urn:ogc:def:crs:OGC:1.3:CRS84" } },
"features": [
{ "type": "Feature", "properties": { "内容": "医療法人社団健育会　ケアセンターけやき【地域密着型特定施設入居者生活介護（有料老人ホーム）】東京都板橋区桜川2-10-7", "url2": "https://www.kaigokensaku.mhlw.go.jp/13/index.php?action_kouhyou_detail_004_kani=true&JigyosyoCd=1391900113-00&ServiceCd=361&Type=search" }, "geometry": { "type": "Point", "coordinates": [ 139.679443399999968, 35.7583491 ] } },
{ "type": "Feature", "properties": { "内容": "せらび篠崎【地域密着型特定施設入居者生活介護（有料老人ホーム）】東京都江戸川区東篠崎1-5-2", "url2": "https://www.kaigokensaku.mhlw.go.jp/13/index.php?action_kouhyou_detail_004_kani=true&JigyosyoCd=1392300529-00&ServiceCd=361&Type=search" }, "geometry": { "type": "Point", "coordinates": [ 139.91620080000007, 35.6962849 ] } }
]
}
