{
"type": "FeatureCollection",
"name": "geo_13_看護小規模多機能型居宅介護（複合型サービス）",
"crs": { "type": "name", "properties": { "name": "urn:ogc:def:crs:OGC:1.3:CRS84" } },
"features": [
{ "type": "Feature", "properties": { "内容": "医療法人社団　光輝会　青山メディケア　複合型サービスケアセンター【看護小規模多機能型居宅介護（複合型サービス）】東京都港区南青山7-13-6", "url": "https://www.kaigokensaku.mhlw.go.jp/13/index.php?action_kouhyou_detail_004_kani=true&JigyosyoCd=1390300208-00&ServiceCd=&Type=search", "url2": "http://www.photon.or.jp" }, "geometry": { "type": "Point", "coordinates": [ 139.717530099999976, 35.6575921 ] } },
{ "type": "Feature", "properties": { "内容": "看護小規模多機能型居宅介護　わいは【看護小規模多機能型居宅介護（複合型サービス）】東京都新宿区上落合1-23-19リープ・岩波ビル", "url": "https://www.kaigokensaku.mhlw.go.jp/13/index.php?action_kouhyou_detail_004_kani=true&JigyosyoCd=1390400222-00&ServiceCd=&Type=search", "url2": "https://www.leap-kango.com" }, "geometry": { "type": "Point", "coordinates": [ 139.691741399999955, 35.7146762 ] } },
{ "type": "Feature", "properties": { "内容": "坂町ミモザの家【看護小規模多機能型居宅介護（複合型サービス）】東京都新宿区四谷坂町６－５", "url": "https://www.kaigokensaku.mhlw.go.jp/13/index.php?action_kouhyou_detail_004_kani=true&JigyosyoCd=1390400248-00&ServiceCd=&Type=search", "url2": "http://www.cares-hakujuji.com/services/mimoza" }, "geometry": { "type": "Point", "coordinates": [ 139.726892202130102, 35.690446916344015 ] } },
{ "type": "Feature", "properties": { "内容": "千石にじの家【看護小規模多機能型居宅介護（複合型サービス）】東京都文京区千石4-1-2千石にじの家", "url": "https://www.kaigokensaku.mhlw.go.jp/13/index.php?action_kouhyou_detail_004_kani=true&JigyosyoCd=1390500179-00&ServiceCd=&Type=search", "url2": "https://tokyo-health.coop/nijinoie/" }, "geometry": { "type": "Point", "coordinates": [ 139.741033799999968, 35.7264737 ] } },
{ "type": "Feature", "properties": { "内容": "まいほーむ墨田【看護小規模多機能型居宅介護（複合型サービス）】東京都墨田区業平2-9-9３階", "url": "https://www.kaigokensaku.mhlw.go.jp/13/index.php?action_kouhyou_detail_004_kani=true&JigyosyoCd=1390700548-00&ServiceCd=&Type=search", "url2": "https://kenwa-houmon.com" }, "geometry": { "type": "Point", "coordinates": [ 139.812488399999978, 35.707787 ] } },
{ "type": "Feature", "properties": { "内容": "品川区立杜松倶楽部【看護小規模多機能型居宅介護（複合型サービス）】東京都品川区豊町4丁目24番15号", "url": "https://www.kaigokensaku.mhlw.go.jp/13/index.php?action_kouhyou_detail_004_kani=true&JigyosyoCd=1390900593-00&ServiceCd=&Type=search", "url2": "https://www.foryou.or.jp/corp3/toshokantaki/guide/" }, "geometry": { "type": "Point", "coordinates": [ 139.722614, 35.605989 ] } },
{ "type": "Feature", "properties": { "内容": "けめともの家・カンタキ　西大井【看護小規模多機能型居宅介護（複合型サービス）】東京都品川区西大井２－４－１４", "url": "https://www.kaigokensaku.mhlw.go.jp/13/index.php?action_kouhyou_detail_004_kani=true&JigyosyoCd=1390900437-00&ServiceCd=&Type=search", "url2": "http://www.caremate.jp" }, "geometry": { "type": "Point", "coordinates": [ 139.72267869999996, 35.5996381 ] } },
{ "type": "Feature", "properties": { "内容": "こぶしえん【看護小規模多機能型居宅介護（複合型サービス）】東京都目黒区下目黒6-18-2", "url": "https://www.kaigokensaku.mhlw.go.jp/13/index.php?action_kouhyou_detail_004_kani=true&JigyosyoCd=1391000591-00&ServiceCd=&Type=search", "url2": "https://tokushinkai.jp/" }, "geometry": { "type": "Point", "coordinates": [ 139.6968362, 35.6286658 ] } },
{ "type": "Feature", "properties": { "内容": "看多機かえりえ大橋【看護小規模多機能型居宅介護（複合型サービス）】東京都目黒区大橋２－１６－３８", "url": "https://www.kaigokensaku.mhlw.go.jp/13/index.php?action_kouhyou_detail_004_kani=true&JigyosyoCd=1391000294-00&ServiceCd=&Type=search", "url2": "https://search.yasashiite.com/detail/kantaki_ohashi/" }, "geometry": { "type": "Point", "coordinates": [ 139.6867354, 35.653391 ] } },
{ "type": "Feature", "properties": { "内容": "看護小規模多機能ココファン南千束【看護小規模多機能型居宅介護（複合型サービス）】東京都大田区南千束1－21－9", "url": "https://www.kaigokensaku.mhlw.go.jp/13/index.php?action_kouhyou_detail_004_kani=true&JigyosyoCd=1391101423-00&ServiceCd=&Type=search", "url2": "https://www.cocofump.co.jp" }, "geometry": { "type": "Point", "coordinates": [ 139.693410799999981, 35.6046328 ] } },
{ "type": "Feature", "properties": { "内容": "看多機　かえりえ用賀【看護小規模多機能型居宅介護（複合型サービス）】東京都世田谷区用賀3-6-3", "url": "https://www.kaigokensaku.mhlw.go.jp/13/index.php?action_kouhyou_detail_004_kani=true&JigyosyoCd=1391200977-00&ServiceCd=&Type=search", "url2": "https://search.yasashiite.com/detail/kantaki_yoga/" }, "geometry": { "type": "Point", "coordinates": [ 139.637249700000041, 35.6300411 ] } },
{ "type": "Feature", "properties": { "内容": "優っくり看護小規模多機能介護三軒茶屋【看護小規模多機能型居宅介護（複合型サービス）】東京都世田谷区三軒茶屋2‐32₋14", "url": "https://www.kaigokensaku.mhlw.go.jp/13/index.php?action_kouhyou_detail_004_kani=true&JigyosyoCd=1391201405-00&ServiceCd=&Type=search", "url2": "http://yukkurimura.net" }, "geometry": { "type": "Point", "coordinates": [ 139.6655376, 35.6408109 ] } },
{ "type": "Feature", "properties": { "内容": "看多機かえりえ上北沢【看護小規模多機能型居宅介護（複合型サービス）】東京都世田谷区上北沢3-32-133階4階", "url": "https://www.kaigokensaku.mhlw.go.jp/13/index.php?action_kouhyou_detail_004_kani=true&JigyosyoCd=1391201751-00&ServiceCd=&Type=search", "url2": "https://search.yasashiite.com/detail/kantaki_kamikitazawa/" }, "geometry": { "type": "Point", "coordinates": [ 139.6245093, 35.668436799999974 ] } },
{ "type": "Feature", "properties": { "内容": "看多機かえりえ成城【看護小規模多機能型居宅介護（複合型サービス）】東京都世田谷区成城1-1-9", "url": "https://www.kaigokensaku.mhlw.go.jp/13/index.php?action_kouhyou_detail_004_kani=true&JigyosyoCd=1391201652-00&ServiceCd=&Type=search", "url2": "https://search.yasashiite.com/detail/kantaki_seijo/" }, "geometry": { "type": "Point", "coordinates": [ 139.60574743372959, 35.63291524027121 ] } },
{ "type": "Feature", "properties": { "内容": "看多機かえりえ給田【看護小規模多機能型居宅介護（複合型サービス）】東京都世田谷区給田１－１－１１オウカス世田谷仙川１階", "url": "https://www.kaigokensaku.mhlw.go.jp/13/index.php?action_kouhyou_detail_004_kani=true&JigyosyoCd=1391201694-00&ServiceCd=&Type=search", "url2": "https://search.yasashiite.com/detail/kantaki_kyuden/" }, "geometry": { "type": "Point", "coordinates": [ 139.595266431352229, 35.661171973169218 ] } },
{ "type": "Feature", "properties": { "内容": "優っくり看護小規模多機能介護弦巻【看護小規模多機能型居宅介護（複合型サービス）】東京都世田谷区弦巻5-34-5弦巻の家　1Nユニット", "url": "https://www.kaigokensaku.mhlw.go.jp/13/index.php?action_kouhyou_detail_004_kani=true&JigyosyoCd=1391201702-00&ServiceCd=&Type=search", "url2": "https://www.foryou.or.jp/facility/tsurumaki/w167/" }, "geometry": { "type": "Point", "coordinates": [ 139.6370101, 35.6359938 ] } },
{ "type": "Feature", "properties": { "内容": "優っくり看護小規模多機能介護代田【看護小規模多機能型居宅介護（複合型サービス）】東京都世田谷区代田一丁目21番11号", "url": "https://www.kaigokensaku.mhlw.go.jp/13/index.php?action_kouhyou_detail_004_kani=true&JigyosyoCd=1391201793-00&ServiceCd=&Type=search", "url2": "https://www.foryou.or.jp/corp3/daitakantaki/" }, "geometry": { "type": "Point", "coordinates": [ 139.661834199999987, 35.6525887 ] } },
{ "type": "Feature", "properties": { "内容": "優っくり看護小規模多機能介護喜多見【看護小規模多機能型居宅介護（複合型サービス）】東京都世田谷区喜多見3-10-15", "url": "https://www.kaigokensaku.mhlw.go.jp/13/index.php?action_kouhyou_detail_004_kani=true&JigyosyoCd=1391201421-00&ServiceCd=&Type=search", "url2": "https://www.foryou.or.jp/facility/kitami/w058/" }, "geometry": { "type": "Point", "coordinates": [ 139.6004523, 35.625319 ] } },
{ "type": "Feature", "properties": { "内容": "ナースケア・リビング世田谷中町【看護小規模多機能型居宅介護（複合型サービス）】東京都世田谷区中町5-9-9グランクレール世田谷中町コミュニティプラザ4階", "url": "https://www.kaigokensaku.mhlw.go.jp/13/index.php?action_kouhyou_detail_004_kani=true&JigyosyoCd=1391200969-00&ServiceCd=&Type=search", "url2": "http://ncliving.sakura-urban.jp/" }, "geometry": { "type": "Point", "coordinates": [ 139.644848899999943, 35.6216864 ] } },
{ "type": "Feature", "properties": { "内容": "渋谷区恵比寿西二丁目高齢者在宅サービスセンター【看護小規模多機能型居宅介護（複合型サービス）】東京都渋谷区恵比寿西二丁目13-5恵比寿西二丁目複合施設", "url": "https://www.kaigokensaku.mhlw.go.jp/13/index.php?action_kouhyou_detail_004_kani=true&JigyosyoCd=1391300355-00&ServiceCd=&Type=search", "url2": "https://www.foryou.or.jp/corp3/ebisukantaki/" }, "geometry": { "type": "Point", "coordinates": [ 139.706244820901532, 35.651049968754819 ] } },
{ "type": "Feature", "properties": { "内容": "看護小規模多機能型居宅介護miketa中野弥生町【看護小規模多機能型居宅介護（複合型サービス）】東京都中野区弥生町2－4－9ツナシマ第3ビル3階", "url": "https://www.kaigokensaku.mhlw.go.jp/13/index.php?action_kouhyou_detail_004_kani=true&JigyosyoCd=1391400437-00&ServiceCd=&Type=search", "url2": "https://www.office-carea.co.jp/" }, "geometry": { "type": "Point", "coordinates": [ 139.6767323, 35.6913467 ] } },
{ "type": "Feature", "properties": { "内容": "看護小規模多機能　山河【看護小規模多機能型居宅介護（複合型サービス）】東京都杉並区高井戸東3-30-13", "url": "https://www.kaigokensaku.mhlw.go.jp/13/index.php?action_kouhyou_detail_004_kani=true&JigyosyoCd=1391501101-00&ServiceCd=&Type=search", "url2": "https://www.sawarabikai..or.jp" }, "geometry": { "type": "Point", "coordinates": [ 139.61827489999996, 35.6869352 ] } },
{ "type": "Feature", "properties": { "内容": "看護小規模多機能荻窪の家【看護小規模多機能型居宅介護（複合型サービス）】東京都杉並区天沼3丁目19番14号", "url": "https://www.kaigokensaku.mhlw.go.jp/13/index.php?action_kouhyou_detail_004_kani=true&JigyosyoCd=1391501317-00&ServiceCd=&Type=search", "url2": "https://suginami.akatsukikai.com/service/home-care/" }, "geometry": { "type": "Point", "coordinates": [ 139.62022680000004, 35.7099624 ] } },
{ "type": "Feature", "properties": { "内容": "セントケア看護小規模荻窪【看護小規模多機能型居宅介護（複合型サービス）】東京都杉並区宮前2-21-19", "url": "https://www.kaigokensaku.mhlw.go.jp/13/index.php?action_kouhyou_detail_004_kani=true&JigyosyoCd=1391500624-00&ServiceCd=&Type=search", "url2": "http://www.saint-care.com" }, "geometry": { "type": "Point", "coordinates": [ 139.61428449999994, 35.694627 ] } },
{ "type": "Feature", "properties": { "内容": "優っくり看護小規模多機能介護豊島南長崎【看護小規模多機能型居宅介護（複合型サービス）】東京都豊島区南長崎５－２０－１６優っくり村豊島南長崎", "url": "https://www.kaigokensaku.mhlw.go.jp/13/index.php?action_kouhyou_detail_004_kani=true&JigyosyoCd=1391600408-00&ServiceCd=&Type=search", "url2": "https://www.foryou.or.jp/facility/minaminagasaki/w150/" }, "geometry": { "type": "Point", "coordinates": [ 139.681586, 35.728921600000014 ] } },
{ "type": "Feature", "properties": { "内容": "多機能ホーム・トキ【看護小規模多機能型居宅介護（複合型サービス）】東京都北区神谷1-22-8介護複合施設ＴＯＫＩ3階", "url": "https://www.kaigokensaku.mhlw.go.jp/13/index.php?action_kouhyou_detail_004_kani=true&JigyosyoCd=1391700331-00&ServiceCd=&Type=search", "url2": "http://toki-group.co.jp" }, "geometry": { "type": "Point", "coordinates": [ 139.731907800000045, 35.7686552 ] } },
{ "type": "Feature", "properties": { "内容": "光が丘ライフプラザ【看護小規模多機能型居宅介護（複合型サービス）】東京都練馬区光が丘2-11-1光が丘医療福祉プラザ", "url": "https://www.kaigokensaku.mhlw.go.jp/13/index.php?action_kouhyou_detail_004_kani=true&JigyosyoCd=1392001408-00&ServiceCd=&Type=search", "url2": "https://shinryukai.org/hikarigaoka-lp/" }, "geometry": { "type": "Point", "coordinates": [ 139.630251410589608, 35.762168731928675 ] } },
{ "type": "Feature", "properties": { "内容": "看多機かえりえ上石神井【看護小規模多機能型居宅介護（複合型サービス）】東京都練馬区上石神井2-9-21ヴィラージュリーシュ上石神井内", "url": "https://www.kaigokensaku.mhlw.go.jp/13/index.php?action_kouhyou_detail_004_kani=true&JigyosyoCd=1392000996-00&ServiceCd=&Type=search", "url2": "http://www.yasashiite.com/subdomains/division/20" }, "geometry": { "type": "Point", "coordinates": [ 139.597246, 35.7282981 ] } },
{ "type": "Feature", "properties": { "内容": "ヒューマンライフケア　大泉学園の宿【看護小規模多機能型居宅介護（複合型サービス）】東京都練馬区大泉学園町3-5-28", "url": "https://www.kaigokensaku.mhlw.go.jp/13/index.php?action_kouhyou_detail_004_kani=true&JigyosyoCd=1392000780-00&ServiceCd=&Type=search", "url2": "http://kaigo.human-lifecare.jp/" }, "geometry": { "type": "Point", "coordinates": [ 139.585267306815382, 35.76072671695497 ] } },
{ "type": "Feature", "properties": { "内容": "ヒューマンライフケア中村橋の宿【看護小規模多機能型居宅介護（複合型サービス）】東京都練馬区貫井５－１０－１４", "url": "https://www.kaigokensaku.mhlw.go.jp/13/index.php?action_kouhyou_detail_004_kani=true&JigyosyoCd=1392001077-00&ServiceCd=&Type=search", "url2": "htp//hlc.sthuman.com" }, "geometry": { "type": "Point", "coordinates": [ 139.634131200000013, 35.7422413 ] } },
{ "type": "Feature", "properties": { "内容": "やはら翔裕園【看護小規模多機能型居宅介護（複合型サービス）】東京都練馬区谷原4-12-24", "url": "https://www.kaigokensaku.mhlw.go.jp/13/index.php?action_kouhyou_detail_004_kani=true&JigyosyoCd=1392001101-00&ServiceCd=&Type=search", "url2": "https://www.genkimuragroup.jp/facilitylist/yahara/" }, "geometry": { "type": "Point", "coordinates": [ 139.616362900000013, 35.7557671 ] } },
{ "type": "Feature", "properties": { "内容": "看護小規模多機能　くらしさ練馬【看護小規模多機能型居宅介護（複合型サービス）】東京都練馬区土支田4－23－21", "url": "https://www.kaigokensaku.mhlw.go.jp/13/index.php?action_kouhyou_detail_004_kani=true&JigyosyoCd=1392001168-00&ServiceCd=&Type=search", "url2": null }, "geometry": { "type": "Point", "coordinates": [ 139.6141371, 35.7684615 ] } },
{ "type": "Feature", "properties": { "内容": "エクセレント練馬【看護小規模多機能型居宅介護（複合型サービス）】東京都練馬区豊玉南2-4-10", "url": "https://www.kaigokensaku.mhlw.go.jp/13/index.php?action_kouhyou_detail_004_kani=true&JigyosyoCd=1392001200-00&ServiceCd=&Type=search", "url2": "https://www.excare.co.jp/facility/03/nerima/" }, "geometry": { "type": "Point", "coordinates": [ 139.658107699999988, 35.7280022 ] } },
{ "type": "Feature", "properties": { "内容": "サンハート南大泉　看護小規模多機能型居宅介護【看護小規模多機能型居宅介護（複合型サービス）】東京都練馬区南大泉1-18-1", "url": "https://www.kaigokensaku.mhlw.go.jp/13/index.php?action_kouhyou_detail_004_kani=true&JigyosyoCd=1392001242-00&ServiceCd=&Type=search", "url2": null }, "geometry": { "type": "Point", "coordinates": [ 139.574107969311513, 35.735445080932799 ] } },
{ "type": "Feature", "properties": { "内容": "ずいうんホームねりま【看護小規模多機能型居宅介護（複合型サービス）】東京都練馬区高松3-10-8", "url": "https://www.kaigokensaku.mhlw.go.jp/13/index.php?action_kouhyou_detail_004_kani=true&JigyosyoCd=1392001366-00&ServiceCd=&Type=search", "url2": "https://zuiunhome.takadanobaba-hp.com" }, "geometry": { "type": "Point", "coordinates": [ 139.627975399999968, 35.74743890000002 ] } },
{ "type": "Feature", "properties": { "内容": "ミモザ上石神井【看護小規模多機能型居宅介護（複合型サービス）】東京都練馬区上石神井3丁目28番2号", "url": "https://www.kaigokensaku.mhlw.go.jp/13/index.php?action_kouhyou_detail_004_kani=true&JigyosyoCd=1392000962-00&ServiceCd=&Type=search", "url2": "https://www.mimoza-care.jp/base/kamisyakujii.html" }, "geometry": { "type": "Point", "coordinates": [ 139.594865700000014, 35.7299391 ] } },
{ "type": "Feature", "properties": { "内容": "まいほーむ北千住【看護小規模多機能型居宅介護（複合型サービス）】東京都足立区千住仲町14-42Ｆ", "url": "https://www.kaigokensaku.mhlw.go.jp/13/index.php?action_kouhyou_detail_004_kani=true&JigyosyoCd=1392100507-00&ServiceCd=&Type=search", "url2": "http://myhomekitasenju.kenwa.or.jp/" }, "geometry": { "type": "Point", "coordinates": [ 139.799322800000027, 35.7460571 ] } },
{ "type": "Feature", "properties": { "内容": "じゃすみんの家【看護小規模多機能型居宅介護（複合型サービス）】東京都足立区西新井７－１０－１３", "url": "https://www.kaigokensaku.mhlw.go.jp/13/index.php?action_kouhyou_detail_004_kani=true&JigyosyoCd=1392100911-00&ServiceCd=&Type=search", "url2": "http://jasmine.nishiarai.com" }, "geometry": { "type": "Point", "coordinates": [ 139.771412199999986, 35.7798244 ] } },
{ "type": "Feature", "properties": { "内容": "ナーシングホームそのだ（看護小規模多機能型居宅介護事業所）【看護小規模多機能型居宅介護（複合型サービス）】東京都足立区保木間４－１５－１６ナーシングホームそのだ", "url": "https://www.kaigokensaku.mhlw.go.jp/13/index.php?action_kouhyou_detail_004_kani=true&JigyosyoCd=1392101257-00&ServiceCd=&Type=search", "url2": "https://www.nursinghome-sonoda.jp/" }, "geometry": { "type": "Point", "coordinates": [ 139.804617954581715, 35.799271300399042 ] } },
{ "type": "Feature", "properties": { "内容": "ミモザ白寿庵足立江北【看護小規模多機能型居宅介護（複合型サービス）】東京都足立区江北3-27-7", "url": "https://www.kaigokensaku.mhlw.go.jp/13/index.php?action_kouhyou_detail_004_kani=true&JigyosyoCd=1392100622-00&ServiceCd=&Type=search", "url2": "https://mimoza-care.com/facility/nursing-small-scale-multifunctional-home-care/post-2908/" }, "geometry": { "type": "Point", "coordinates": [ 139.761301725429462, 35.775714837655599 ] } },
{ "type": "Feature", "properties": { "内容": "看多機かえりえ竹ノ塚【看護小規模多機能型居宅介護（複合型サービス）】東京都足立区東伊興3-21-5フューチャー本社ビル3階、4階", "url": "https://www.kaigokensaku.mhlw.go.jp/13/index.php?action_kouhyou_detail_004_kani=true&JigyosyoCd=1392101158-00&ServiceCd=&Type=search", "url2": "https://www.yasashiite.com/subdomains/section/621/" }, "geometry": { "type": "Point", "coordinates": [ 139.7916611, 35.8034007 ] } },
{ "type": "Feature", "properties": { "内容": "じゃすみん西新井本町【看護小規模多機能型居宅介護（複合型サービス）】東京都足立区西新井本町2-8-14セントラルマンション103", "url": "https://www.kaigokensaku.mhlw.go.jp/13/index.php?action_kouhyou_detail_004_kani=true&JigyosyoCd=1392101539-00&ServiceCd=&Type=search", "url2": "https://www.jasminegroup.jp/cont9/23.html" }, "geometry": { "type": "Point", "coordinates": [ 139.7745596711639, 35.776126901105684 ] } },
{ "type": "Feature", "properties": { "内容": "ふれあ看護小規模多機能型居宅介護事業所【看護小規模多機能型居宅介護（複合型サービス）】東京都葛飾区青戸5丁目30‐15", "url": "https://www.kaigokensaku.mhlw.go.jp/13/index.php?action_kouhyou_detail_004_kani=true&JigyosyoCd=1392201024-00&ServiceCd=&Type=search", "url2": "https://hulea-kantaki.jp" }, "geometry": { "type": "Point", "coordinates": [ 139.8557543, 35.7484491 ] } },
{ "type": "Feature", "properties": { "内容": "医療法人社団　東京育明会　育明会　城東ケアセンター【看護小規模多機能型居宅介護（複合型サービス）】東京都江戸川区平井2-24-16東京育明会ビル1F", "url": "https://www.kaigokensaku.mhlw.go.jp/13/index.php?action_kouhyou_detail_004_kani=true&JigyosyoCd=1392301055-00&ServiceCd=&Type=search", "url2": "http://www.ikumeikai.tokyo/joto" }, "geometry": { "type": "Point", "coordinates": [ 139.8462403, 35.7036676 ] } },
{ "type": "Feature", "properties": { "内容": "看護小規模多機能型居宅介護　泰山【看護小規模多機能型居宅介護（複合型サービス）】東京都江戸川区西一之江２－２２－２２", "url": "https://www.kaigokensaku.mhlw.go.jp/13/index.php?action_kouhyou_detail_004_kani=true&JigyosyoCd=1392301147-00&ServiceCd=&Type=search", "url2": "https://hakusyuu.jimusho.jp/" }, "geometry": { "type": "Point", "coordinates": [ 139.8802081, 35.6984518 ] } },
{ "type": "Feature", "properties": { "内容": "おうちがいいけどしろひげステイ【看護小規模多機能型居宅介護（複合型サービス）】東京都江戸川区江戸川6-32-7", "url": "https://www.kaigokensaku.mhlw.go.jp/13/index.php?action_kouhyou_detail_004_kani=true&JigyosyoCd=1392301402-00&ServiceCd=&Type=search", "url2": "https://shirohige.clinic/" }, "geometry": { "type": "Point", "coordinates": [ 139.8733128, 35.6744187 ] } },
{ "type": "Feature", "properties": { "内容": "看護小規模多機能ライフィニティ八王子【看護小規模多機能型居宅介護（複合型サービス）】東京都八王子市北野町578-13", "url": "https://www.kaigokensaku.mhlw.go.jp/13/index.php?action_kouhyou_detail_004_kani=true&JigyosyoCd=1392901177-00&ServiceCd=&Type=search", "url2": "https://lifinity.jp/hachioji/" }, "geometry": { "type": "Point", "coordinates": [ 139.356170113052798, 35.649647094618345 ] } },
{ "type": "Feature", "properties": { "内容": "第二偕楽園ホーム　看護小規模多機能型居宅介護事業所【看護小規模多機能型居宅介護（複合型サービス）】東京都八王子市加住町1丁目18番地第二偕楽園ホーム", "url": "https://www.kaigokensaku.mhlw.go.jp/13/index.php?action_kouhyou_detail_004_kani=true&JigyosyoCd=1392900781-00&ServiceCd=&Type=search", "url2": "http://www.kairakuenhome.or.jp/" }, "geometry": { "type": "Point", "coordinates": [ 139.31806830000005, 35.7010658 ] } },
{ "type": "Feature", "properties": { "内容": "看護小規模多機能やりみず【看護小規模多機能型居宅介護（複合型サービス）】東京都八王子市鑓水２－１７５－１１", "url": "https://www.kaigokensaku.mhlw.go.jp/13/index.php?action_kouhyou_detail_004_kani=true&JigyosyoCd=1392901151-00&ServiceCd=&Type=search", "url2": null }, "geometry": { "type": "Point", "coordinates": [ 139.3438572, 35.6132341 ] } },
{ "type": "Feature", "properties": { "内容": "看護小規模多機能型居宅介護天地【看護小規模多機能型居宅介護（複合型サービス）】東京都八王子市四谷町722健康館2階", "url": "https://www.kaigokensaku.mhlw.go.jp/13/index.php?action_kouhyou_detail_004_kani=true&JigyosyoCd=1392900526-00&ServiceCd=&Type=search", "url2": "contact＠tenchi-kantaki.jp" }, "geometry": { "type": "Point", "coordinates": [ 139.2980708, 35.6764487 ] } },
{ "type": "Feature", "properties": { "内容": "至誠ホームオンニ　看護小規模多機能居宅介護【看護小規模多機能型居宅介護（複合型サービス）】東京都立川市錦町２－１０－２６", "url": "https://www.kaigokensaku.mhlw.go.jp/13/index.php?action_kouhyou_detail_004_kani=true&JigyosyoCd=1393000243-00&ServiceCd=&Type=search", "url2": "http://www.shisei.or.jp" }, "geometry": { "type": "Point", "coordinates": [ 139.415392200000042, 35.6916458 ] } },
{ "type": "Feature", "properties": { "内容": "看護小規模多機能　レエンデ敬愛【看護小規模多機能型居宅介護（複合型サービス）】東京都立川市上砂町2-4-12シニアセンター　レエンデ敬愛", "url": "https://www.kaigokensaku.mhlw.go.jp/13/index.php?action_kouhyou_detail_004_kani=true&JigyosyoCd=1393000417-00&ServiceCd=&Type=search", "url2": "https//www.keiaikai.org" }, "geometry": { "type": "Point", "coordinates": [ 139.391369, 35.7217903 ] } },
{ "type": "Feature", "properties": { "内容": "むさしのケアセンター【看護小規模多機能型居宅介護（複合型サービス）】東京都武蔵野市吉祥寺南町3-24-6", "url": "https://www.kaigokensaku.mhlw.go.jp/13/index.php?action_kouhyou_detail_004_kani=true&JigyosyoCd=1393300213-00&ServiceCd=&Type=search", "url2": "https://www.ikumeikai.yokohama/musashino/" }, "geometry": { "type": "Point", "coordinates": [ 139.5882088, 35.698447 ] } },
{ "type": "Feature", "properties": { "内容": "ナースケアたんぽぽの家【看護小規模多機能型居宅介護（複合型サービス）】東京都武蔵野市関前２－２４－１３", "url": "https://www.kaigokensaku.mhlw.go.jp/13/index.php?action_kouhyou_detail_004_kani=true&JigyosyoCd=1393300106-00&ServiceCd=&Type=search", "url2": "http://www.tamatanpopo.co.jp" }, "geometry": { "type": "Point", "coordinates": [ 139.548684099999946, 35.7109344 ] } },
{ "type": "Feature", "properties": { "内容": "ナースケアセンターふぁみりあ【看護小規模多機能型居宅介護（複合型サービス）】東京都三鷹市中原4丁目34番22号", "url": "https://www.kaigokensaku.mhlw.go.jp/13/index.php?action_kouhyou_detail_004_kani=true&JigyosyoCd=1393600182-00&ServiceCd=&Type=search", "url2": "https://www.mitaka-fukushikai.jp" }, "geometry": { "type": "Point", "coordinates": [ 139.56509989999995, 35.667655500000023 ] } },
{ "type": "Feature", "properties": { "内容": "看護小規模多機能型居宅介護　藤の華【看護小規模多機能型居宅介護（複合型サービス）】東京都青梅市千ケ瀬町5丁目610番11", "url": "https://www.kaigokensaku.mhlw.go.jp/13/index.php?action_kouhyou_detail_004_kani=true&JigyosyoCd=1392800148-00&ServiceCd=&Type=search", "url2": null }, "geometry": { "type": "Point", "coordinates": [ 139.2659861, 35.7859661 ] } },
{ "type": "Feature", "properties": { "内容": "青梅複合型ケアサービスセンター【看護小規模多機能型居宅介護（複合型サービス）】東京都青梅市友田町5丁目533-1", "url": "https://www.kaigokensaku.mhlw.go.jp/13/index.php?action_kouhyou_detail_004_kani=true&JigyosyoCd=1392800106-00&ServiceCd=&Type=search", "url2": "https://nagabuchien.or.jp/facilities/oume/" }, "geometry": { "type": "Point", "coordinates": [ 139.28481706151581, 35.771672922253671 ] } },
{ "type": "Feature", "properties": { "内容": "セントケア看護小規模府中新町【看護小規模多機能型居宅介護（複合型サービス）】東京都府中市新町１－４８－１", "url": "https://www.kaigokensaku.mhlw.go.jp/13/index.php?action_kouhyou_detail_004_kani=true&JigyosyoCd=1393800394-00&ServiceCd=&Type=search", "url2": null }, "geometry": { "type": "Point", "coordinates": [ 139.488471, 35.6867414 ] } },
{ "type": "Feature", "properties": { "内容": "看護小規模多機能型居宅介護　ケアホーム希望【看護小規模多機能型居宅介護（複合型サービス）】東京都調布市西つつじヶ丘2-19-6第三コーポ横田　1階", "url": "https://www.kaigokensaku.mhlw.go.jp/13/index.php?action_kouhyou_detail_004_kani=true&JigyosyoCd=1394200149-00&ServiceCd=&Type=search", "url2": "http://www.tsutsuji.co.jp/" }, "geometry": { "type": "Point", "coordinates": [ 139.5742111251312, 35.660909434030643 ] } },
{ "type": "Feature", "properties": { "内容": "医療対応ホスピタリティケアにじいろハート【看護小規模多機能型居宅介護（複合型サービス）】東京都調布市布田4-3-18", "url": "https://www.kaigokensaku.mhlw.go.jp/13/index.php?action_kouhyou_detail_004_kani=true&JigyosyoCd=1394200289-00&ServiceCd=&Type=search", "url2": "https://www.lsmile.tokyo" }, "geometry": { "type": "Point", "coordinates": [ 139.545079593917848, 35.650668834587158 ] } },
{ "type": "Feature", "properties": { "内容": "ペンギンステイ南町田【看護小規模多機能型居宅介護（複合型サービス）】東京都町田市鶴間四丁目5番8号", "url": "https://www.kaigokensaku.mhlw.go.jp/13/index.php?action_kouhyou_detail_004_kani=true&JigyosyoCd=1393200470-00&ServiceCd=&Type=search", "url2": "http://mmhp.jp" }, "geometry": { "type": "Point", "coordinates": [ 139.472101100000032, 35.507056 ] } },
{ "type": "Feature", "properties": { "内容": "看護小規模多機能型居宅介護ハーモニー【看護小規模多機能型居宅介護（複合型サービス）】東京都町田市木曽西4-12-22KISOコミュニティーベース1階", "url": "https://www.kaigokensaku.mhlw.go.jp/13/index.php?action_kouhyou_detail_004_kani=true&JigyosyoCd=1393200587-00&ServiceCd=&Type=search", "url2": "https://machidahospital.jp/welfare-top/" }, "geometry": { "type": "Point", "coordinates": [ 139.42130190978699, 35.568437455282158 ] } },
{ "type": "Feature", "properties": { "内容": "花織まちだ【看護小規模多機能型居宅介護（複合型サービス）】東京都町田市野津田町697-2", "url": "https://www.kaigokensaku.mhlw.go.jp/13/index.php?action_kouhyou_detail_004_kani=true&JigyosyoCd=1393200363-00&ServiceCd=&Type=search", "url2": null }, "geometry": { "type": "Point", "coordinates": [ 139.446517764129993, 35.586849924828009 ] } },
{ "type": "Feature", "properties": { "内容": "花織こがねい【看護小規模多機能型居宅介護（複合型サービス）】東京都小金井市貫井北町2-6-25", "url": "https://www.kaigokensaku.mhlw.go.jp/13/index.php?action_kouhyou_detail_004_kani=true&JigyosyoCd=1394100158-00&ServiceCd=&Type=search", "url2": null }, "geometry": { "type": "Point", "coordinates": [ 139.497327899999959, 35.705600200000021 ] } },
{ "type": "Feature", "properties": { "内容": "ITフォレストこだいら　看護小規模多機能型居宅介護事業所【看護小規模多機能型居宅介護（複合型サービス）】東京都小平市小川東町5-7-10ITフォレストこだいら", "url": "https://www.kaigokensaku.mhlw.go.jp/13/index.php?action_kouhyou_detail_004_kani=true&JigyosyoCd=1394300311-00&ServiceCd=&Type=search", "url2": "https://itatsuku.co.jp/it-forest/" }, "geometry": { "type": "Point", "coordinates": [ 139.4684349, 35.7338588 ] } },
{ "type": "Feature", "properties": { "内容": "看護小規模多機能型居宅介護　ラピオンナーシングホーム【看護小規模多機能型居宅介護（複合型サービス）】東京都日野市南平７－２－１４", "url": "https://www.kaigokensaku.mhlw.go.jp/13/index.php?action_kouhyou_detail_004_kani=true&JigyosyoCd=1393500200-00&ServiceCd=&Type=search", "url2": "http://www.lapion-jp.com/nurse-station/." }, "geometry": { "type": "Point", "coordinates": [ 139.395137523420772, 35.655799719510554 ] } },
{ "type": "Feature", "properties": { "内容": "看護小規模多機能　敬愛の森【看護小規模多機能型居宅介護（複合型サービス）】東京都東村山市富士見町1-14-3", "url": "https://www.kaigokensaku.mhlw.go.jp/13/index.php?action_kouhyou_detail_004_kani=true&JigyosyoCd=1392700132-00&ServiceCd=&Type=search", "url2": "http://www.keiaikai.org/mori/" }, "geometry": { "type": "Point", "coordinates": [ 139.457468562426783, 35.744086556064445 ] } },
{ "type": "Feature", "properties": { "内容": "くめがわ翔裕園【看護小規模多機能型居宅介護（複合型サービス）】東京都東村山市栄町1-36-93", "url": "https://www.kaigokensaku.mhlw.go.jp/13/index.php?action_kouhyou_detail_004_kani=true&JigyosyoCd=1392700116-00&ServiceCd=&Type=search", "url2": "http://www.chojumura.or.jp/kumegawa/" }, "geometry": { "type": "Point", "coordinates": [ 139.477358378048706, 35.752295239511625 ] } },
{ "type": "Feature", "properties": { "内容": "看護小規模多機能型居宅介護　ひがしむらやま翔裕園【看護小規模多機能型居宅介護（複合型サービス）】東京都東村山市久米川町2-23-3ひがしむらやま翔裕園", "url": "https://www.kaigokensaku.mhlw.go.jp/13/index.php?action_kouhyou_detail_004_kani=true&JigyosyoCd=1392700173-00&ServiceCd=&Type=search", "url2": "https://www.chojumura.or.jp/" }, "geometry": { "type": "Point", "coordinates": [ 139.479435200000012, 35.7630852 ] } },
{ "type": "Feature", "properties": { "内容": "看護小規模多機能オリーブ【看護小規模多機能型居宅介護（複合型サービス）】東京都国立市富士見台4-10-1", "url": "https://www.kaigokensaku.mhlw.go.jp/13/index.php?action_kouhyou_detail_004_kani=true&JigyosyoCd=1393400138-00&ServiceCd=&Type=search", "url2": "http://www.nitta-clinic.or.jp/group/daycare.html" }, "geometry": { "type": "Point", "coordinates": [ 139.431744799999933, 35.6859259 ] } },
{ "type": "Feature", "properties": { "内容": "看多機・マリーゴールド【看護小規模多機能型居宅介護（複合型サービス）】東京都東大和市仲原三丁目13番地24", "url": "https://www.kaigokensaku.mhlw.go.jp/13/index.php?action_kouhyou_detail_004_kani=true&JigyosyoCd=1394600108-00&ServiceCd=&Type=search", "url2": "https://www.pure-heart.co.jp/" }, "geometry": { "type": "Point", "coordinates": [ 139.438142415869152, 35.744175465050638 ] } },
{ "type": "Feature", "properties": { "内容": "複合型ケアほほえみ【看護小規模多機能型居宅介護（複合型サービス）】東京都清瀬市下清戸1丁目305-1しんあい清戸の里", "url": "https://www.kaigokensaku.mhlw.go.jp/13/index.php?action_kouhyou_detail_004_kani=true&JigyosyoCd=1394700031-00&ServiceCd=&Type=search", "url2": "http://shin-ai.or.jp" }, "geometry": { "type": "Point", "coordinates": [ 139.535072468797722, 35.7824610378972 ] } },
{ "type": "Feature", "properties": { "内容": "花織ひがしくるめ【看護小規模多機能型居宅介護（複合型サービス）】東京都東久留米市八幡町3-5-6", "url": "https://www.kaigokensaku.mhlw.go.jp/13/index.php?action_kouhyou_detail_004_kani=true&JigyosyoCd=1394800278-00&ServiceCd=&Type=search", "url2": "http://jala.co.jp" }, "geometry": { "type": "Point", "coordinates": [ 139.5120129, 35.748875300000016 ] } },
{ "type": "Feature", "properties": { "内容": "あい看護小規模多機能施設ほたる【看護小規模多機能型居宅介護（複合型サービス）】東京都多摩市中沢2-5-3ゆいま～る中沢Ｂ棟3階", "url": "https://www.kaigokensaku.mhlw.go.jp/13/index.php?action_kouhyou_detail_004_kani=true&JigyosyoCd=1395000274-00&ServiceCd=&Type=search", "url2": "https://kawakita.or.jp/aisafetynet/hotaru/" }, "geometry": { "type": "Point", "coordinates": [ 139.4137408, 35.6212148 ] } },
{ "type": "Feature", "properties": { "内容": "看護小規模多機能ホームすみれ【看護小規模多機能型居宅介護（複合型サービス）】東京都多摩市乞田791-3", "url": "https://www.kaigokensaku.mhlw.go.jp/13/index.php?action_kouhyou_detail_004_kani=true&JigyosyoCd=1395000241-00&ServiceCd=&Type=search", "url2": "https://care-net.biz/13/tokyo-sumire/company.php" }, "geometry": { "type": "Point", "coordinates": [ 139.435103199999958, 35.632253400000018 ] } },
{ "type": "Feature", "properties": { "内容": "あい看護小規模多機能施設おきな【看護小規模多機能型居宅介護（複合型サービス）】東京都多摩市関戸1-2-11スマイラス聖蹟桜ヶ丘1階", "url": "https://www.kaigokensaku.mhlw.go.jp/13/index.php?action_kouhyou_detail_004_kani=true&JigyosyoCd=1395000332-00&ServiceCd=&Type=search", "url2": "https://kawakita.or.jp/aisafetynet/" }, "geometry": { "type": "Point", "coordinates": [ 139.4460229, 35.6522677 ] } },
{ "type": "Feature", "properties": { "内容": "看護小規模多機能ホームすみれサテライト【看護小規模多機能型居宅介護（複合型サービス）】東京都多摩市連光寺３丁目４番５", "url": "https://www.kaigokensaku.mhlw.go.jp/13/index.php?action_kouhyou_detail_004_kani=true&JigyosyoCd=1395000308-00&ServiceCd=&Type=search", "url2": "https://care-net.biz/13/tokyo-sumire/" }, "geometry": { "type": "Point", "coordinates": [ 139.4597391, 35.6443732 ] } },
{ "type": "Feature", "properties": { "内容": "複合型サービスセンター　やのくち正吉苑【看護小規模多機能型居宅介護（複合型サービス）】東京都稲城市矢野口1804-3", "url": "https://www.kaigokensaku.mhlw.go.jp/13/index.php?action_kouhyou_detail_004_kani=true&JigyosyoCd=1395100082-00&ServiceCd=&Type=search", "url2": "http://shoukichi.org/yanokuchi/index.html" }, "geometry": { "type": "Point", "coordinates": [ 139.519138399999946, 35.6366527 ] } },
{ "type": "Feature", "properties": { "内容": "看多機かえりえ平尾【看護小規模多機能型居宅介護（複合型サービス）】東京都稲城市平尾3-7-4コーシャハイム平尾1階", "url": "https://www.kaigokensaku.mhlw.go.jp/13/index.php?action_kouhyou_detail_004_kani=true&JigyosyoCd=1395100108-00&ServiceCd=&Type=search", "url2": "http://www.yasashiite.com/subdomains/section/427/" }, "geometry": { "type": "Point", "coordinates": [ 139.492777599999954, 35.610753 ] } },
{ "type": "Feature", "properties": { "内容": "看護小規模多機能ライフィニティ稲城【看護小規模多機能型居宅介護（複合型サービス）】東京都稲城市東長沼3113-1", "url": "https://www.kaigokensaku.mhlw.go.jp/13/index.php?action_kouhyou_detail_004_kani=true&JigyosyoCd=1395100165-00&ServiceCd=&Type=search", "url2": "https://lifinity.jp/inagi-gh/" }, "geometry": { "type": "Point", "coordinates": [ 139.5032535, 35.6347909 ] } },
{ "type": "Feature", "properties": { "内容": "看護小規模多機能いずみ【看護小規模多機能型居宅介護（複合型サービス）】東京都西東京市泉町3-6-9", "url": "https://www.kaigokensaku.mhlw.go.jp/13/index.php?action_kouhyou_detail_004_kani=true&JigyosyoCd=1395400433-00&ServiceCd=&Type=search", "url2": "https://6340-group.jp/" }, "geometry": { "type": "Point", "coordinates": [ 139.5531704, 35.7413469 ] } }
]
}
