{
"type": "FeatureCollection",
"name": "geo_13_介護老人保健施設",
"crs": { "type": "name", "properties": { "name": "urn:ogc:def:crs:OGC:1.3:CRS84" } },
"features": [
{ "type": "Feature", "properties": { "内容": "中央区立介護老人保健施設リハポート明石【介護老人保健施設】東京都中央区明石町1-6", "url2": "https://www.kaigokensaku.mhlw.go.jp/13/index.php?action_kouhyou_detail_004_kani=true&JigyosyoCd=1357081250-00&ServiceCd=520&Type=search" }, "geometry": { "type": "Point", "coordinates": [ 139.776702800000066, 35.6693091 ] } },
{ "type": "Feature", "properties": { "内容": "介護老人保健施設洛和ヴィラサラサ【介護老人保健施設】東京都港区南麻布4-6-1", "url2": "https://www.kaigokensaku.mhlw.go.jp/13/index.php?action_kouhyou_detail_004_kani=true&JigyosyoCd=1350380018-00&ServiceCd=520&Type=search" }, "geometry": { "type": "Point", "coordinates": [ 139.726873899999987, 35.6502183 ] } },
{ "type": "Feature", "properties": { "内容": "介護老人保健施設　ルネサンス麻布【介護老人保健施設】東京都港区南麻布２丁目１０番２１号", "url2": "https://www.kaigokensaku.mhlw.go.jp/13/index.php?action_kouhyou_detail_004_kani=true&JigyosyoCd=1357080633-00&ServiceCd=520&Type=search" }, "geometry": { "type": "Point", "coordinates": [ 139.735162100000025, 35.6479133 ] } },
{ "type": "Feature", "properties": { "内容": "介護老人保健施設　新橋ばらの園【介護老人保健施設】東京都港区新橋6-19-2", "url2": "https://www.kaigokensaku.mhlw.go.jp/13/index.php?action_kouhyou_detail_004_kani=true&JigyosyoCd=1357081466-00&ServiceCd=520&Type=search" }, "geometry": { "type": "Point", "coordinates": [ 139.753779500000064, 35.6612067 ] } },
{ "type": "Feature", "properties": { "内容": "介護老人保健施設デンマークイン新宿【介護老人保健施設】東京都新宿区原町二丁目43番地", "url2": "https://www.kaigokensaku.mhlw.go.jp/13/index.php?action_kouhyou_detail_004_kani=true&JigyosyoCd=1357081177-00&ServiceCd=520&Type=search" }, "geometry": { "type": "Point", "coordinates": [ 139.723821899999962, 35.6989151 ] } },
{ "type": "Feature", "properties": { "内容": "マイウェイ四谷【介護老人保健施設】東京都新宿区大京町1-3", "url2": "https://www.kaigokensaku.mhlw.go.jp/13/index.php?action_kouhyou_detail_004_kani=true&JigyosyoCd=1357081441-00&ServiceCd=520&Type=search" }, "geometry": { "type": "Point", "coordinates": [ 139.719128599999976, 35.6866303 ] } },
{ "type": "Feature", "properties": { "内容": "介護老人保健施設　フォレスト西早稲田【介護老人保健施設】東京都新宿区西早稲田三丁目２７番２２号", "url2": "https://www.kaigokensaku.mhlw.go.jp/13/index.php?action_kouhyou_detail_004_kani=true&JigyosyoCd=1350480016-00&ServiceCd=520&Type=search" }, "geometry": { "type": "Point", "coordinates": [ 139.7109547, 35.7117949 ] } },
{ "type": "Feature", "properties": { "内容": "龍岡介護老人保健施設【介護老人保健施設】東京都文京区湯島4－9－8", "url2": "https://www.kaigokensaku.mhlw.go.jp/13/index.php?action_kouhyou_detail_004_kani=true&JigyosyoCd=1357080260-00&ServiceCd=520&Type=search" }, "geometry": { "type": "Point", "coordinates": [ 139.764591200000041, 35.7095651 ] } },
{ "type": "Feature", "properties": { "内容": "介護老人保健施設　音羽えびすの郷【介護老人保健施設】東京都文京区音羽1-22-14介護老人保健施設　音羽えびすの郷", "url2": "https://www.kaigokensaku.mhlw.go.jp/13/index.php?action_kouhyou_detail_004_kani=true&JigyosyoCd=1350580013-00&ServiceCd=520&Type=search" }, "geometry": { "type": "Point", "coordinates": [ 139.729693200000042, 35.7137776 ] } },
{ "type": "Feature", "properties": { "内容": "台東区立老人保健施設千束【介護老人保健施設】東京都台東区千束３－２０－５", "url2": "https://www.kaigokensaku.mhlw.go.jp/13/index.php?action_kouhyou_detail_004_kani=true&JigyosyoCd=1350680011-00&ServiceCd=520&Type=search" }, "geometry": { "type": "Point", "coordinates": [ 139.792616299999963, 35.7228232 ] } },
{ "type": "Feature", "properties": { "内容": "浅草介護老人保健施設【介護老人保健施設】東京都台東区寿４－８－２", "url2": "https://www.kaigokensaku.mhlw.go.jp/13/index.php?action_kouhyou_detail_004_kani=true&JigyosyoCd=1357081011-00&ServiceCd=520&Type=search" }, "geometry": { "type": "Point", "coordinates": [ 139.791869899999938, 35.708966 ] } },
{ "type": "Feature", "properties": { "内容": "ろうけん隅田秋光園【介護老人保健施設】東京都墨田区横網2丁目7番13号", "url2": "https://www.kaigokensaku.mhlw.go.jp/13/index.php?action_kouhyou_detail_004_kani=true&JigyosyoCd=1350780027-00&ServiceCd=520&Type=search" }, "geometry": { "type": "Point", "coordinates": [ 139.794855500000011, 35.7011026 ] } },
{ "type": "Feature", "properties": { "内容": "医療法人社団　葵会　介護老人保健施設　葵の園・向島【介護老人保健施設】東京都墨田区向島三丁目1番13号", "url2": "https://www.kaigokensaku.mhlw.go.jp/13/index.php?action_kouhyou_detail_004_kani=true&JigyosyoCd=1357081169-00&ServiceCd=520&Type=search" }, "geometry": { "type": "Point", "coordinates": [ 139.806382399999961, 35.7129381 ] } },
{ "type": "Feature", "properties": { "内容": "櫻川介護老人保健施設【介護老人保健施設】東京都墨田区堤通1-9-8", "url2": "https://www.kaigokensaku.mhlw.go.jp/13/index.php?action_kouhyou_detail_004_kani=true&JigyosyoCd=1357081375-00&ServiceCd=520&Type=search" }, "geometry": { "type": "Point", "coordinates": [ 139.8111427, 35.7245706 ] } },
{ "type": "Feature", "properties": { "内容": "介護老人保健施設ベレール向島【介護老人保健施設】東京都墨田区東向島2-36-11", "url2": "https://www.kaigokensaku.mhlw.go.jp/13/index.php?action_kouhyou_detail_004_kani=true&JigyosyoCd=1350780019-00&ServiceCd=520&Type=search" }, "geometry": { "type": "Point", "coordinates": [ 139.818245, 35.7216321 ] } },
{ "type": "Feature", "properties": { "内容": "医療法人社団　湖聖会　介護老人保健施設　キーストーン【介護老人保健施設】東京都江東区亀戸３－３６－１", "url2": "https://www.kaigokensaku.mhlw.go.jp/13/index.php?action_kouhyou_detail_004_kani=true&JigyosyoCd=1350880017-00&ServiceCd=520&Type=search" }, "geometry": { "type": "Point", "coordinates": [ 139.819328700000028, 35.7072746 ] } },
{ "type": "Feature", "properties": { "内容": "東京城東病院附属介護老人保健施設【介護老人保健施設】東京都江東区亀戸９丁目13-1", "url2": "https://www.kaigokensaku.mhlw.go.jp/13/index.php?action_kouhyou_detail_004_kani=true&JigyosyoCd=1357080286-00&ServiceCd=520&Type=search" }, "geometry": { "type": "Point", "coordinates": [ 139.8459348, 35.6952155 ] } },
{ "type": "Feature", "properties": { "内容": "老人保健施設　らん　すずらん【介護老人保健施設】東京都江東区塩浜2-7-3", "url2": "https://www.kaigokensaku.mhlw.go.jp/13/index.php?action_kouhyou_detail_004_kani=true&JigyosyoCd=1357080765-00&ServiceCd=520&Type=search" }, "geometry": { "type": "Point", "coordinates": [ 139.8067724, 35.6616103 ] } },
{ "type": "Feature", "properties": { "内容": "介護老人保健施設　メディケアイースト【介護老人保健施設】東京都江東区新砂３－３－３８", "url2": "https://www.kaigokensaku.mhlw.go.jp/13/index.php?action_kouhyou_detail_004_kani=true&JigyosyoCd=1357081144-00&ServiceCd=520&Type=search" }, "geometry": { "type": "Point", "coordinates": [ 139.832308399999988, 35.665402 ] } },
{ "type": "Feature", "properties": { "内容": "介護老人保健施設　かがやきライフ江東【介護老人保健施設】東京都江東区枝川三丁目8番18号", "url2": "https://www.kaigokensaku.mhlw.go.jp/13/index.php?action_kouhyou_detail_004_kani=true&JigyosyoCd=1357081359-00&ServiceCd=520&Type=search" }, "geometry": { "type": "Point", "coordinates": [ 139.811941299999944, 35.658744 ] } },
{ "type": "Feature", "properties": { "内容": "介護老人保健施設　葵の園・江東区【介護老人保健施設】東京都江東区北砂2-18-1", "url2": "https://www.kaigokensaku.mhlw.go.jp/13/index.php?action_kouhyou_detail_004_kani=true&JigyosyoCd=1350880025-00&ServiceCd=520&Type=search" }, "geometry": { "type": "Point", "coordinates": [ 139.826382417196669, 35.681086152994162 ] } },
{ "type": "Feature", "properties": { "内容": "介護老人保健施設　清らかの里【介護老人保健施設】東京都江東区東砂四丁目２０番２号愛育メディカルセンター", "url2": "https://www.kaigokensaku.mhlw.go.jp/13/index.php?action_kouhyou_detail_004_kani=true&JigyosyoCd=1357081086-00&ServiceCd=520&Type=search" }, "geometry": { "type": "Point", "coordinates": [ 139.838693799999987, 35.6778312 ] } },
{ "type": "Feature", "properties": { "内容": "介護老人保健施設ソピア御殿山【介護老人保健施設】東京都品川区北品川５丁目２番１号品川リハビリテーションパーク・品川区立大崎図書館", "url2": "https://www.kaigokensaku.mhlw.go.jp/13/index.php?action_kouhyou_detail_004_kani=true&JigyosyoCd=1350980015-00&ServiceCd=520&Type=search" }, "geometry": { "type": "Point", "coordinates": [ 139.731624399999987, 35.6232356 ] } },
{ "type": "Feature", "properties": { "内容": "介護老人保健施設　　　ケアセンター南大井【介護老人保健施設】東京都品川区南大井5-19-1南大井高齢者保健福祉複合施設", "url2": "https://www.kaigokensaku.mhlw.go.jp/13/index.php?action_kouhyou_detail_004_kani=true&JigyosyoCd=1357080864-00&ServiceCd=520&Type=search" }, "geometry": { "type": "Point", "coordinates": [ 139.733981099999937, 35.5946474 ] } },
{ "type": "Feature", "properties": { "内容": "介護老人保健施設リハビリパーク目黒【介護老人保健施設】東京都目黒区中央町2-5-12", "url2": "https://www.kaigokensaku.mhlw.go.jp/13/index.php?action_kouhyou_detail_004_kani=true&JigyosyoCd=1357081425-00&ServiceCd=520&Type=search" }, "geometry": { "type": "Point", "coordinates": [ 139.692538600000034, 35.6316445 ] } },
{ "type": "Feature", "properties": { "内容": "大田ナーシングホーム翔裕園【介護老人保健施設】東京都大田区東六郷１－１２－１1", "url2": "https://www.kaigokensaku.mhlw.go.jp/13/index.php?action_kouhyou_detail_004_kani=true&JigyosyoCd=1357081243-00&ServiceCd=520&Type=search" }, "geometry": { "type": "Point", "coordinates": [ 139.719637299999931, 35.5538191 ] } },
{ "type": "Feature", "properties": { "内容": "介護老人保健施設　和光の園【介護老人保健施設】東京都大田区大森西4-12-1", "url2": "https://www.kaigokensaku.mhlw.go.jp/13/index.php?action_kouhyou_detail_004_kani=true&JigyosyoCd=1351180029-00&ServiceCd=520&Type=search" }, "geometry": { "type": "Point", "coordinates": [ 139.72311653121335, 35.572651662489797 ] } },
{ "type": "Feature", "properties": { "内容": "社会医療法人財団　仁医会　介護老人保健施設　大森平和の里【介護老人保健施設】東京都大田区大森本町１丁目７番６号", "url2": "https://www.kaigokensaku.mhlw.go.jp/13/index.php?action_kouhyou_detail_004_kani=true&JigyosyoCd=1357081219-00&ServiceCd=520&Type=search" }, "geometry": { "type": "Point", "coordinates": [ 139.736756499999956, 35.5850458 ] } },
{ "type": "Feature", "properties": { "内容": "介護老人保健施設　アクア東糀谷【介護老人保健施設】東京都大田区東糀谷六丁目４番１７号", "url2": "https://www.kaigokensaku.mhlw.go.jp/13/index.php?action_kouhyou_detail_004_kani=true&JigyosyoCd=1357081532-00&ServiceCd=520&Type=search" }, "geometry": { "type": "Point", "coordinates": [ 139.751026599999932, 35.5592414 ] } },
{ "type": "Feature", "properties": { "内容": "介護老人保健施設コージーハウスはすぬま【介護老人保健施設】東京都大田区東矢口３丁目８番１１号", "url2": "https://www.kaigokensaku.mhlw.go.jp/13/index.php?action_kouhyou_detail_004_kani=true&JigyosyoCd=1357081409-00&ServiceCd=520&Type=search" }, "geometry": { "type": "Point", "coordinates": [ 139.706135499999959, 35.5632482 ] } },
{ "type": "Feature", "properties": { "内容": "介護老人保健施設　梅ヶ丘【介護老人保健施設】東京都世田谷区松原六丁目37番地1号東京リハビリテーションセンター世田谷", "url2": "https://www.kaigokensaku.mhlw.go.jp/13/index.php?action_kouhyou_detail_004_kani=true&JigyosyoCd=1351280035-00&ServiceCd=520&Type=search" }, "geometry": { "type": "Point", "coordinates": [ 139.650629400000071, 35.6576848 ] } },
{ "type": "Feature", "properties": { "内容": "老人保健施設　ビバ・フローラ【介護老人保健施設】東京都世田谷区世田谷１丁目１６番２号", "url2": "https://www.kaigokensaku.mhlw.go.jp/13/index.php?action_kouhyou_detail_004_kani=true&JigyosyoCd=1357080336-00&ServiceCd=520&Type=search" }, "geometry": { "type": "Point", "coordinates": [ 139.650431, 35.6415949 ] } },
{ "type": "Feature", "properties": { "内容": "介護老人保健施設　ホスピア三軒茶屋【介護老人保健施設】東京都世田谷区三軒茶屋1-16-13", "url2": "https://www.kaigokensaku.mhlw.go.jp/13/index.php?action_kouhyou_detail_004_kani=true&JigyosyoCd=1357080351-00&ServiceCd=520&Type=search" }, "geometry": { "type": "Point", "coordinates": [ 139.670540399999936, 35.6401817 ] } },
{ "type": "Feature", "properties": { "内容": "介護老人保健施設玉川すばる【介護老人保健施設】東京都世田谷区瀬田４－１－１４", "url2": "https://www.kaigokensaku.mhlw.go.jp/13/index.php?action_kouhyou_detail_004_kani=true&JigyosyoCd=1357081474-00&ServiceCd=520&Type=search" }, "geometry": { "type": "Point", "coordinates": [ 139.627675899999986, 35.6178677 ] } },
{ "type": "Feature", "properties": { "内容": "介護老人保健施設サンセール世田谷大蔵【介護老人保健施設】東京都世田谷区大蔵1-3-22", "url2": "https://www.kaigokensaku.mhlw.go.jp/13/index.php?action_kouhyou_detail_004_kani=true&JigyosyoCd=1351280019-00&ServiceCd=520&Type=search" }, "geometry": { "type": "Point", "coordinates": [ 139.621217200000046, 35.6356096 ] } },
{ "type": "Feature", "properties": { "内容": "介護老人保健施設グリーンポート恵比寿【介護老人保健施設】東京都渋谷区恵比寿3-36-5", "url2": "https://www.kaigokensaku.mhlw.go.jp/13/index.php?action_kouhyou_detail_004_kani=true&JigyosyoCd=1357080658-00&ServiceCd=520&Type=search" }, "geometry": { "type": "Point", "coordinates": [ 139.719058200000063, 35.6423995 ] } },
{ "type": "Feature", "properties": { "内容": "日本赤十字社総合福祉センター　介護老人保健施設　レクロス広尾【介護老人保健施設】東京都渋谷区広尾4丁目1番23号", "url2": "https://www.kaigokensaku.mhlw.go.jp/13/index.php?action_kouhyou_detail_004_kani=true&JigyosyoCd=1351380017-00&ServiceCd=520&Type=search" }, "geometry": { "type": "Point", "coordinates": [ 139.718978410975637, 35.654524684950182 ] } },
{ "type": "Feature", "properties": { "内容": "介護老人保健施設　中野すみれ苑【介護老人保健施設】東京都中野区弥生町6丁目7番16号", "url2": "https://www.kaigokensaku.mhlw.go.jp/13/index.php?action_kouhyou_detail_004_kani=true&JigyosyoCd=1351480015-00&ServiceCd=520&Type=search" }, "geometry": { "type": "Point", "coordinates": [ 139.660993, 35.6860807 ] } },
{ "type": "Feature", "properties": { "内容": "リハビリテーションセンター江古田の森【介護老人保健施設】東京都中野区江古田3-14-19", "url2": "https://www.kaigokensaku.mhlw.go.jp/13/index.php?action_kouhyou_detail_004_kani=true&JigyosyoCd=1357081540-00&ServiceCd=520&Type=search" }, "geometry": { "type": "Point", "coordinates": [ 139.665365, 35.729588 ] } },
{ "type": "Feature", "properties": { "内容": "社会福祉法人浴風会　老健くぬぎ【介護老人保健施設】東京都杉並区高井戸西1-12-1", "url2": "https://www.kaigokensaku.mhlw.go.jp/13/index.php?action_kouhyou_detail_004_kani=true&JigyosyoCd=1351580012-00&ServiceCd=520&Type=search" }, "geometry": { "type": "Point", "coordinates": [ 139.609126859385697, 35.680355998006355 ] } },
{ "type": "Feature", "properties": { "内容": "ブース記念老人保健施設　グレイス【介護老人保健施設】東京都杉並区和田１－４０－１５", "url2": "https://www.kaigokensaku.mhlw.go.jp/13/index.php?action_kouhyou_detail_004_kani=true&JigyosyoCd=1357080195-00&ServiceCd=520&Type=search" }, "geometry": { "type": "Point", "coordinates": [ 139.660480900000039, 35.6911725 ] } },
{ "type": "Feature", "properties": { "内容": "介護老人保健施設シーダ・ウォーク【介護老人保健施設】東京都杉並区桃井3-4-9", "url2": "https://www.kaigokensaku.mhlw.go.jp/13/index.php?action_kouhyou_detail_004_kani=true&JigyosyoCd=1357081284-00&ServiceCd=520&Type=search" }, "geometry": { "type": "Point", "coordinates": [ 139.605684699999983, 35.7116972 ] } },
{ "type": "Feature", "properties": { "内容": "介護老人保健施設　ウェルファー【介護老人保健施設】東京都杉並区堀ノ内１－６－６", "url2": "https://www.kaigokensaku.mhlw.go.jp/13/index.php?action_kouhyou_detail_004_kani=true&JigyosyoCd=1357080583-00&ServiceCd=520&Type=search" }, "geometry": { "type": "Point", "coordinates": [ 139.6535235, 35.6831316 ] } },
{ "type": "Feature", "properties": { "内容": "池袋えびすの郷【介護老人保健施設】東京都豊島区池袋本町2-34-1", "url2": "https://www.kaigokensaku.mhlw.go.jp/13/index.php?action_kouhyou_detail_004_kani=true&JigyosyoCd=1357081235-00&ServiceCd=520&Type=search" }, "geometry": { "type": "Point", "coordinates": [ 139.709005, 35.742949 ] } },
{ "type": "Feature", "properties": { "内容": "介護老人保健施設安寿【介護老人保健施設】東京都豊島区南池袋3-7-8", "url2": "https://www.kaigokensaku.mhlw.go.jp/13/index.php?action_kouhyou_detail_004_kani=true&JigyosyoCd=1357081383-00&ServiceCd=520&Type=search" }, "geometry": { "type": "Point", "coordinates": [ 139.7120999, 35.7235511 ] } },
{ "type": "Feature", "properties": { "内容": "南池袋介護老人保健施設アバンセ【介護老人保健施設】東京都豊島区南池袋4-6-1", "url2": "https://www.kaigokensaku.mhlw.go.jp/13/index.php?action_kouhyou_detail_004_kani=true&JigyosyoCd=1351680010-00&ServiceCd=520&Type=search" }, "geometry": { "type": "Point", "coordinates": [ 139.716484959524564, 35.721771397165725 ] } },
{ "type": "Feature", "properties": { "内容": "東京シニアケアセンター赤羽【介護老人保健施設】東京都北区志茂１－１９－１４", "url2": "https://www.kaigokensaku.mhlw.go.jp/13/index.php?action_kouhyou_detail_004_kani=true&JigyosyoCd=1351780042-00&ServiceCd=520&Type=search" }, "geometry": { "type": "Point", "coordinates": [ 139.727268789549242, 35.776934282114951 ] } },
{ "type": "Feature", "properties": { "内容": "介護老人保健施設はくちょう【介護老人保健施設】東京都北区田端3-18-24", "url2": "https://www.kaigokensaku.mhlw.go.jp/13/index.php?action_kouhyou_detail_004_kani=true&JigyosyoCd=1351780034-00&ServiceCd=520&Type=search" }, "geometry": { "type": "Point", "coordinates": [ 139.756754699999988, 35.7359867 ] } },
{ "type": "Feature", "properties": { "内容": "介護老人保健施設　「太陽の都」【介護老人保健施設】東京都北区浮間２－１－１３", "url2": "https://www.kaigokensaku.mhlw.go.jp/13/index.php?action_kouhyou_detail_004_kani=true&JigyosyoCd=1357080559-00&ServiceCd=520&Type=search" }, "geometry": { "type": "Point", "coordinates": [ 139.700123800000028, 35.7926396 ] } },
{ "type": "Feature", "properties": { "内容": "東京北医療センター介護老人保健施設さくらの杜【介護老人保健施設】東京都北区赤羽台４－１７－５６", "url2": "https://www.kaigokensaku.mhlw.go.jp/13/index.php?action_kouhyou_detail_004_kani=true&JigyosyoCd=1357081185-00&ServiceCd=520&Type=search" }, "geometry": { "type": "Point", "coordinates": [ 139.71202314061432, 35.783524890734292 ] } },
{ "type": "Feature", "properties": { "内容": "滝野川病院附属介護老人保健施設【介護老人保健施設】東京都北区滝野川2-32-12滝野川病院4階", "url2": "https://www.kaigokensaku.mhlw.go.jp/13/index.php?action_kouhyou_detail_004_kani=true&JigyosyoCd=1351780018-00&ServiceCd=520&Type=search" }, "geometry": { "type": "Point", "coordinates": [ 139.731278, 35.750535 ] } },
{ "type": "Feature", "properties": { "内容": "リハビリパーク滝野川【介護老人保健施設】東京都北区滝野川６－１３－１３", "url2": "https://www.kaigokensaku.mhlw.go.jp/13/index.php?action_kouhyou_detail_004_kani=true&JigyosyoCd=1351780026-00&ServiceCd=520&Type=search" }, "geometry": { "type": "Point", "coordinates": [ 139.724414799999977, 35.7434524 ] } },
{ "type": "Feature", "properties": { "内容": "社会福祉法人上智社会事業団　介護老人保健施設まちや【介護老人保健施設】東京都荒川区町屋4-9-5", "url2": "https://www.kaigokensaku.mhlw.go.jp/13/index.php?action_kouhyou_detail_004_kani=true&JigyosyoCd=1357080476-00&ServiceCd=520&Type=search" }, "geometry": { "type": "Point", "coordinates": [ 139.776585599999947, 35.7471172 ] } },
{ "type": "Feature", "properties": { "内容": "介護老人保健施設　ひぐらしの里【介護老人保健施設】東京都荒川区西日暮里1-4-1", "url2": "https://www.kaigokensaku.mhlw.go.jp/13/index.php?action_kouhyou_detail_004_kani=true&JigyosyoCd=1357080872-00&ServiceCd=520&Type=search" }, "geometry": { "type": "Point", "coordinates": [ 139.777564100000063, 35.7345603 ] } },
{ "type": "Feature", "properties": { "内容": "医療法人財団竹栄会介護老人保健施設けんちの苑すみだ川【介護老人保健施設】東京都荒川区南千住3-9-3", "url2": "https://www.kaigokensaku.mhlw.go.jp/13/index.php?action_kouhyou_detail_004_kani=true&JigyosyoCd=1357081110-00&ServiceCd=520&Type=search" }, "geometry": { "type": "Point", "coordinates": [ 139.80197910000004, 35.7305505 ] } },
{ "type": "Feature", "properties": { "内容": "医療法人社団明芳会介護老人保健施設　クローバーのさと　イムスケアカウピリ板橋【介護老人保健施設】東京都板橋区仲町１－４", "url2": "https://www.kaigokensaku.mhlw.go.jp/13/index.php?action_kouhyou_detail_004_kani=true&JigyosyoCd=1351980022-00&ServiceCd=520&Type=search" }, "geometry": { "type": "Point", "coordinates": [ 139.699830600000041, 35.7513726 ] } },
{ "type": "Feature", "properties": { "内容": "介護老人保健施設　紅梅園【介護老人保健施設】東京都板橋区徳丸8-14-11", "url2": "https://www.kaigokensaku.mhlw.go.jp/13/index.php?action_kouhyou_detail_004_kani=true&JigyosyoCd=1351980030-00&ServiceCd=520&Type=search" }, "geometry": { "type": "Point", "coordinates": [ 139.656683402377325, 35.781385478592355 ] } },
{ "type": "Feature", "properties": { "内容": "医療法人財団　朔望会　介護老人保健施設エーデルワイス【介護老人保健施設】東京都板橋区四葉2-21-16", "url2": "https://www.kaigokensaku.mhlw.go.jp/13/index.php?action_kouhyou_detail_004_kani=true&JigyosyoCd=1357080393-00&ServiceCd=520&Type=search" }, "geometry": { "type": "Point", "coordinates": [ 139.650689599999964, 35.783259 ] } },
{ "type": "Feature", "properties": { "内容": "介護老人保健施設　シルバーピア加賀【介護老人保健施設】東京都板橋区加賀１丁目３番１号", "url2": "https://www.kaigokensaku.mhlw.go.jp/13/index.php?action_kouhyou_detail_004_kani=true&JigyosyoCd=1357080435-00&ServiceCd=520&Type=search" }, "geometry": { "type": "Point", "coordinates": [ 139.72139847553251, 35.753703188988595 ] } },
{ "type": "Feature", "properties": { "内容": "医療法人社団　翠会　蓮根ひまわり苑【介護老人保健施設】東京都板橋区蓮根３丁目２５番４号", "url2": "https://www.kaigokensaku.mhlw.go.jp/13/index.php?action_kouhyou_detail_004_kani=true&JigyosyoCd=1357080591-00&ServiceCd=520&Type=search" }, "geometry": { "type": "Point", "coordinates": [ 139.676867600000037, 35.7908086 ] } },
{ "type": "Feature", "properties": { "内容": "介護老人保健施設　板橋ロイヤルケアセンター【介護老人保健施設】東京都板橋区前野町3丁目46番3号", "url2": "https://www.kaigokensaku.mhlw.go.jp/13/index.php?action_kouhyou_detail_004_kani=true&JigyosyoCd=1357080948-00&ServiceCd=520&Type=search" }, "geometry": { "type": "Point", "coordinates": [ 139.694227700000056, 35.7720481 ] } },
{ "type": "Feature", "properties": { "内容": "医療法人財団健康文化会介護老人保健施設志村さつき苑【介護老人保健施設】東京都板橋区坂下3-7-6", "url2": "https://www.kaigokensaku.mhlw.go.jp/13/index.php?action_kouhyou_detail_004_kani=true&JigyosyoCd=1357081276-00&ServiceCd=520&Type=search" }, "geometry": { "type": "Point", "coordinates": [ 139.683856, 35.7863762 ] } },
{ "type": "Feature", "properties": { "内容": "介護老人保健施設　赤塚園【介護老人保健施設】東京都板橋区赤塚新町３－３３－２７", "url2": "https://www.kaigokensaku.mhlw.go.jp/13/index.php?action_kouhyou_detail_004_kani=true&JigyosyoCd=1357081334-00&ServiceCd=520&Type=search" }, "geometry": { "type": "Point", "coordinates": [ 139.640676699999972, 35.76937740000001 ] } },
{ "type": "Feature", "properties": { "内容": "介護老人保健施設　浮間舟渡園【介護老人保健施設】東京都板橋区舟渡1丁目17番1号", "url2": "https://www.kaigokensaku.mhlw.go.jp/13/index.php?action_kouhyou_detail_004_kani=true&JigyosyoCd=1351980014-00&ServiceCd=520&Type=search" }, "geometry": { "type": "Point", "coordinates": [ 139.687180500000068, 35.7932058 ] } },
{ "type": "Feature", "properties": { "内容": "介護老人保健施設　プリムローズ【介護老人保健施設】東京都板橋区前野町3-8-7", "url2": "https://www.kaigokensaku.mhlw.go.jp/13/index.php?action_kouhyou_detail_004_kani=true&JigyosyoCd=1357081524-00&ServiceCd=520&Type=search" }, "geometry": { "type": "Point", "coordinates": [ 139.6928891, 35.7678958 ] } },
{ "type": "Feature", "properties": { "内容": "リハビリパーク練馬【介護老人保健施設】東京都練馬区豊玉北1-20-20", "url2": "https://www.kaigokensaku.mhlw.go.jp/13/index.php?action_kouhyou_detail_004_kani=true&JigyosyoCd=1352080046-00&ServiceCd=520&Type=search" }, "geometry": { "type": "Point", "coordinates": [ 139.666586799999976, 35.7318677 ] } },
{ "type": "Feature", "properties": { "内容": "神石介護老人保健施設【介護老人保健施設】東京都練馬区上石神井3-33-6", "url2": "https://www.kaigokensaku.mhlw.go.jp/13/index.php?action_kouhyou_detail_004_kani=true&JigyosyoCd=1352080020-00&ServiceCd=520&Type=search" }, "geometry": { "type": "Point", "coordinates": [ 139.591291, 35.7317332 ] } },
{ "type": "Feature", "properties": { "内容": "介護老人保健施設　第二橘苑【介護老人保健施設】東京都練馬区北町2－32－14", "url2": "https://www.kaigokensaku.mhlw.go.jp/13/index.php?action_kouhyou_detail_004_kani=true&JigyosyoCd=1352080053-00&ServiceCd=520&Type=search" }, "geometry": { "type": "Point", "coordinates": [ 139.6559757, 35.7684307 ] } },
{ "type": "Feature", "properties": { "内容": "介護老人保健施設　エスポワール練馬【介護老人保健施設】東京都練馬区関町東1-1-9", "url2": "https://www.kaigokensaku.mhlw.go.jp/13/index.php?action_kouhyou_detail_004_kani=true&JigyosyoCd=1352080061-00&ServiceCd=520&Type=search" }, "geometry": { "type": "Point", "coordinates": [ 139.585202799999934, 35.7233868 ] } },
{ "type": "Feature", "properties": { "内容": "医療法人社団健育会　介護老人保健施設　ライフサポートひなた【介護老人保健施設】東京都練馬区氷川台2-14-3", "url2": "https://www.kaigokensaku.mhlw.go.jp/13/index.php?action_kouhyou_detail_004_kani=true&JigyosyoCd=1352080079-00&ServiceCd=520&Type=search" }, "geometry": { "type": "Point", "coordinates": [ 139.667891700000041, 35.7559963 ] } },
{ "type": "Feature", "properties": { "内容": "医療法人社団川満惠光会　介護老人保健施設　みんなの笑顔【介護老人保健施設】東京都練馬区東大泉5-29-13", "url2": "https://www.kaigokensaku.mhlw.go.jp/13/index.php?action_kouhyou_detail_004_kani=true&JigyosyoCd=1352080087-00&ServiceCd=520&Type=search" }, "geometry": { "type": "Point", "coordinates": [ 139.586792817129464, 35.747358865893496 ] } },
{ "type": "Feature", "properties": { "内容": "医療法人社団翠会　介護老人保健施設練馬ゆめの木【介護老人保健施設】東京都練馬区大泉町2-17-1", "url2": "https://www.kaigokensaku.mhlw.go.jp/13/index.php?action_kouhyou_detail_004_kani=true&JigyosyoCd=1357080427-00&ServiceCd=520&Type=search" }, "geometry": { "type": "Point", "coordinates": [ 139.60274430000004, 35.7607912 ] } },
{ "type": "Feature", "properties": { "内容": "介護老人保健施設　ミレニアム桜台【介護老人保健施設】東京都練馬区桜台2-1-13", "url2": "https://www.kaigokensaku.mhlw.go.jp/13/index.php?action_kouhyou_detail_004_kani=true&JigyosyoCd=1357080724-00&ServiceCd=520&Type=search" }, "geometry": { "type": "Point", "coordinates": [ 139.667783858711687, 35.742330130006742 ] } },
{ "type": "Feature", "properties": { "内容": "平和台介護老人保健施設アバンセ【介護老人保健施設】東京都練馬区平和台1丁目16番12号", "url2": "https://www.kaigokensaku.mhlw.go.jp/13/index.php?action_kouhyou_detail_004_kani=true&JigyosyoCd=1357080955-00&ServiceCd=520&Type=search" }, "geometry": { "type": "Point", "coordinates": [ 139.664791630688455, 35.759239587535447 ] } },
{ "type": "Feature", "properties": { "内容": "医療法人社団カタクリ会介護老人保健施設カタクリの花【介護老人保健施設】東京都練馬区高野台5-32-12", "url2": "https://www.kaigokensaku.mhlw.go.jp/13/index.php?action_kouhyou_detail_004_kani=true&JigyosyoCd=1357081037-00&ServiceCd=520&Type=search" }, "geometry": { "type": "Point", "coordinates": [ 139.609285799999952, 35.7489484 ] } },
{ "type": "Feature", "properties": { "内容": "介護老人保健施設　大泉学園ふきのとう【介護老人保健施設】東京都練馬区大泉学園町８－２４－２５", "url2": "https://www.kaigokensaku.mhlw.go.jp/13/index.php?action_kouhyou_detail_004_kani=true&JigyosyoCd=1357080518-00&ServiceCd=520&Type=search" }, "geometry": { "type": "Point", "coordinates": [ 139.5980889, 35.7736644 ] } },
{ "type": "Feature", "properties": { "内容": "介護老人保健施設　ライフサポートねりま【介護老人保健施設】東京都練馬区大泉学園町7丁目3番28号", "url2": "https://www.kaigokensaku.mhlw.go.jp/13/index.php?action_kouhyou_detail_004_kani=true&JigyosyoCd=1352080095-00&ServiceCd=520&Type=search" }, "geometry": { "type": "Point", "coordinates": [ 139.587608167984001, 35.769795339011246 ] } },
{ "type": "Feature", "properties": { "内容": "介護老人保健施設葵の園・練馬【介護老人保健施設】東京都練馬区春日町４丁目３７－３０", "url2": "https://www.kaigokensaku.mhlw.go.jp/13/index.php?action_kouhyou_detail_004_kani=true&JigyosyoCd=1352080012-00&ServiceCd=520&Type=search" }, "geometry": { "type": "Point", "coordinates": [ 139.638155200000028, 35.7563955 ] } },
{ "type": "Feature", "properties": { "内容": "介護老人保健施設橘苑【介護老人保健施設】東京都練馬区北町3-7-22", "url2": "https://www.kaigokensaku.mhlw.go.jp/13/index.php?action_kouhyou_detail_004_kani=true&JigyosyoCd=1352080038-00&ServiceCd=520&Type=search" }, "geometry": { "type": "Point", "coordinates": [ 139.655971499999964, 35.768583299999982 ] } },
{ "type": "Feature", "properties": { "内容": "介護老人保健施設　ホスピア東和【介護老人保健施設】東京都足立区東和４－７－８", "url2": "https://www.kaigokensaku.mhlw.go.jp/13/index.php?action_kouhyou_detail_004_kani=true&JigyosyoCd=1357081367-00&ServiceCd=520&Type=search" }, "geometry": { "type": "Point", "coordinates": [ 139.8432616, 35.772709800000023 ] } },
{ "type": "Feature", "properties": { "内容": "千壽介護老人保健施設【介護老人保健施設】東京都足立区千住中居町29-6", "url2": "https://www.kaigokensaku.mhlw.go.jp/13/index.php?action_kouhyou_detail_004_kani=true&JigyosyoCd=1352180028-00&ServiceCd=520&Type=search" }, "geometry": { "type": "Point", "coordinates": [ 139.797417, 35.7514175 ] } },
{ "type": "Feature", "properties": { "内容": "介護老人保健施設　イルアカーサ【介護老人保健施設】東京都足立区六木4-9-10", "url2": "https://www.kaigokensaku.mhlw.go.jp/13/index.php?action_kouhyou_detail_004_kani=true&JigyosyoCd=1352180044-00&ServiceCd=520&Type=search" }, "geometry": { "type": "Point", "coordinates": [ 139.8392255, 35.7973313 ] } },
{ "type": "Feature", "properties": { "内容": "医療法人社団葵会　介護老人保健施設葵の園・椿【介護老人保健施設】東京都足立区椿2-3-1葵の園・椿", "url2": "https://www.kaigokensaku.mhlw.go.jp/13/index.php?action_kouhyou_detail_004_kani=true&JigyosyoCd=1352180051-00&ServiceCd=520&Type=search" }, "geometry": { "type": "Point", "coordinates": [ 139.757788468122868, 35.778648437365717 ] } },
{ "type": "Feature", "properties": { "内容": "医療法人財団　健和会　老人保健施設　千寿の郷【介護老人保健施設】東京都足立区柳原2-33-6", "url2": "https://www.kaigokensaku.mhlw.go.jp/13/index.php?action_kouhyou_detail_004_kani=true&JigyosyoCd=1357080179-00&ServiceCd=520&Type=search" }, "geometry": { "type": "Point", "coordinates": [ 139.814416, 35.7479349 ] } },
{ "type": "Feature", "properties": { "内容": "介護老人保健施設しらさぎ【介護老人保健施設】東京都足立区梅田八丁目12番10号", "url2": "https://www.kaigokensaku.mhlw.go.jp/13/index.php?action_kouhyou_detail_004_kani=true&JigyosyoCd=1357080302-00&ServiceCd=520&Type=search" }, "geometry": { "type": "Point", "coordinates": [ 139.794763706745897, 35.772032331423041 ] } },
{ "type": "Feature", "properties": { "内容": "（医）成仁介護老人保健施設【介護老人保健施設】東京都足立区大谷田2丁目18番12号", "url2": "https://www.kaigokensaku.mhlw.go.jp/13/index.php?action_kouhyou_detail_004_kani=true&JigyosyoCd=1357080690-00&ServiceCd=520&Type=search" }, "geometry": { "type": "Point", "coordinates": [ 139.843636400000037, 35.7836916 ] } },
{ "type": "Feature", "properties": { "内容": "介護老人保健施設いずみ【介護老人保健施設】東京都足立区西新井五丁目３５番２号", "url2": "https://www.kaigokensaku.mhlw.go.jp/13/index.php?action_kouhyou_detail_004_kani=true&JigyosyoCd=1357081003-00&ServiceCd=520&Type=search" }, "geometry": { "type": "Point", "coordinates": [ 139.775736700000039, 35.785596 ] } },
{ "type": "Feature", "properties": { "内容": "介護老人保健施設むくげのいえ【介護老人保健施設】東京都足立区西新井本町1-25-36", "url2": "https://www.kaigokensaku.mhlw.go.jp/13/index.php?action_kouhyou_detail_004_kani=true&JigyosyoCd=1357081136-00&ServiceCd=520&Type=search" }, "geometry": { "type": "Point", "coordinates": [ 139.779547699999966, 35.7747226 ] } },
{ "type": "Feature", "properties": { "内容": "介護老人保健施設あさひ【介護老人保健施設】東京都足立区保木間4-41-12", "url2": "https://www.kaigokensaku.mhlw.go.jp/13/index.php?action_kouhyou_detail_004_kani=true&JigyosyoCd=1352180036-00&ServiceCd=520&Type=search" }, "geometry": { "type": "Point", "coordinates": [ 139.807497199999943, 35.8000809 ] } },
{ "type": "Feature", "properties": { "内容": "介護老人保健施設　梅の木【介護老人保健施設】東京都足立区青井4丁目29番23号", "url2": "https://www.kaigokensaku.mhlw.go.jp/13/index.php?action_kouhyou_detail_004_kani=true&JigyosyoCd=1357081094-00&ServiceCd=520&Type=search" }, "geometry": { "type": "Point", "coordinates": [ 139.819983, 35.7757477 ] } },
{ "type": "Feature", "properties": { "内容": "水野介護老人保健施設【介護老人保健施設】東京都足立区西新井６丁目２４-１３", "url2": "https://www.kaigokensaku.mhlw.go.jp/13/index.php?action_kouhyou_detail_004_kani=true&JigyosyoCd=1352180010-00&ServiceCd=520&Type=search" }, "geometry": { "type": "Point", "coordinates": [ 139.775514665606721, 35.781448570246475 ] } },
{ "type": "Feature", "properties": { "内容": "介護老人保健施設　足立老人ケアセンター【介護老人保健施設】東京都足立区保木間5-23-20", "url2": "https://www.kaigokensaku.mhlw.go.jp/13/index.php?action_kouhyou_detail_004_kani=true&JigyosyoCd=1357080252-00&ServiceCd=520&Type=search" }, "geometry": { "type": "Point", "coordinates": [ 139.804614099999981, 35.8042026 ] } },
{ "type": "Feature", "properties": { "内容": "介護老人保健施設レーベンハウス【介護老人保健施設】東京都足立区西新井本町２－２３－１", "url2": "https://www.kaigokensaku.mhlw.go.jp/13/index.php?action_kouhyou_detail_004_kani=true&JigyosyoCd=1357080468-00&ServiceCd=520&Type=search" }, "geometry": { "type": "Point", "coordinates": [ 139.772509500000069, 35.7751139 ] } },
{ "type": "Feature", "properties": { "内容": "東京愛育苑ケアレジデンス【介護老人保健施設】東京都葛飾区水元３－１３－２", "url2": "https://www.kaigokensaku.mhlw.go.jp/13/index.php?action_kouhyou_detail_004_kani=true&JigyosyoCd=1357080054-00&ServiceCd=520&Type=search" }, "geometry": { "type": "Point", "coordinates": [ 139.863482200000021, 35.7822974 ] } },
{ "type": "Feature", "properties": { "内容": "介護老人保健施設　葛飾ロイヤルケアセンター【介護老人保健施設】東京都葛飾区堀切二丁目６６番１７号", "url2": "https://www.kaigokensaku.mhlw.go.jp/13/index.php?action_kouhyou_detail_004_kani=true&JigyosyoCd=1357080963-00&ServiceCd=520&Type=search" }, "geometry": { "type": "Point", "coordinates": [ 139.831514700000071, 35.7442801 ] } },
{ "type": "Feature", "properties": { "内容": "介護老人保健施設　ケア新小岩【介護老人保健施設】東京都葛飾区東新小岩２－１－１２", "url2": "https://www.kaigokensaku.mhlw.go.jp/13/index.php?action_kouhyou_detail_004_kani=true&JigyosyoCd=1357080989-00&ServiceCd=520&Type=search" }, "geometry": { "type": "Point", "coordinates": [ 139.865265099999988, 35.722741 ] } },
{ "type": "Feature", "properties": { "内容": "介護老人保健施設　お花茶屋ロイヤルケアセンター【介護老人保健施設】東京都葛飾区四つ木５-１９-７", "url2": "https://www.kaigokensaku.mhlw.go.jp/13/index.php?action_kouhyou_detail_004_kani=true&JigyosyoCd=1357081433-00&ServiceCd=520&Type=search" }, "geometry": { "type": "Point", "coordinates": [ 139.840866499999947, 35.743708 ] } },
{ "type": "Feature", "properties": { "内容": "介護老人保健施設青戸こはるびの里【介護老人保健施設】東京都葛飾区青戸7-34-6", "url2": "https://www.kaigokensaku.mhlw.go.jp/13/index.php?action_kouhyou_detail_004_kani=true&JigyosyoCd=1357081458-00&ServiceCd=520&Type=search" }, "geometry": { "type": "Point", "coordinates": [ 139.85699180000006, 35.7561705 ] } },
{ "type": "Feature", "properties": { "内容": "介護老人保健施設リハビリケアかつしか【介護老人保健施設】東京都葛飾区西新小岩3-37-8", "url2": "https://www.kaigokensaku.mhlw.go.jp/13/index.php?action_kouhyou_detail_004_kani=true&JigyosyoCd=1352280018-00&ServiceCd=520&Type=search" }, "geometry": { "type": "Point", "coordinates": [ 139.845664400000032, 35.722490700000023 ] } },
{ "type": "Feature", "properties": { "内容": "介護老人保健施設　花の木【介護老人保健施設】東京都葛飾区新宿2丁目16番4号", "url2": "https://www.kaigokensaku.mhlw.go.jp/13/index.php?action_kouhyou_detail_004_kani=true&JigyosyoCd=1357080385-00&ServiceCd=520&Type=search" }, "geometry": { "type": "Point", "coordinates": [ 139.857035900000028, 35.7609421 ] } },
{ "type": "Feature", "properties": { "内容": "介護老人保健施設　アルターかつしかばし【介護老人保健施設】東京都葛飾区東金町7-30-14", "url2": "https://www.kaigokensaku.mhlw.go.jp/13/index.php?action_kouhyou_detail_004_kani=true&JigyosyoCd=1357080484-00&ServiceCd=520&Type=search" }, "geometry": { "type": "Point", "coordinates": [ 139.8846724, 35.7781808 ] } },
{ "type": "Feature", "properties": { "内容": "介護老人保健施設　ヴィット【介護老人保健施設】東京都江戸川区船堀3丁目10番7号", "url2": "https://www.kaigokensaku.mhlw.go.jp/13/index.php?action_kouhyou_detail_004_kani=true&JigyosyoCd=1357080203-00&ServiceCd=520&Type=search" }, "geometry": { "type": "Point", "coordinates": [ 139.864777600000025, 35.6816263 ] } },
{ "type": "Feature", "properties": { "内容": "介護老人保健施設　ジェロントピア菊華【介護老人保健施設】東京都江戸川区鹿骨3丁目20番3号", "url2": "https://www.kaigokensaku.mhlw.go.jp/13/index.php?action_kouhyou_detail_004_kani=true&JigyosyoCd=1357080229-00&ServiceCd=520&Type=search" }, "geometry": { "type": "Point", "coordinates": [ 139.891384390737954, 35.716442660122965 ] } },
{ "type": "Feature", "properties": { "内容": "老人保健施設ビーバス成光苑【介護老人保健施設】東京都江戸川区北小岩2-7-6", "url2": "https://www.kaigokensaku.mhlw.go.jp/13/index.php?action_kouhyou_detail_004_kani=true&JigyosyoCd=1357080377-00&ServiceCd=520&Type=search" }, "geometry": { "type": "Point", "coordinates": [ 139.88292649999994, 35.7418249 ] } },
{ "type": "Feature", "properties": { "内容": "介護老人保健施設　やすらぎ【介護老人保健施設】東京都江戸川区瑞江１－３－２０", "url2": "https://www.kaigokensaku.mhlw.go.jp/13/index.php?action_kouhyou_detail_004_kani=true&JigyosyoCd=1357080880-00&ServiceCd=520&Type=search" }, "geometry": { "type": "Point", "coordinates": [ 139.894238200000018, 35.6995924 ] } },
{ "type": "Feature", "properties": { "内容": "介護老人保健施設めぐみ【介護老人保健施設】東京都江戸川区東小松川2丁目7番1号", "url2": "https://www.kaigokensaku.mhlw.go.jp/13/index.php?action_kouhyou_detail_004_kani=true&JigyosyoCd=1357081292-00&ServiceCd=520&Type=search" }, "geometry": { "type": "Point", "coordinates": [ 139.8643968, 35.697866 ] } },
{ "type": "Feature", "properties": { "内容": "森山ケアセンター介護老人保健施設【介護老人保健施設】東京都江戸川区江戸川五丁目4番23", "url2": "https://www.kaigokensaku.mhlw.go.jp/13/index.php?action_kouhyou_detail_004_kani=true&JigyosyoCd=1352380016-00&ServiceCd=520&Type=search" }, "geometry": { "type": "Point", "coordinates": [ 139.88377909999997, 35.6772974 ] } },
{ "type": "Feature", "properties": { "内容": "介護老人保健施設こでまり【介護老人保健施設】東京都江戸川区北葛西２－５－２１", "url2": "https://www.kaigokensaku.mhlw.go.jp/13/index.php?action_kouhyou_detail_004_kani=true&JigyosyoCd=1357081268-00&ServiceCd=520&Type=search" }, "geometry": { "type": "Point", "coordinates": [ 139.853995199999986, 35.6758569 ] } },
{ "type": "Feature", "properties": { "内容": "介護老人保健施設ひまわり【介護老人保健施設】東京都江戸川区東葛西8-19-16", "url2": "https://www.kaigokensaku.mhlw.go.jp/13/index.php?action_kouhyou_detail_004_kani=true&JigyosyoCd=1357080542-00&ServiceCd=520&Type=search" }, "geometry": { "type": "Point", "coordinates": [ 139.880488499999956, 35.6560578 ] } },
{ "type": "Feature", "properties": { "内容": "介護老人保健施設ゆうむ【介護老人保健施設】東京都八王子市西寺方町２８４", "url2": "https://www.kaigokensaku.mhlw.go.jp/13/index.php?action_kouhyou_detail_004_kani=true&JigyosyoCd=1357080237-00&ServiceCd=520&Type=search" }, "geometry": { "type": "Point", "coordinates": [ 139.266601600000058, 35.6720483 ] } },
{ "type": "Feature", "properties": { "内容": "介護老人保健施設アメイズ【介護老人保健施設】東京都八王子市中野山王2-8-2", "url2": "https://www.kaigokensaku.mhlw.go.jp/13/index.php?action_kouhyou_detail_004_kani=true&JigyosyoCd=1352980013-00&ServiceCd=520&Type=search" }, "geometry": { "type": "Point", "coordinates": [ 139.331584499999963, 35.6765275 ] } },
{ "type": "Feature", "properties": { "内容": "ハイネス憩の丘【介護老人保健施設】東京都八王子市中野町2082-1", "url2": "https://www.kaigokensaku.mhlw.go.jp/13/index.php?action_kouhyou_detail_004_kani=true&JigyosyoCd=1357080088-00&ServiceCd=520&Type=search" }, "geometry": { "type": "Point", "coordinates": [ 139.326340399999907, 35.6789854 ] } },
{ "type": "Feature", "properties": { "内容": "介護老人保健施設　ウエストケアセンター【介護老人保健施設】東京都八王子市上川町2135番地", "url2": "https://www.kaigokensaku.mhlw.go.jp/13/index.php?action_kouhyou_detail_004_kani=true&JigyosyoCd=1357080112-00&ServiceCd=520&Type=search" }, "geometry": { "type": "Point", "coordinates": [ 139.266722699999946, 35.7050422 ] } },
{ "type": "Feature", "properties": { "内容": "介護老人保健施設エンジェルコート【介護老人保健施設】東京都八王子市上壱分方町71－1", "url2": "https://www.kaigokensaku.mhlw.go.jp/13/index.php?action_kouhyou_detail_004_kani=true&JigyosyoCd=1357080138-00&ServiceCd=520&Type=search" }, "geometry": { "type": "Point", "coordinates": [ 139.280944535581966, 35.684675828772434 ] } },
{ "type": "Feature", "properties": { "内容": "介護老人保健施設ハートランド・ぐらんぱぐらんま【介護老人保健施設】東京都八王子市美山町１０７４", "url2": "https://www.kaigokensaku.mhlw.go.jp/13/index.php?action_kouhyou_detail_004_kani=true&JigyosyoCd=1357080187-00&ServiceCd=520&Type=search" }, "geometry": { "type": "Point", "coordinates": [ 139.250252899999964, 35.6839306 ] } },
{ "type": "Feature", "properties": { "内容": "介護老人保健施設　イマジン【介護老人保健施設】東京都八王子市椚田町583-15", "url2": "https://www.kaigokensaku.mhlw.go.jp/13/index.php?action_kouhyou_detail_004_kani=true&JigyosyoCd=1357080310-00&ServiceCd=520&Type=search" }, "geometry": { "type": "Point", "coordinates": [ 139.305038, 35.6392177 ] } },
{ "type": "Feature", "properties": { "内容": "介護老人保健施設　南大沢ホロス由木【介護老人保健施設】東京都八王子市南大沢２－２２４－５", "url2": "https://www.kaigokensaku.mhlw.go.jp/13/index.php?action_kouhyou_detail_004_kani=true&JigyosyoCd=1357080096-00&ServiceCd=520&Type=search" }, "geometry": { "type": "Point", "coordinates": [ 139.385679900000014, 35.6053117 ] } },
{ "type": "Feature", "properties": { "内容": "医療法人社団光誠会　介護老人保健施設パークサイドヴィラ【介護老人保健施設】東京都立川市富士見町１丁目３６番地６号", "url2": "https://www.kaigokensaku.mhlw.go.jp/13/index.php?action_kouhyou_detail_004_kani=true&JigyosyoCd=1357080781-00&ServiceCd=520&Type=search" }, "geometry": { "type": "Point", "coordinates": [ 139.39468080000006, 35.7030345 ] } },
{ "type": "Feature", "properties": { "内容": "介護老人保健施設　国立あおやぎ苑立川【介護老人保健施設】東京都立川市富士見町7丁目33番10号", "url2": "https://www.kaigokensaku.mhlw.go.jp/13/index.php?action_kouhyou_detail_004_kani=true&JigyosyoCd=1357081318-00&ServiceCd=520&Type=search" }, "geometry": { "type": "Point", "coordinates": [ 139.39782260000004, 35.6894775 ] } },
{ "type": "Feature", "properties": { "内容": "立川介護老人保健施設わかば【介護老人保健施設】東京都立川市若葉町3-45-2", "url2": "https://www.kaigokensaku.mhlw.go.jp/13/index.php?action_kouhyou_detail_004_kani=true&JigyosyoCd=1357080674-00&ServiceCd=520&Type=search" }, "geometry": { "type": "Point", "coordinates": [ 139.441181599999936, 35.7197306 ] } },
{ "type": "Feature", "properties": { "内容": "介護老人保健施設　サンセール武蔵野【介護老人保健施設】東京都武蔵野市桜堤1-9-7", "url2": "https://www.kaigokensaku.mhlw.go.jp/13/index.php?action_kouhyou_detail_004_kani=true&JigyosyoCd=1353380023-00&ServiceCd=520&Type=search" }, "geometry": { "type": "Point", "coordinates": [ 139.5340369, 35.7103796 ] } },
{ "type": "Feature", "properties": { "内容": "介護老人保健施設　ハウスグリーンパーク【介護老人保健施設】東京都武蔵野市緑町２－３－２１", "url2": "https://www.kaigokensaku.mhlw.go.jp/13/index.php?action_kouhyou_detail_004_kani=true&JigyosyoCd=1357080906-00&ServiceCd=520&Type=search" }, "geometry": { "type": "Point", "coordinates": [ 139.562990899999932, 35.7164536 ] } },
{ "type": "Feature", "properties": { "内容": "介護老人保健施設あんず苑アネックス【介護老人保健施設】東京都武蔵野市境1－19－20", "url2": "https://www.kaigokensaku.mhlw.go.jp/13/index.php?action_kouhyou_detail_004_kani=true&JigyosyoCd=1353380015-00&ServiceCd=520&Type=search" }, "geometry": { "type": "Point", "coordinates": [ 139.5472929, 35.7043546 ] } },
{ "type": "Feature", "properties": { "内容": "介護老人保健施設あんず苑【介護老人保健施設】東京都武蔵野市境1-18-5", "url2": "https://www.kaigokensaku.mhlw.go.jp/13/index.php?action_kouhyou_detail_004_kani=true&JigyosyoCd=1357080120-00&ServiceCd=520&Type=search" }, "geometry": { "type": "Point", "coordinates": [ 139.5472264, 35.703202 ] } },
{ "type": "Feature", "properties": { "内容": "三鷹市牟礼老人保健施設はなかいどう【介護老人保健施設】東京都三鷹市牟礼6-12-30", "url2": "https://www.kaigokensaku.mhlw.go.jp/13/index.php?action_kouhyou_detail_004_kani=true&JigyosyoCd=1357080682-00&ServiceCd=520&Type=search" }, "geometry": { "type": "Point", "coordinates": [ 139.574399399999947, 35.6878377 ] } },
{ "type": "Feature", "properties": { "内容": "介護老人保健施設　太郎【介護老人保健施設】東京都三鷹市下連雀4-2-8", "url2": "https://www.kaigokensaku.mhlw.go.jp/13/index.php?action_kouhyou_detail_004_kani=true&JigyosyoCd=1357080997-00&ServiceCd=520&Type=search" }, "geometry": { "type": "Point", "coordinates": [ 139.564702899999929, 35.6934953 ] } },
{ "type": "Feature", "properties": { "内容": "医療法人社団永寿会　介護老人保健施設　三鷹中央リハケアセンター【介護老人保健施設】東京都三鷹市下連雀9-2-7", "url2": "https://www.kaigokensaku.mhlw.go.jp/13/index.php?action_kouhyou_detail_004_kani=true&JigyosyoCd=1357081417-00&ServiceCd=520&Type=search" }, "geometry": { "type": "Point", "coordinates": [ 139.5633699, 35.6845185 ] } },
{ "type": "Feature", "properties": { "内容": "介護老人保健施設　三鷹ロイヤルの丘【介護老人保健施設】東京都三鷹市新川五丁目６番２４号", "url2": "https://www.kaigokensaku.mhlw.go.jp/13/index.php?action_kouhyou_detail_004_kani=true&JigyosyoCd=1353680018-00&ServiceCd=520&Type=search" }, "geometry": { "type": "Point", "coordinates": [ 139.570915527786269, 35.675285524952081 ] } },
{ "type": "Feature", "properties": { "内容": "介護老人保健施設　青梅すえひろ苑【介護老人保健施設】東京都青梅市末広町１丁目４番地５", "url2": "https://www.kaigokensaku.mhlw.go.jp/13/index.php?action_kouhyou_detail_004_kani=true&JigyosyoCd=1357080153-00&ServiceCd=520&Type=search" }, "geometry": { "type": "Point", "coordinates": [ 139.3133904, 35.7784008 ] } },
{ "type": "Feature", "properties": { "内容": "メディケア梅の園【介護老人保健施設】東京都青梅市駒木町3-594-1介護老人保健施設メディケア梅の園", "url2": "https://www.kaigokensaku.mhlw.go.jp/13/index.php?action_kouhyou_detail_004_kani=true&JigyosyoCd=1357080625-00&ServiceCd=520&Type=search" }, "geometry": { "type": "Point", "coordinates": [ 139.251665600000024, 35.7814016 ] } },
{ "type": "Feature", "properties": { "内容": "介護老人保健施設　西東京ケアセンター【介護老人保健施設】東京都青梅市友田町3-136-1", "url2": "https://www.kaigokensaku.mhlw.go.jp/13/index.php?action_kouhyou_detail_004_kani=true&JigyosyoCd=1352880015-00&ServiceCd=520&Type=search" }, "geometry": { "type": "Point", "coordinates": [ 139.291087131560488, 35.772854549600794 ] } },
{ "type": "Feature", "properties": { "内容": "介護老人保健施設　葵の園　武蔵府中【介護老人保健施設】東京都府中市片町2-16-1", "url2": "https://www.kaigokensaku.mhlw.go.jp/13/index.php?action_kouhyou_detail_004_kani=true&JigyosyoCd=1357080534-00&ServiceCd=520&Type=search" }, "geometry": { "type": "Point", "coordinates": [ 139.469923200000039, 35.6697953 ] } },
{ "type": "Feature", "properties": { "内容": "ウイング【介護老人保健施設】東京都府中市四谷６丁目１５番２", "url2": "https://www.kaigokensaku.mhlw.go.jp/13/index.php?action_kouhyou_detail_004_kani=true&JigyosyoCd=1357080716-00&ServiceCd=520&Type=search" }, "geometry": { "type": "Point", "coordinates": [ 139.435278499999981, 35.6696721 ] } },
{ "type": "Feature", "properties": { "内容": "介護老人保健施設ファミリート府中【介護老人保健施設】東京都府中市若松町2丁目4番4号", "url2": "https://www.kaigokensaku.mhlw.go.jp/13/index.php?action_kouhyou_detail_004_kani=true&JigyosyoCd=1353880022-00&ServiceCd=520&Type=search" }, "geometry": { "type": "Point", "coordinates": [ 139.4982817, 35.6712044 ] } },
{ "type": "Feature", "properties": { "内容": "介護老人保健施設　ふれあいの里【介護老人保健施設】東京都府中市押立町１丁目９番地１", "url2": "https://www.kaigokensaku.mhlw.go.jp/13/index.php?action_kouhyou_detail_004_kani=true&JigyosyoCd=1353880014-00&ServiceCd=520&Type=search" }, "geometry": { "type": "Point", "coordinates": [ 139.507137400000033, 35.6585872 ] } },
{ "type": "Feature", "properties": { "内容": "医療法人徳洲会　介護老人保健施設いちいの杜【介護老人保健施設】東京都昭島市武蔵野3-5-63", "url2": "https://www.kaigokensaku.mhlw.go.jp/13/index.php?action_kouhyou_detail_004_kani=true&JigyosyoCd=1354080028-00&ServiceCd=520&Type=search" }, "geometry": { "type": "Point", "coordinates": [ 139.375271, 35.7195245 ] } },
{ "type": "Feature", "properties": { "内容": "介護老人保健施設　アゼリア【介護老人保健施設】東京都昭島市田中町２丁目１番地３７", "url2": "https://www.kaigokensaku.mhlw.go.jp/13/index.php?action_kouhyou_detail_004_kani=true&JigyosyoCd=1357080401-00&ServiceCd=520&Type=search" }, "geometry": { "type": "Point", "coordinates": [ 139.356387, 35.7024723 ] } },
{ "type": "Feature", "properties": { "内容": "医療法人社団　佑樹会　介護老人保健施設　なごみの里【介護老人保健施設】東京都昭島市中神町1345番1", "url2": "https://www.kaigokensaku.mhlw.go.jp/13/index.php?action_kouhyou_detail_004_kani=true&JigyosyoCd=1357081227-00&ServiceCd=520&Type=search" }, "geometry": { "type": "Point", "coordinates": [ 139.386228299999971, 35.719218400000024 ] } },
{ "type": "Feature", "properties": { "内容": "介護老人保健施設　アゼリアアネックス【介護老人保健施設】東京都昭島市昭和町４－６－２", "url2": "https://www.kaigokensaku.mhlw.go.jp/13/index.php?action_kouhyou_detail_004_kani=true&JigyosyoCd=1354080010-00&ServiceCd=520&Type=search" }, "geometry": { "type": "Point", "coordinates": [ 139.363341699999978, 35.7101105 ] } },
{ "type": "Feature", "properties": { "内容": "医療法人社団心身会　介護老人保健施設いなほ【介護老人保健施設】東京都調布市染地２丁目３４番２１号", "url2": "https://www.kaigokensaku.mhlw.go.jp/13/index.php?action_kouhyou_detail_004_kani=true&JigyosyoCd=1357080799-00&ServiceCd=520&Type=search" }, "geometry": { "type": "Point", "coordinates": [ 139.5535463, 35.6382554 ] } },
{ "type": "Feature", "properties": { "内容": "介護老人保健施設フロリール調布【介護老人保健施設】東京都調布市下石原3-45-1", "url2": "https://www.kaigokensaku.mhlw.go.jp/13/index.php?action_kouhyou_detail_004_kani=true&JigyosyoCd=1357080062-00&ServiceCd=520&Type=search" }, "geometry": { "type": "Point", "coordinates": [ 139.532691500000027, 35.6509588 ] } },
{ "type": "Feature", "properties": { "内容": "介護老人保健施設グリーンガーデン青樹【介護老人保健施設】東京都調布市上石原三丁目33番地の17", "url2": "https://www.kaigokensaku.mhlw.go.jp/13/index.php?action_kouhyou_detail_004_kani=true&JigyosyoCd=1357080161-00&ServiceCd=520&Type=search" }, "geometry": { "type": "Point", "coordinates": [ 139.525213250926214, 35.650614796149384 ] } },
{ "type": "Feature", "properties": { "内容": "介護老人保健施設　花水木【介護老人保健施設】東京都調布市深大寺北町四丁目１７番地７", "url2": "https://www.kaigokensaku.mhlw.go.jp/13/index.php?action_kouhyou_detail_004_kani=true&JigyosyoCd=1357080211-00&ServiceCd=520&Type=search" }, "geometry": { "type": "Point", "coordinates": [ 139.551931719014419, 35.679568141187815 ] } },
{ "type": "Feature", "properties": { "内容": "介護老人保健施設　オネスティ南町田【介護老人保健施設】東京都町田市鶴間7丁目3番3号", "url2": "https://www.kaigokensaku.mhlw.go.jp/13/index.php?action_kouhyou_detail_004_kani=true&JigyosyoCd=1353280017-00&ServiceCd=520&Type=search" }, "geometry": { "type": "Point", "coordinates": [ 139.477845399999978, 35.5071703 ] } },
{ "type": "Feature", "properties": { "内容": "マイライフ尾根道【介護老人保健施設】東京都町田市常盤町3547番地2", "url2": "https://www.kaigokensaku.mhlw.go.jp/13/index.php?action_kouhyou_detail_004_kani=true&JigyosyoCd=1357080609-00&ServiceCd=520&Type=search" }, "geometry": { "type": "Point", "coordinates": [ 139.4036178, 35.5847622 ] } },
{ "type": "Feature", "properties": { "内容": "介護老人保健施設町田さくらんぼ【介護老人保健施設】東京都町田市小野路町１６３２番地", "url2": "https://www.kaigokensaku.mhlw.go.jp/13/index.php?action_kouhyou_detail_004_kani=true&JigyosyoCd=1357080146-00&ServiceCd=520&Type=search" }, "geometry": { "type": "Point", "coordinates": [ 139.445641499999965, 35.5961451 ] } },
{ "type": "Feature", "properties": { "内容": "介護老人保健施設　サンシルバー町田【介護老人保健施設】東京都町田市相原町２３７３番１", "url2": "https://www.kaigokensaku.mhlw.go.jp/13/index.php?action_kouhyou_detail_004_kani=true&JigyosyoCd=1357080245-00&ServiceCd=520&Type=search" }, "geometry": { "type": "Point", "coordinates": [ 139.314166399999976, 35.6132973 ] } },
{ "type": "Feature", "properties": { "内容": "介護老人保健施設　ハピネスせりがや【介護老人保健施設】東京都町田市原町田４－２７－２９", "url2": "https://www.kaigokensaku.mhlw.go.jp/13/index.php?action_kouhyou_detail_004_kani=true&JigyosyoCd=1357080930-00&ServiceCd=520&Type=search" }, "geometry": { "type": "Point", "coordinates": [ 139.454814264418019, 35.543708419763888 ] } },
{ "type": "Feature", "properties": { "内容": "医療法人社団　康心会　介護老人保健施設　ふれあいの町田【介護老人保健施設】東京都町田市小山ヶ丘１－３－７", "url2": "https://www.kaigokensaku.mhlw.go.jp/13/index.php?action_kouhyou_detail_004_kani=true&JigyosyoCd=1357081557-00&ServiceCd=520&Type=search" }, "geometry": { "type": "Point", "coordinates": [ 139.382474900000034, 35.5978462 ] } },
{ "type": "Feature", "properties": { "内容": "介護老人保健施設　小金井あんず苑【介護老人保健施設】東京都小金井市前原町5-3-24", "url2": "https://www.kaigokensaku.mhlw.go.jp/13/index.php?action_kouhyou_detail_004_kani=true&JigyosyoCd=1357080419-00&ServiceCd=520&Type=search" }, "geometry": { "type": "Point", "coordinates": [ 139.497872899999948, 35.6877162 ] } },
{ "type": "Feature", "properties": { "内容": "介護老人保健施設　秋桜【介護老人保健施設】東京都小金井市前原町4丁目4番47号", "url2": "https://www.kaigokensaku.mhlw.go.jp/13/index.php?action_kouhyou_detail_004_kani=true&JigyosyoCd=1357081508-00&ServiceCd=520&Type=search" }, "geometry": { "type": "Point", "coordinates": [ 139.504375641139148, 35.686529369352279 ] } },
{ "type": "Feature", "properties": { "内容": "介護老人保健施設けやきの郷【介護老人保健施設】東京都小平市小川町1丁目485番地", "url2": "https://www.kaigokensaku.mhlw.go.jp/13/index.php?action_kouhyou_detail_004_kani=true&JigyosyoCd=1357080344-00&ServiceCd=520&Type=search" }, "geometry": { "type": "Point", "coordinates": [ 139.4402663, 35.728184400000032 ] } },
{ "type": "Feature", "properties": { "内容": "介護老人保健施設　プラチナ・ヴィラ小平【介護老人保健施設】東京都小平市鈴木町１－８５－１プラチナ・ヴィラ小平", "url2": "https://www.kaigokensaku.mhlw.go.jp/13/index.php?action_kouhyou_detail_004_kani=true&JigyosyoCd=1354380014-00&ServiceCd=520&Type=search" }, "geometry": { "type": "Point", "coordinates": [ 139.4936925, 35.7257566 ] } },
{ "type": "Feature", "properties": { "内容": "介護老人保健施設・クローバー【介護老人保健施設】東京都日野市東平山3-1-1介護老人保健施設クローバー", "url2": "https://www.kaigokensaku.mhlw.go.jp/13/index.php?action_kouhyou_detail_004_kani=true&JigyosyoCd=1357081482-00&ServiceCd=520&Type=search" }, "geometry": { "type": "Point", "coordinates": [ 139.378192300000023, 35.6548697 ] } },
{ "type": "Feature", "properties": { "内容": "介護老人保健施設　高幡みさわの杜【介護老人保健施設】東京都日野市三沢3-22-14", "url2": "https://www.kaigokensaku.mhlw.go.jp/13/index.php?action_kouhyou_detail_004_kani=true&JigyosyoCd=1357080807-00&ServiceCd=520&Type=search" }, "geometry": { "type": "Point", "coordinates": [ 139.418302600000061, 35.6581841 ] } },
{ "type": "Feature", "properties": { "内容": "介護老人保健施設サルビア【介護老人保健施設】東京都日野市万願寺1丁目18番地の1", "url2": "https://www.kaigokensaku.mhlw.go.jp/13/index.php?action_kouhyou_detail_004_kani=true&JigyosyoCd=1357080914-00&ServiceCd=520&Type=search" }, "geometry": { "type": "Point", "coordinates": [ 139.419732100000033, 35.6763349 ] } },
{ "type": "Feature", "properties": { "内容": "介護老人保健施設ロベリア【介護老人保健施設】東京都日野市万願寺1-13-4", "url2": "https://www.kaigokensaku.mhlw.go.jp/13/index.php?action_kouhyou_detail_004_kani=true&JigyosyoCd=1357081193-00&ServiceCd=520&Type=search" }, "geometry": { "type": "Point", "coordinates": [ 139.419929300000035, 35.6753822 ] } },
{ "type": "Feature", "properties": { "内容": "介護老人保健施設カトレア【介護老人保健施設】東京都日野市日野本町6-3-17", "url2": "https://www.kaigokensaku.mhlw.go.jp/13/index.php?action_kouhyou_detail_004_kani=true&JigyosyoCd=1357080740-00&ServiceCd=520&Type=search" }, "geometry": { "type": "Point", "coordinates": [ 139.401361299999962, 35.6833087 ] } },
{ "type": "Feature", "properties": { "内容": "介護老人保健施設　東京ばんなん白光園【介護老人保健施設】東京都東村山市諏訪町二丁目２６番地１", "url2": "https://www.kaigokensaku.mhlw.go.jp/13/index.php?action_kouhyou_detail_004_kani=true&JigyosyoCd=1357080039-00&ServiceCd=520&Type=search" }, "geometry": { "type": "Point", "coordinates": [ 139.463783806654277, 35.771985620031579 ] } },
{ "type": "Feature", "properties": { "内容": "社会医療法人社団愛有会介護老人保健施設久米川【介護老人保健施設】東京都東村山市本町4-7-14", "url2": "https://www.kaigokensaku.mhlw.go.jp/13/index.php?action_kouhyou_detail_004_kani=true&JigyosyoCd=1352780017-00&ServiceCd=520&Type=search" }, "geometry": { "type": "Point", "coordinates": [ 139.469760255819665, 35.754770756848004 ] } },
{ "type": "Feature", "properties": { "内容": "社会医療法人社団愛有会介護老人保健施設久米川【介護老人保健施設】東京都東村山市本町4-7-14", "url2": "https://www.kaigokensaku.mhlw.go.jp/13/index.php?action_kouhyou_detail_004_kani=true&JigyosyoCd=1352780025-00&ServiceCd=520&Type=search" }, "geometry": { "type": "Point", "coordinates": [ 139.469781713491784, 35.754748990039403 ] } },
{ "type": "Feature", "properties": { "内容": "介護老人保健施設グリーン・ボイス【介護老人保健施設】東京都東村山市萩山町3-31-2", "url2": "https://www.kaigokensaku.mhlw.go.jp/13/index.php?action_kouhyou_detail_004_kani=true&JigyosyoCd=1357080278-00&ServiceCd=520&Type=search" }, "geometry": { "type": "Point", "coordinates": [ 139.468161799999962, 35.7439783 ] } },
{ "type": "Feature", "properties": { "内容": "公益財団法人結核予防会　介護老人保健施設保生の森【介護老人保健施設】東京都東村山市諏訪町３丁目６番地１", "url2": "https://www.kaigokensaku.mhlw.go.jp/13/index.php?action_kouhyou_detail_004_kani=true&JigyosyoCd=1357080732-00&ServiceCd=520&Type=search" }, "geometry": { "type": "Point", "coordinates": [ 139.46193930000004, 35.7708839 ] } },
{ "type": "Feature", "properties": { "内容": "介護老人保健施設　多摩すずらん【介護老人保健施設】東京都東村山市青葉町2-27-1", "url2": "https://www.kaigokensaku.mhlw.go.jp/13/index.php?action_kouhyou_detail_004_kani=true&JigyosyoCd=1357080815-00&ServiceCd=520&Type=search" }, "geometry": { "type": "Point", "coordinates": [ 139.491770200000019, 35.7624328 ] } },
{ "type": "Feature", "properties": { "内容": "国分寺市介護老人保健施設すこやか【介護老人保健施設】東京都国分寺市泉町2-3-8国分寺市いずみプラザ", "url2": "https://www.kaigokensaku.mhlw.go.jp/13/index.php?action_kouhyou_detail_004_kani=true&JigyosyoCd=1357080823-00&ServiceCd=520&Type=search" }, "geometry": { "type": "Point", "coordinates": [ 139.468785426983715, 35.696308290291512 ] } },
{ "type": "Feature", "properties": { "内容": "介護老人保健施設にんじん健康ひろば【介護老人保健施設】東京都国分寺市西元町2-16-40", "url2": "https://www.kaigokensaku.mhlw.go.jp/13/index.php?action_kouhyou_detail_004_kani=true&JigyosyoCd=1353180019-00&ServiceCd=520&Type=search" }, "geometry": { "type": "Point", "coordinates": [ 139.4693304, 35.6951534 ] } },
{ "type": "Feature", "properties": { "内容": "介護老人保健施設　あるふぁ国立【介護老人保健施設】東京都国立市谷保6-21-13", "url2": "https://www.kaigokensaku.mhlw.go.jp/13/index.php?action_kouhyou_detail_004_kani=true&JigyosyoCd=1357080567-00&ServiceCd=520&Type=search" }, "geometry": { "type": "Point", "coordinates": [ 139.442686099999946, 35.6753661 ] } },
{ "type": "Feature", "properties": { "内容": "介護老人保健施設国立あおやぎ苑【介護老人保健施設】東京都国立市青柳3丁目5番地の1", "url2": "https://www.kaigokensaku.mhlw.go.jp/13/index.php?action_kouhyou_detail_004_kani=true&JigyosyoCd=1357080575-00&ServiceCd=520&Type=search" }, "geometry": { "type": "Point", "coordinates": [ 139.42119, 35.6875534 ] } },
{ "type": "Feature", "properties": { "内容": "介護老人保健施設国立あおやぎ苑みのわ通り【介護老人保健施設】東京都国立市青柳3丁目2番4号", "url2": "https://www.kaigokensaku.mhlw.go.jp/13/index.php?action_kouhyou_detail_004_kani=true&JigyosyoCd=1353480013-00&ServiceCd=520&Type=search" }, "geometry": { "type": "Point", "coordinates": [ 139.4205513, 35.6858479 ] } },
{ "type": "Feature", "properties": { "内容": "医療法人社団永進会　介護老人保健施設ユーアイビラ【介護老人保健施設】東京都福生市南田園一丁目10番地3", "url2": "https://www.kaigokensaku.mhlw.go.jp/13/index.php?action_kouhyou_detail_004_kani=true&JigyosyoCd=1357081052-00&ServiceCd=520&Type=search" }, "geometry": { "type": "Point", "coordinates": [ 139.33170210000003, 35.7228442 ] } },
{ "type": "Feature", "properties": { "内容": "介護老人保健施設　プラチナ・ヴィラ東大和【介護老人保健施設】東京都東大和市芋窪6-1284-1", "url2": "https://www.kaigokensaku.mhlw.go.jp/13/index.php?action_kouhyou_detail_004_kani=true&JigyosyoCd=1354680017-00&ServiceCd=520&Type=search" }, "geometry": { "type": "Point", "coordinates": [ 139.412708299999963, 35.750551600000023 ] } },
{ "type": "Feature", "properties": { "内容": "介護老人保健施設　東大和ケアセンター【介護老人保健施設】東京都東大和市南街1-13-1", "url2": "https://www.kaigokensaku.mhlw.go.jp/13/index.php?action_kouhyou_detail_004_kani=true&JigyosyoCd=1357080443-00&ServiceCd=520&Type=search" }, "geometry": { "type": "Point", "coordinates": [ 139.431659599999989, 35.7414641 ] } },
{ "type": "Feature", "properties": { "内容": "介護老人保健施設きよせ認知症ケアセンター【介護老人保健施設】東京都清瀬市中清戸５－２７", "url2": "https://www.kaigokensaku.mhlw.go.jp/13/index.php?action_kouhyou_detail_004_kani=true&JigyosyoCd=1357080898-00&ServiceCd=520&Type=search" }, "geometry": { "type": "Point", "coordinates": [ 139.53699359999996, 35.7770539 ] } },
{ "type": "Feature", "properties": { "内容": "介護老人保健施設ラビアンローゼ【介護老人保健施設】東京都清瀬市下清戸三丁目385番地", "url2": "https://www.kaigokensaku.mhlw.go.jp/13/index.php?action_kouhyou_detail_004_kani=true&JigyosyoCd=1357080369-00&ServiceCd=520&Type=search" }, "geometry": { "type": "Point", "coordinates": [ 139.5389711, 35.7848836 ] } },
{ "type": "Feature", "properties": { "内容": "介護老人保健施設　たけおか【介護老人保健施設】東京都清瀬市竹丘2-3-21", "url2": "https://www.kaigokensaku.mhlw.go.jp/13/index.php?action_kouhyou_detail_004_kani=true&JigyosyoCd=1357080450-00&ServiceCd=520&Type=search" }, "geometry": { "type": "Point", "coordinates": [ 139.508915800000068, 35.7652437 ] } },
{ "type": "Feature", "properties": { "内容": "ケア東久留米【介護老人保健施設】東京都東久留米市幸町3-11-10介護老人保健施設　ケア東久留米", "url2": "https://www.kaigokensaku.mhlw.go.jp/13/index.php?action_kouhyou_detail_004_kani=true&JigyosyoCd=1357081516-00&ServiceCd=520&Type=search" }, "geometry": { "type": "Point", "coordinates": [ 139.521606600000041, 35.7583807 ] } },
{ "type": "Feature", "properties": { "内容": "医療法人財団立川中央病院介護老人保健施設アルカディア【介護老人保健施設】東京都武蔵村山市三ツ藤一丁目９８番の１", "url2": "https://www.kaigokensaku.mhlw.go.jp/13/index.php?action_kouhyou_detail_004_kani=true&JigyosyoCd=1357081300-00&ServiceCd=520&Type=search" }, "geometry": { "type": "Point", "coordinates": [ 139.379841899999974, 35.7482203 ] } },
{ "type": "Feature", "properties": { "内容": "介護老人保健施設聖の郷【介護老人保健施設】東京都多摩市連光寺2-69-6", "url2": "https://www.kaigokensaku.mhlw.go.jp/13/index.php?action_kouhyou_detail_004_kani=true&JigyosyoCd=1357080617-00&ServiceCd=520&Type=search" }, "geometry": { "type": "Point", "coordinates": [ 139.453767199999987, 35.6394318 ] } },
{ "type": "Feature", "properties": { "内容": "あい介護老人保健施設【介護老人保健施設】東京都多摩市中沢1-17-38", "url2": "https://www.kaigokensaku.mhlw.go.jp/13/index.php?action_kouhyou_detail_004_kani=true&JigyosyoCd=1357081045-00&ServiceCd=520&Type=search" }, "geometry": { "type": "Point", "coordinates": [ 139.412685300000021, 35.6221716 ] } },
{ "type": "Feature", "properties": { "内容": "介護老人保健施設デンマークイン若葉台【介護老人保健施設】東京都稲城市若葉台３－７－１", "url2": "https://www.kaigokensaku.mhlw.go.jp/13/index.php?action_kouhyou_detail_004_kani=true&JigyosyoCd=1357080013-00&ServiceCd=520&Type=search" }, "geometry": { "type": "Point", "coordinates": [ 139.46467819999998, 35.6243789 ] } },
{ "type": "Feature", "properties": { "内容": "医療法人社団葵会　介護老人保健施設　葵の園・羽村【介護老人保健施設】東京都羽村市栄町三丁目3番3号", "url2": "https://www.kaigokensaku.mhlw.go.jp/13/index.php?action_kouhyou_detail_004_kani=true&JigyosyoCd=1355380013-00&ServiceCd=520&Type=search" }, "geometry": { "type": "Point", "coordinates": [ 139.314131957533249, 35.772850104049745 ] } },
{ "type": "Feature", "properties": { "内容": "介護老人保健施設　あかしあの里【介護老人保健施設】東京都羽村市玉川二丁目６番６号", "url2": "https://www.kaigokensaku.mhlw.go.jp/13/index.php?action_kouhyou_detail_004_kani=true&JigyosyoCd=1357080971-00&ServiceCd=520&Type=search" }, "geometry": { "type": "Point", "coordinates": [ 139.314741300000037, 35.7490711 ] } },
{ "type": "Feature", "properties": { "内容": "オキドキ【介護老人保健施設】東京都あきる野市伊奈４７７番地１", "url2": "https://www.kaigokensaku.mhlw.go.jp/13/index.php?action_kouhyou_detail_004_kani=true&JigyosyoCd=1357081326-00&ServiceCd=520&Type=search" }, "geometry": { "type": "Point", "coordinates": [ 139.255119299999933, 35.7331518 ] } },
{ "type": "Feature", "properties": { "内容": "介護老人保健施設　さくら【介護老人保健施設】東京都あきる野市草花字南小宮３０７９番５", "url2": "https://www.kaigokensaku.mhlw.go.jp/13/index.php?action_kouhyou_detail_004_kani=true&JigyosyoCd=1357080526-00&ServiceCd=520&Type=search" }, "geometry": { "type": "Point", "coordinates": [ 139.314736, 35.7409554 ] } },
{ "type": "Feature", "properties": { "内容": "介護老人保健施設　リハビリパークあきる野【介護老人保健施設】東京都あきる野市渕上1介護老人保健施設　リハビリパークあきる野", "url2": "https://www.kaigokensaku.mhlw.go.jp/13/index.php?action_kouhyou_detail_004_kani=true&JigyosyoCd=1355280015-00&ServiceCd=520&Type=search" }, "geometry": { "type": "Point", "coordinates": [ 139.2746462, 35.7238869 ] } },
{ "type": "Feature", "properties": { "内容": "介護老人保健施設　ハートフル田無【介護老人保健施設】東京都西東京市向台町2-16-22", "url2": "https://www.kaigokensaku.mhlw.go.jp/13/index.php?action_kouhyou_detail_004_kani=true&JigyosyoCd=1357080641-00&ServiceCd=520&Type=search" }, "geometry": { "type": "Point", "coordinates": [ 139.5394427, 35.7203941 ] } },
{ "type": "Feature", "properties": { "内容": "介護老人保健施設　武蔵野徳洲苑【介護老人保健施設】東京都西東京市向台町3丁目5番57号", "url2": "https://www.kaigokensaku.mhlw.go.jp/13/index.php?action_kouhyou_detail_004_kani=true&JigyosyoCd=1355480011-00&ServiceCd=520&Type=search" }, "geometry": { "type": "Point", "coordinates": [ 139.533336385319558, 35.718349431901721 ] } },
{ "type": "Feature", "properties": { "内容": "介護老人保健施設　葵の園・ひばりが丘【介護老人保健施設】東京都西東京市ひばりが丘３丁目１番地８号", "url2": "https://www.kaigokensaku.mhlw.go.jp/13/index.php?action_kouhyou_detail_004_kani=true&JigyosyoCd=1355480029-00&ServiceCd=520&Type=search" }, "geometry": { "type": "Point", "coordinates": [ 139.53678096067847, 35.744276225694655 ] } },
{ "type": "Feature", "properties": { "内容": "介護老人保健施設　菜の花【介護老人保健施設】東京都西多摩郡瑞穂町殿ヶ谷454", "url2": "https://www.kaigokensaku.mhlw.go.jp/13/index.php?action_kouhyou_detail_004_kani=true&JigyosyoCd=1357081201-00&ServiceCd=520&Type=search" }, "geometry": { "type": "Point", "coordinates": [ 139.356727, 35.7577324 ] } },
{ "type": "Feature", "properties": { "内容": "介護老人保健施設　けんちの苑みずほ【介護老人保健施設】東京都西多摩郡瑞穂町大字長岡長谷部31－1", "url2": "https://www.kaigokensaku.mhlw.go.jp/13/index.php?action_kouhyou_detail_004_kani=true&JigyosyoCd=1357081029-00&ServiceCd=520&Type=search" }, "geometry": { "type": "Point", "coordinates": [ 139.330011, 35.7872753 ] } },
{ "type": "Feature", "properties": { "内容": "介護老人保健施設　ファミリート日の出【介護老人保健施設】東京都西多摩郡日の出町平井351-1", "url2": "https://www.kaigokensaku.mhlw.go.jp/13/index.php?action_kouhyou_detail_004_kani=true&JigyosyoCd=1352480022-00&ServiceCd=520&Type=search" }, "geometry": { "type": "Point", "coordinates": [ 139.283317500000067, 35.7340969 ] } },
{ "type": "Feature", "properties": { "内容": "介護老人保健施設　ウェルピア白寿【介護老人保健施設】東京都西多摩郡日の出町平井3820番地", "url2": "https://www.kaigokensaku.mhlw.go.jp/13/index.php?action_kouhyou_detail_004_kani=true&JigyosyoCd=1357081391-00&ServiceCd=520&Type=search" }, "geometry": { "type": "Point", "coordinates": [ 139.271900465020707, 35.744813073069544 ] } },
{ "type": "Feature", "properties": { "内容": "介護老人保健施設　日の出さくら【介護老人保健施設】東京都西多摩郡日の出町大字平井字宮本3608番1", "url2": "https://www.kaigokensaku.mhlw.go.jp/13/index.php?action_kouhyou_detail_004_kani=true&JigyosyoCd=1352480030-00&ServiceCd=520&Type=search" }, "geometry": { "type": "Point", "coordinates": [ 139.267153775839546, 35.744486734015659 ] } }
]
}
